{"type": "FeatureCollection", "features": [{"id": "0", "type": "Feature", "properties": {"id": null, "Name": "\u00c1rea 151", "descriptio": "DISCRIMINA\u00c7\u00c3O E CLASSIFICA\u00c7\u00c3O DO PROBLEMA\nSC \u2013 Sem cobertura\n\nLOCALIZA\u00c7\u00c3O\nDist\u00e2ncia do eixo (m) 25\n\nDIMENS\u00d5ES (m)\nComprimento 150\nLargura 40\nAltura 1,0\n\nSOLU\u00c7\u00c3O\nCercamento da \u00e1rea, prote\u00e7\u00e3o vegetal (PVE) com mudas e leguminosas. Implanta\u00e7", "timestamp": null, "begin": null, "end": null, "altitudeMo": null, "tessellate": -1, "extrude": 0, "visibility": -1, "drawOrder": null, "icon": null}, "geometry": {"type": "Point", "coordinates": [-62.19894606201051, -5.611732637892503, 0.0]}}, {"id": "1", "type": "Feature", "properties": {"id": null, "Name": "\u00c1rea 152", "descriptio": "DISCRIMINA\u00c7\u00c3O E CLASSIFICA\u00c7\u00c3O DO PROBLEMA\nSC \u2013 Sem cobertura\n\nLOCALIZA\u00c7\u00c3O\nDist\u00e2ncia do eixo (m) 0\n\nDIMENS\u00d5ES (m)\nComprimento 40\nLargura 15\n\nSOLU\u00c7\u00c3O\nCercamento da \u00e1rea, prote\u00e7\u00e3o vegetal (PVE) com mudas, biomanta e\nleguminosas. Implanta\u00e7\u00e3o", "timestamp": null, "begin": null, "end": null, "altitudeMo": null, "tessellate": -1, "extrude": 0, "visibility": -1, "drawOrder": null, "icon": null}, "geometry": {"type": "Point", "coordinates": [-62.1918687360819, -5.600696289067937, 0.0]}}, {"id": "2", "type": "Feature", "properties": {"id": null, "Name": "\u00c1rea 153", "descriptio": "DISCRIMINA\u00c7\u00c3O E CLASSIFICA\u00c7\u00c3O DO PROBLEMA\nSC \u2013 Sem cobertura\n\nLOCALIZA\u00c7\u00c3O\nDist\u00e2ncia do eixo (m) 0\n\nDIMENS\u00d5ES (m)\nComprimento 50\nLargura 15\n\nSOLU\u00c7\u00c3O\nCercamento da \u00e1rea, prote\u00e7\u00e3o vegetal (PVE) com mudas, biomanta e\nleguminosas. Implanta\u00e7\u00e3o", "timestamp": null, "begin": null, "end": null, "altitudeMo": null, "tessellate": -1, "extrude": 0, "visibility": -1, "drawOrder": null, "icon": null}, "geometry": {"type": "Point", "coordinates": [-62.19837753959664, -5.611125989411972, 0.0]}}, {"id": "3", "type": "Feature", "properties": {"id": null, "Name": "\u00c1rea 154", "descriptio": "DISCRIMINA\u00c7\u00c3O E CLASSIFICA\u00c7\u00c3O DO PROBLEMA\nER (33) - Eros\u00e3o (Ravinamento), ER (30) - Eros\u00e3o (Sulcos); SC \u2013 Sem cobertura\n\nLOCALIZA\u00c7\u00c3O\nDist\u00e2ncia do eixo (m) 5\n\nDIMENS\u00d5ES (m)\nComprimento 73,10\nLargura 94,20\nAltura 1,0\n\nSOLU\u00c7\u00c3O\nProte\u00e7\u00e3o veget", "timestamp": null, "begin": null, "end": null, "altitudeMo": null, "tessellate": -1, "extrude": 0, "visibility": -1, "drawOrder": null, "icon": null}, "geometry": {"type": "Point", "coordinates": [-62.22644444444445, -5.656138888888889, 0.0]}}, {"id": "4", "type": "Feature", "properties": {"id": null, "Name": "\u00c1rea 155", "descriptio": "DISCRIMINA\u00c7\u00c3O E CLASSIFICA\u00c7\u00c3O DO PROBLEMA\nER (30) - Eros\u00e3o (Em Sulcos), SC \u2013 Sem cobertura\n\nLOCALIZA\u00c7\u00c3O\nDist\u00e2ncia do eixo (m) 5\n\nDIMENS\u00d5ES (m)\nComprimento 53,3\nLargura 96,9\nAltura 0,5\n\nSOLU\u00c7\u00c3O\nProte\u00e7\u00e3o vegetal (PVE) com mudas e leguminosas", "timestamp": null, "begin": null, "end": null, "altitudeMo": null, "tessellate": -1, "extrude": 0, "visibility": -1, "drawOrder": null, "icon": null}, "geometry": {"type": "Point", "coordinates": [-62.28582162773975, -5.750811111111111, 0.0]}}, {"id": "5", "type": "Feature", "properties": {"id": null, "Name": "\u00c1rea 156", "descriptio": "DISCRIMINA\u00c7\u00c3O E CLASSIFICA\u00c7\u00c3O DO PROBLEMA\nProcessos Erosivos\n\nLOCALIZA\u00c7\u00c3O\nDist\u00e2ncia do eixo (m) 30\n\nDIMENS\u00d5ES (m)\nComprimento 100\nLargura 160\n\nSOLU\u00c7\u00c3O\nProte\u00e7\u00e3o vegetal (PVE) com mudas e leguminosas; Cercamento da \u00e1rea;\nImplanta\u00e7\u00e3o placa.\n\n", "timestamp": null, "begin": null, "end": null, "altitudeMo": null, "tessellate": -1, "extrude": 0, "visibility": -1, "drawOrder": null, "icon": null}, "geometry": {"type": "Point", "coordinates": [-62.31412695816888, -5.792616666666667, 0.0]}}, {"id": "6", "type": "Feature", "properties": {"id": null, "Name": "\u00c1rea 157", "descriptio": null, "timestamp": null, "begin": null, "end": null, "altitudeMo": null, "tessellate": -1, "extrude": 0, "visibility": -1, "drawOrder": null, "icon": null}, "geometry": {"type": "Point", "coordinates": [-62.34231579933928, -5.828448440514105, 0.0]}}, {"id": "7", "type": "Feature", "properties": {"id": null, "Name": "\u00c1rea 158", "descriptio": null, "timestamp": null, "begin": null, "end": null, "altitudeMo": null, "tessellate": -1, "extrude": 0, "visibility": -1, "drawOrder": null, "icon": null}, "geometry": {"type": "Point", "coordinates": [-62.34310177911428, -5.82793014245429, 0.0]}}, {"id": "8", "type": "Feature", "properties": {"id": null, "Name": "\u00c1rea 159", "descriptio": null, "timestamp": null, "begin": null, "end": null, "altitudeMo": null, "tessellate": -1, "extrude": 0, "visibility": -1, "drawOrder": null, "icon": null}, "geometry": {"type": "Point", "coordinates": [-62.33203822084585, -5.817322426307343, 0.0]}}, {"id": "9", "type": "Feature", "properties": {"id": null, "Name": "\u00c1rea 160", "descriptio": null, "timestamp": null, "begin": null, "end": null, "altitudeMo": null, "tessellate": -1, "extrude": 0, "visibility": -1, "drawOrder": null, "icon": null}, "geometry": {"type": "Point", "coordinates": [-62.35134589163316, -5.837139251206157, 0.0]}}, {"id": "10", "type": "Feature", "properties": {"id": null, "Name": "\u00c1rea 161", "descriptio": null, "timestamp": null, "begin": null, "end": null, "altitudeMo": null, "tessellate": -1, "extrude": 0, "visibility": -1, "drawOrder": null, "icon": null}, "geometry": {"type": "Point", "coordinates": [-62.3539120601212, -5.840587990045236, 0.0]}}, {"id": "11", "type": "Feature", "properties": {"id": null, "Name": "\u00c1rea 162", "descriptio": null, "timestamp": null, "begin": null, "end": null, "altitudeMo": null, "tessellate": -1, "extrude": 0, "visibility": -1, "drawOrder": null, "icon": null}, "geometry": {"type": "Point", "coordinates": [-62.34355330535048, -5.829242924486652, 0.0]}}, {"id": "12", "type": "Feature", "properties": {"id": null, "Name": "\u00c1rea 163", "descriptio": null, "timestamp": null, "begin": null, "end": null, "altitudeMo": null, "tessellate": -1, "extrude": 0, "visibility": -1, "drawOrder": null, "icon": null}, "geometry": {"type": "Point", "coordinates": [-62.37842138881037, -5.867043534796484, 0.0]}}, {"id": "13", "type": "Feature", "properties": {"id": null, "Name": "\u00c1rea 164", "descriptio": null, "timestamp": null, "begin": null, "end": null, "altitudeMo": null, "tessellate": -1, "extrude": 0, "visibility": -1, "drawOrder": null, "icon": null}, "geometry": {"type": "Point", "coordinates": [-62.37971702842913, -5.868084719614632, 0.0]}}, {"id": "14", "type": "Feature", "properties": {"id": null, "Name": "\u00c1rea 165", "descriptio": null, "timestamp": null, "begin": null, "end": null, "altitudeMo": null, "tessellate": -1, "extrude": 0, "visibility": -1, "drawOrder": null, "icon": null}, "geometry": {"type": "Point", "coordinates": [-62.37590777825855, -5.863844407566242, 0.0]}}, {"id": "15", "type": "Feature", "properties": {"id": null, "Name": "\u00c1rea 166", "descriptio": null, "timestamp": null, "begin": null, "end": null, "altitudeMo": null, "tessellate": -1, "extrude": 0, "visibility": -1, "drawOrder": null, "icon": null}, "geometry": {"type": "Point", "coordinates": [-62.40138551778131, -5.891593879731751, 0.0]}}, {"id": "16", "type": "Feature", "properties": {"id": null, "Name": "\u00c1rea 167", "descriptio": null, "timestamp": null, "begin": null, "end": null, "altitudeMo": null, "tessellate": -1, "extrude": 0, "visibility": -1, "drawOrder": null, "icon": null}, "geometry": {"type": "Point", "coordinates": [-62.40061442293902, -5.890413513078831, 0.0]}}, {"id": "17", "type": "Feature", "properties": {"id": null, "Name": "\u00c1rea 168", "descriptio": null, "timestamp": null, "begin": null, "end": null, "altitudeMo": null, "tessellate": -1, "extrude": 0, "visibility": -1, "drawOrder": null, "icon": null}, "geometry": {"type": "Point", "coordinates": [-62.48250531062263, -5.964840013836986, 0.0]}}, {"id": "18", "type": "Feature", "properties": {"id": null, "Name": "\u00c1rea 169", "descriptio": null, "timestamp": null, "begin": null, "end": null, "altitudeMo": null, "tessellate": -1, "extrude": 0, "visibility": -1, "drawOrder": null, "icon": null}, "geometry": {"type": "Point", "coordinates": [-62.50533227238235, -5.994464053646356, 0.0]}}, {"id": "19", "type": "Feature", "properties": {"id": null, "Name": "\u00c1rea 170", "descriptio": null, "timestamp": null, "begin": null, "end": null, "altitudeMo": null, "tessellate": -1, "extrude": 0, "visibility": -1, "drawOrder": null, "icon": null}, "geometry": {"type": "Point", "coordinates": [-62.50887665631113, -6.000400753620498, 0.0]}}, {"id": "20", "type": "Feature", "properties": {"id": null, "Name": "\u00c1rea 171", "descriptio": null, "timestamp": null, "begin": null, "end": null, "altitudeMo": null, "tessellate": -1, "extrude": 0, "visibility": -1, "drawOrder": null, "icon": null}, "geometry": {"type": "Point", "coordinates": [-62.51108157071723, -6.002714411719411, 0.0]}}, {"id": "21", "type": "Feature", "properties": {"id": null, "Name": "\u00c1rea 172", "descriptio": null, "timestamp": null, "begin": null, "end": null, "altitudeMo": null, "tessellate": -1, "extrude": 0, "visibility": -1, "drawOrder": null, "icon": null}, "geometry": {"type": "Point", "coordinates": [-62.51906431739121, -6.016039057679055, 0.0]}}, {"id": "22", "type": "Feature", "properties": {"id": null, "Name": "\u00c1rea 173", "descriptio": null, "timestamp": null, "begin": null, "end": null, "altitudeMo": null, "tessellate": -1, "extrude": 0, "visibility": -1, "drawOrder": null, "icon": null}, "geometry": {"type": "Point", "coordinates": [-62.54124444228423, -6.053333968718708, 0.0]}}, {"id": "23", "type": "Feature", "properties": {"id": null, "Name": "\u00c1rea 174", "descriptio": null, "timestamp": null, "begin": null, "end": null, "altitudeMo": null, "tessellate": -1, "extrude": 0, "visibility": -1, "drawOrder": null, "icon": null}, "geometry": {"type": "Point", "coordinates": [-62.54542580299406, -6.059036418848912, 0.0]}}, {"id": "24", "type": "Feature", "properties": {"id": null, "Name": "\u00c1rea 175", "descriptio": null, "timestamp": null, "begin": null, "end": null, "altitudeMo": null, "tessellate": -1, "extrude": 0, "visibility": -1, "drawOrder": null, "icon": null}, "geometry": {"type": "Point", "coordinates": [-62.54793372023268, -6.064161142299819, 0.0]}}, {"id": "25", "type": "Feature", "properties": {"id": null, "Name": "\u00c1rea 176", "descriptio": null, "timestamp": null, "begin": null, "end": null, "altitudeMo": null, "tessellate": -1, "extrude": 0, "visibility": -1, "drawOrder": null, "icon": null}, "geometry": {"type": "Point", "coordinates": [-62.54880509713651, -6.065413450846677, 0.0]}}, {"id": "26", "type": "Feature", "properties": {"id": null, "Name": "\u00c1rea 177", "descriptio": null, "timestamp": null, "begin": null, "end": null, "altitudeMo": null, "tessellate": -1, "extrude": 0, "visibility": -1, "drawOrder": null, "icon": null}, "geometry": {"type": "Point", "coordinates": [-62.56060846589874, -6.084420146248535, 0.0]}}, {"id": "27", "type": "Feature", "properties": {"id": null, "Name": "\u00c1rea 178", "descriptio": null, "timestamp": null, "begin": null, "end": null, "altitudeMo": null, "tessellate": -1, "extrude": 0, "visibility": -1, "drawOrder": null, "icon": null}, "geometry": {"type": "Point", "coordinates": [-62.58445823051762, -6.114970442016084, 0.0]}}, {"id": "28", "type": "Feature", "properties": {"id": null, "Name": "\u00c1rea 179", "descriptio": null, "timestamp": null, "begin": null, "end": null, "altitudeMo": null, "tessellate": -1, "extrude": 0, "visibility": -1, "drawOrder": null, "icon": null}, "geometry": {"type": "Point", "coordinates": [-62.59134590964646, -6.123317117003986, 0.0]}}, {"id": "29", "type": "Feature", "properties": {"id": null, "Name": "\u00c1rea 180", "descriptio": null, "timestamp": null, "begin": null, "end": null, "altitudeMo": null, "tessellate": -1, "extrude": 0, "visibility": -1, "drawOrder": null, "icon": null}, "geometry": {"type": "Point", "coordinates": [-62.59371018660336, -6.126918928699848, 0.0]}}, {"id": "30", "type": "Feature", "properties": {"id": null, "Name": "\u00c1rea 181", "descriptio": null, "timestamp": null, "begin": null, "end": null, "altitudeMo": null, "tessellate": -1, "extrude": 0, "visibility": -1, "drawOrder": null, "icon": null}, "geometry": {"type": "Point", "coordinates": [-62.57852629479585, -6.108337824139758, 0.0]}}, {"id": "31", "type": "Feature", "properties": {"id": null, "Name": "\u00c1rea 182", "descriptio": null, "timestamp": null, "begin": null, "end": null, "altitudeMo": null, "tessellate": -1, "extrude": 0, "visibility": -1, "drawOrder": null, "icon": null}, "geometry": {"type": "Point", "coordinates": [-62.61349400450605, -6.149774686399693, 0.0]}}, {"id": "32", "type": "Feature", "properties": {"id": null, "Name": "\u00c1rea 183", "descriptio": null, "timestamp": null, "begin": null, "end": null, "altitudeMo": null, "tessellate": -1, "extrude": 0, "visibility": -1, "drawOrder": null, "icon": null}, "geometry": {"type": "Point", "coordinates": [-62.66107660375337, -6.204241313667015, 0.0]}}, {"id": "33", "type": "Feature", "properties": {"id": null, "Name": "\u00c1rea 184", "descriptio": null, "timestamp": null, "begin": null, "end": null, "altitudeMo": null, "tessellate": -1, "extrude": 0, "visibility": -1, "drawOrder": null, "icon": null}, "geometry": {"type": "Point", "coordinates": [-62.67682457695771, -6.218075894992464, 0.0]}}, {"id": "34", "type": "Feature", "properties": {"id": null, "Name": "\u00c1rea 185", "descriptio": null, "timestamp": null, "begin": null, "end": null, "altitudeMo": null, "tessellate": -1, "extrude": 0, "visibility": -1, "drawOrder": null, "icon": null}, "geometry": {"type": "Point", "coordinates": [-62.68855343908909, -6.229431244425413, 0.0]}}, {"id": "35", "type": "Feature", "properties": {"id": null, "Name": "\u00c1rea 186", "descriptio": null, "timestamp": null, "begin": null, "end": null, "altitudeMo": null, "tessellate": -1, "extrude": 0, "visibility": -1, "drawOrder": null, "icon": null}, "geometry": {"type": "Point", "coordinates": [-62.72080416000307, -6.257185009521955, 0.0]}}, {"id": "36", "type": "Feature", "properties": {"id": null, "Name": "\u00c1rea 187", "descriptio": null, "timestamp": null, "begin": null, "end": null, "altitudeMo": null, "tessellate": -1, "extrude": 0, "visibility": -1, "drawOrder": null, "icon": null}, "geometry": {"type": "Point", "coordinates": [-62.72436483850156, -6.260254967267615, 0.0]}}, {"id": "37", "type": "Feature", "properties": {"id": null, "Name": "\u00c1rea 188", "descriptio": null, "timestamp": null, "begin": null, "end": null, "altitudeMo": null, "tessellate": -1, "extrude": 0, "visibility": -1, "drawOrder": null, "icon": null}, "geometry": {"type": "Point", "coordinates": [-62.74044241398164, -6.274070619665482, 0.0]}}, {"id": "38", "type": "Feature", "properties": {"id": null, "Name": "\u00c1rea 189", "descriptio": null, "timestamp": null, "begin": null, "end": null, "altitudeMo": null, "tessellate": -1, "extrude": 0, "visibility": -1, "drawOrder": null, "icon": null}, "geometry": {"type": "Point", "coordinates": [-62.75112312788082, -6.290135309262717, 0.0]}}, {"id": "39", "type": "Feature", "properties": {"id": null, "Name": "\u00c1rea 190", "descriptio": null, "timestamp": null, "begin": null, "end": null, "altitudeMo": null, "tessellate": -1, "extrude": 0, "visibility": -1, "drawOrder": null, "icon": null}, "geometry": {"type": "Point", "coordinates": [-62.76950574942558, -6.319864208665537, 0.0]}}, {"id": "40", "type": "Feature", "properties": {"id": null, "Name": "\u00c1rea 191", "descriptio": null, "timestamp": null, "begin": null, "end": null, "altitudeMo": null, "tessellate": -1, "extrude": 0, "visibility": -1, "drawOrder": null, "icon": null}, "geometry": {"type": "Point", "coordinates": [-62.79935946689163, -6.362439319625252, 0.0]}}, {"id": "41", "type": "Feature", "properties": {"id": null, "Name": "\u00c1rea 192", "descriptio": null, "timestamp": null, "begin": null, "end": null, "altitudeMo": null, "tessellate": -1, "extrude": 0, "visibility": -1, "drawOrder": null, "icon": null}, "geometry": {"type": "Point", "coordinates": [-62.80133563422606, -6.364255777667777, 0.0]}}, {"id": "42", "type": "Feature", "properties": {"id": null, "Name": "\u00c1rea 193", "descriptio": null, "timestamp": null, "begin": null, "end": null, "altitudeMo": null, "tessellate": -1, "extrude": 0, "visibility": -1, "drawOrder": null, "icon": null}, "geometry": {"type": "Point", "coordinates": [-62.80835258712507, -6.371098788454987, 0.0]}}, {"id": "43", "type": "Feature", "properties": {"id": null, "Name": "\u00c1rea 194", "descriptio": null, "timestamp": null, "begin": null, "end": null, "altitudeMo": null, "tessellate": -1, "extrude": 0, "visibility": -1, "drawOrder": null, "icon": null}, "geometry": {"type": "Point", "coordinates": [-62.8192908344854, -6.381483484969866, 0.0]}}, {"id": "44", "type": "Feature", "properties": {"id": null, "Name": "\u00c1rea 195", "descriptio": null, "timestamp": null, "begin": null, "end": null, "altitudeMo": null, "tessellate": -1, "extrude": 0, "visibility": -1, "drawOrder": null, "icon": null}, "geometry": {"type": "Point", "coordinates": [-62.82071718238196, -6.382861734121106, 0.0]}}, {"id": "45", "type": "Feature", "properties": {"id": null, "Name": "\u00c1rea 196", "descriptio": null, "timestamp": null, "begin": null, "end": null, "altitudeMo": null, "tessellate": -1, "extrude": 0, "visibility": -1, "drawOrder": null, "icon": null}, "geometry": {"type": "Point", "coordinates": [-62.82580375624757, -6.387343807854763, 0.0]}}, {"id": "46", "type": "Feature", "properties": {"id": null, "Name": "\u00c1rea 197", "descriptio": null, "timestamp": null, "begin": null, "end": null, "altitudeMo": null, "tessellate": -1, "extrude": 0, "visibility": -1, "drawOrder": null, "icon": null}, "geometry": {"type": "Point", "coordinates": [-62.85498093479641, -6.41780738643124, 0.0]}}, {"id": "47", "type": "Feature", "properties": {"id": null, "Name": "\u00c1rea 198", "descriptio": null, "timestamp": null, "begin": null, "end": null, "altitudeMo": null, "tessellate": -1, "extrude": 0, "visibility": -1, "drawOrder": null, "icon": null}, "geometry": {"type": "Point", "coordinates": [-62.86992061532163, -6.438846674123695, 0.0]}}, {"id": "48", "type": "Feature", "properties": {"id": null, "Name": "\u00c1rea 199", "descriptio": null, "timestamp": null, "begin": null, "end": null, "altitudeMo": null, "tessellate": -1, "extrude": 0, "visibility": -1, "drawOrder": null, "icon": null}, "geometry": {"type": "Point", "coordinates": [-62.87110885442015, -6.441043008375688, 0.0]}}, {"id": "49", "type": "Feature", "properties": {"id": null, "Name": "\u00c1rea 200", "descriptio": null, "timestamp": null, "begin": null, "end": null, "altitudeMo": null, "tessellate": -1, "extrude": 0, "visibility": -1, "drawOrder": null, "icon": null}, "geometry": {"type": "Point", "coordinates": [-62.86380291539879, -6.43009804869877, 0.0]}}, {"id": "50", "type": "Feature", "properties": {"id": null, "Name": "\u00c1rea 201", "descriptio": null, "timestamp": null, "begin": null, "end": null, "altitudeMo": null, "tessellate": -1, "extrude": 0, "visibility": -1, "drawOrder": null, "icon": null}, "geometry": {"type": "Point", "coordinates": [-62.87278012826577, -6.442233618837702, 0.0]}}, {"id": "51", "type": "Feature", "properties": {"id": null, "Name": "\u00c1rea 202", "descriptio": null, "timestamp": null, "begin": null, "end": null, "altitudeMo": null, "tessellate": -1, "extrude": 0, "visibility": -1, "drawOrder": null, "icon": null}, "geometry": {"type": "Point", "coordinates": [-62.87302046003485, -6.443032448338286, 0.0]}}, {"id": "52", "type": "Feature", "properties": {"id": null, "Name": "\u00c1rea 203", "descriptio": null, "timestamp": null, "begin": null, "end": null, "altitudeMo": null, "tessellate": -1, "extrude": 0, "visibility": -1, "drawOrder": null, "icon": null}, "geometry": {"type": "Point", "coordinates": [-62.87429500473473, -6.444366184194405, 0.0]}}, {"id": "53", "type": "Feature", "properties": {"id": null, "Name": "\u00c1rea 204", "descriptio": null, "timestamp": null, "begin": null, "end": null, "altitudeMo": null, "tessellate": -1, "extrude": 0, "visibility": -1, "drawOrder": null, "icon": null}, "geometry": {"type": "Point", "coordinates": [-62.88155040991463, -6.455263749241132, 0.0]}}, {"id": "54", "type": "Feature", "properties": {"id": null, "Name": "\u00c1rea 205", "descriptio": null, "timestamp": null, "begin": null, "end": null, "altitudeMo": null, "tessellate": -1, "extrude": 0, "visibility": -1, "drawOrder": null, "icon": null}, "geometry": {"type": "Point", "coordinates": [-62.88982110004532, -6.475044967926435, 0.0]}}, {"id": "55", "type": "Feature", "properties": {"id": null, "Name": "\u00c1rea 206", "descriptio": null, "timestamp": null, "begin": null, "end": null, "altitudeMo": null, "tessellate": -1, "extrude": 0, "visibility": -1, "drawOrder": null, "icon": null}, "geometry": {"type": "Point", "coordinates": [-62.88978754970996, -6.475447186090854, 0.0]}}, {"id": "56", "type": "Feature", "properties": {"id": null, "Name": "\u00c1rea 207", "descriptio": null, "timestamp": null, "begin": null, "end": null, "altitudeMo": null, "tessellate": -1, "extrude": 0, "visibility": -1, "drawOrder": null, "icon": null}, "geometry": {"type": "Point", "coordinates": [-62.89188652847015, -6.48073451249581, 0.0]}}, {"id": "57", "type": "Feature", "properties": {"id": null, "Name": "\u00c1rea 208", "descriptio": null, "timestamp": null, "begin": null, "end": null, "altitudeMo": null, "tessellate": -1, "extrude": 0, "visibility": -1, "drawOrder": null, "icon": null}, "geometry": {"type": "Point", "coordinates": [-62.91910599179998, -6.51287565430527, 0.0]}}, {"id": "58", "type": "Feature", "properties": {"id": null, "Name": "\u00c1rea 209", "descriptio": null, "timestamp": null, "begin": null, "end": null, "altitudeMo": null, "tessellate": -1, "extrude": 0, "visibility": -1, "drawOrder": null, "icon": null}, "geometry": {"type": "Point", "coordinates": [-62.92056275620437, -6.514940491768921, 0.0]}}, {"id": "59", "type": "Feature", "properties": {"id": null, "Name": "\u00c1rea 210", "descriptio": null, "timestamp": null, "begin": null, "end": null, "altitudeMo": null, "tessellate": -1, "extrude": 0, "visibility": -1, "drawOrder": null, "icon": null}, "geometry": {"type": "Point", "coordinates": [-62.94043805995844, -6.542577085846901, 0.0]}}, {"id": "60", "type": "Feature", "properties": {"id": null, "Name": "\u00c1rea 211", "descriptio": null, "timestamp": null, "begin": null, "end": null, "altitudeMo": null, "tessellate": -1, "extrude": 0, "visibility": -1, "drawOrder": null, "icon": null}, "geometry": {"type": "Point", "coordinates": [-62.96488763068959, -6.66168915086886, 0.0]}}, {"id": "61", "type": "Feature", "properties": {"id": null, "Name": "\u00c1rea 212", "descriptio": null, "timestamp": null, "begin": null, "end": null, "altitudeMo": null, "tessellate": -1, "extrude": 0, "visibility": -1, "drawOrder": null, "icon": null}, "geometry": {"type": "Point", "coordinates": [-62.97097015970282, -6.689940941036604, 0.0]}}, {"id": "62", "type": "Feature", "properties": {"id": null, "Name": "\u00c1rea 213", "descriptio": null, "timestamp": null, "begin": null, "end": null, "altitudeMo": null, "tessellate": -1, "extrude": 0, "visibility": -1, "drawOrder": null, "icon": null}, "geometry": {"type": "Point", "coordinates": [-63.01143191633602, -6.785911884122596, 0.0]}}, {"id": "63", "type": "Feature", "properties": {"id": null, "Name": "\u00c1rea 214", "descriptio": null, "timestamp": null, "begin": null, "end": null, "altitudeMo": null, "tessellate": -1, "extrude": 0, "visibility": -1, "drawOrder": null, "icon": null}, "geometry": {"type": "Point", "coordinates": [-63.04059671900306, -6.830302404515327, 0.0]}}, {"id": "64", "type": "Feature", "properties": {"id": null, "Name": "\u00c1rea 215", "descriptio": null, "timestamp": null, "begin": null, "end": null, "altitudeMo": null, "tessellate": -1, "extrude": 0, "visibility": -1, "drawOrder": null, "icon": null}, "geometry": {"type": "Point", "coordinates": [-63.05863607354189, -6.859733942272441, 0.0]}}, {"id": "65", "type": "Feature", "properties": {"id": null, "Name": "\u00c1rea 216", "descriptio": null, "timestamp": null, "begin": null, "end": null, "altitudeMo": null, "tessellate": -1, "extrude": 0, "visibility": -1, "drawOrder": null, "icon": null}, "geometry": {"type": "Point", "coordinates": [-63.07777154904852, -6.920061984805622, 0.0]}}, {"id": "66", "type": "Feature", "properties": {"id": null, "Name": "\u00c1rea 217", "descriptio": null, "timestamp": null, "begin": null, "end": null, "altitudeMo": null, "tessellate": -1, "extrude": 0, "visibility": -1, "drawOrder": null, "icon": null}, "geometry": {"type": "Point", "coordinates": [-63.09877138681772, -6.986287656954112, 0.0]}}, {"id": "67", "type": "Feature", "properties": {"id": null, "Name": "\u00c1rea 218", "descriptio": null, "timestamp": null, "begin": null, "end": null, "altitudeMo": null, "tessellate": -1, "extrude": 0, "visibility": -1, "drawOrder": null, "icon": null}, "geometry": {"type": "Point", "coordinates": [-63.11013809276957, -7.0849626683891, 0.0]}}, {"id": "68", "type": "Feature", "properties": {"id": null, "Name": "\u00c1rea 219", "descriptio": null, "timestamp": null, "begin": null, "end": null, "altitudeMo": null, "tessellate": -1, "extrude": 0, "visibility": -1, "drawOrder": null, "icon": null}, "geometry": {"type": "Point", "coordinates": [-63.11615053164193, -7.134371699696498, 0.0]}}, {"id": "69", "type": "Feature", "properties": {"id": null, "Name": "\u00c1rea 220", "descriptio": null, "timestamp": null, "begin": null, "end": null, "altitudeMo": null, "tessellate": -1, "extrude": 0, "visibility": -1, "drawOrder": null, "icon": null}, "geometry": {"type": "Point", "coordinates": [-63.11861840062487, -7.153427140679896, 0.0]}}, {"id": "70", "type": "Feature", "properties": {"id": null, "Name": "\u00c1rea 221", "descriptio": null, "timestamp": null, "begin": null, "end": null, "altitudeMo": null, "tessellate": -1, "extrude": 0, "visibility": -1, "drawOrder": null, "icon": null}, "geometry": {"type": "Point", "coordinates": [-63.11805753070413, -7.155492597016892, 0.0]}}, {"id": "71", "type": "Feature", "properties": {"id": null, "Name": "\u00c1rea 222", "descriptio": null, "timestamp": null, "begin": null, "end": null, "altitudeMo": null, "tessellate": -1, "extrude": 0, "visibility": -1, "drawOrder": null, "icon": null}, "geometry": {"type": "Point", "coordinates": [-63.12983129763693, -7.192235930049461, 0.0]}}, {"id": "72", "type": "Feature", "properties": {"id": null, "Name": "\u00c1rea 223", "descriptio": null, "timestamp": null, "begin": null, "end": null, "altitudeMo": null, "tessellate": -1, "extrude": 0, "visibility": -1, "drawOrder": null, "icon": null}, "geometry": {"type": "Point", "coordinates": [-63.1636106496355, -7.278085250386223, 0.0]}}, {"id": "73", "type": "Feature", "properties": {"id": null, "Name": "\u00c1rea 224", "descriptio": null, "timestamp": null, "begin": null, "end": null, "altitudeMo": null, "tessellate": -1, "extrude": 0, "visibility": -1, "drawOrder": null, "icon": null}, "geometry": {"type": "Point", "coordinates": [-63.20271198942527, -7.382316364497294, 0.0]}}, {"id": "74", "type": "Feature", "properties": {"id": null, "Name": "\u00c1rea 225", "descriptio": null, "timestamp": null, "begin": null, "end": null, "altitudeMo": null, "tessellate": -1, "extrude": 0, "visibility": -1, "drawOrder": null, "icon": null}, "geometry": {"type": "Point", "coordinates": [-63.20501853764539, -7.389450119576656, 0.0]}}]}