{"type": "FeatureCollection", "features": [{"id": "0", "type": "Feature", "properties": {"id": null, "Name": "\u00c1rea 101", "descriptio": null, "timestamp": null, "begin": null, "end": null, "altitudeMo": null, "tessellate": -1, "extrude": 0, "visibility": -1, "drawOrder": null, "icon": null}, "geometry": {"type": "Point", "coordinates": [-61.77162414143594, -5.157654894286115, 0.0]}}, {"id": "1", "type": "Feature", "properties": {"id": null, "Name": "\u00c1rea 102", "descriptio": null, "timestamp": null, "begin": null, "end": null, "altitudeMo": null, "tessellate": -1, "extrude": 0, "visibility": -1, "drawOrder": null, "icon": null}, "geometry": {"type": "Point", "coordinates": [-61.78714938911466, -5.169326850475019, 0.0]}}, {"id": "2", "type": "Feature", "properties": {"id": null, "Name": "\u00c1rea 103", "descriptio": null, "timestamp": null, "begin": null, "end": null, "altitudeMo": null, "tessellate": -1, "extrude": 0, "visibility": -1, "drawOrder": null, "icon": null}, "geometry": {"type": "Point", "coordinates": [-61.78195799905489, -5.166008778384045, 0.0]}}, {"id": "3", "type": "Feature", "properties": {"id": null, "Name": "\u00c1rea 104", "descriptio": null, "timestamp": null, "begin": null, "end": null, "altitudeMo": null, "tessellate": -1, "extrude": 0, "visibility": -1, "drawOrder": null, "icon": null}, "geometry": {"type": "Point", "coordinates": [-61.82832028180605, -5.195240651928287, 0.0]}}, {"id": "4", "type": "Feature", "properties": {"id": null, "Name": "\u00c1rea 105", "descriptio": null, "timestamp": null, "begin": null, "end": null, "altitudeMo": null, "tessellate": -1, "extrude": 0, "visibility": -1, "drawOrder": null, "icon": null}, "geometry": {"type": "Point", "coordinates": [-61.83004059043062, -5.196104990516483, 0.0]}}, {"id": "5", "type": "Feature", "properties": {"id": null, "Name": "\u00c1rea 106", "descriptio": null, "timestamp": null, "begin": null, "end": null, "altitudeMo": null, "tessellate": -1, "extrude": 0, "visibility": -1, "drawOrder": null, "icon": null}, "geometry": {"type": "Point", "coordinates": [-61.83141112837458, -5.197398466411146, 0.0]}}, {"id": "6", "type": "Feature", "properties": {"id": null, "Name": "\u00c1rea 107", "descriptio": null, "timestamp": null, "begin": null, "end": null, "altitudeMo": null, "tessellate": -1, "extrude": 0, "visibility": -1, "drawOrder": null, "icon": null}, "geometry": {"type": "Point", "coordinates": [-61.83340187069346, -5.197947256168599, 0.0]}}, {"id": "7", "type": "Feature", "properties": {"id": null, "Name": "\u00c1rea 108", "descriptio": null, "timestamp": null, "begin": null, "end": null, "altitudeMo": null, "tessellate": -1, "extrude": 0, "visibility": -1, "drawOrder": null, "icon": null}, "geometry": {"type": "Point", "coordinates": [-61.83315283178869, -5.198376292697277, 0.0]}}, {"id": "8", "type": "Feature", "properties": {"id": null, "Name": "\u00c1rea 109", "descriptio": null, "timestamp": null, "begin": null, "end": null, "altitudeMo": null, "tessellate": -1, "extrude": 0, "visibility": -1, "drawOrder": null, "icon": null}, "geometry": {"type": "Point", "coordinates": [-61.83634447202173, -5.200348159303974, 0.0]}}, {"id": "9", "type": "Feature", "properties": {"id": null, "Name": "\u00c1rea 110", "descriptio": null, "timestamp": null, "begin": null, "end": null, "altitudeMo": null, "tessellate": -1, "extrude": 0, "visibility": -1, "drawOrder": null, "icon": null}, "geometry": {"type": "Point", "coordinates": [-61.8310425931675, -5.196833150220218, 0.0]}}, {"id": "10", "type": "Feature", "properties": {"id": null, "Name": "\u00c1rea 111", "descriptio": null, "timestamp": null, "begin": null, "end": null, "altitudeMo": null, "tessellate": -1, "extrude": 0, "visibility": -1, "drawOrder": null, "icon": null}, "geometry": {"type": "Point", "coordinates": [-61.84512300456342, -5.205568474324619, 0.0]}}, {"id": "11", "type": "Feature", "properties": {"id": null, "Name": "\u00c1rea 112", "descriptio": null, "timestamp": null, "begin": null, "end": null, "altitudeMo": null, "tessellate": -1, "extrude": 0, "visibility": -1, "drawOrder": null, "icon": null}, "geometry": {"type": "Point", "coordinates": [-61.86866602921866, -5.22309899305446, 0.0]}}, {"id": "12", "type": "Feature", "properties": {"id": null, "Name": "\u00c1rea 113", "descriptio": null, "timestamp": null, "begin": null, "end": null, "altitudeMo": null, "tessellate": -1, "extrude": 0, "visibility": -1, "drawOrder": null, "icon": null}, "geometry": {"type": "Point", "coordinates": [-61.85617732554383, -5.212695549080002, 0.0]}}, {"id": "13", "type": "Feature", "properties": {"id": null, "Name": "\u00c1rea 114", "descriptio": null, "timestamp": null, "begin": null, "end": null, "altitudeMo": null, "tessellate": -1, "extrude": 0, "visibility": -1, "drawOrder": null, "icon": null}, "geometry": {"type": "Point", "coordinates": [-61.89128461218451, -5.244798485256548, 0.0]}}, {"id": "14", "type": "Feature", "properties": {"id": null, "Name": "\u00c1rea 115", "descriptio": null, "timestamp": null, "begin": null, "end": null, "altitudeMo": null, "tessellate": -1, "extrude": 0, "visibility": -1, "drawOrder": null, "icon": null}, "geometry": {"type": "Point", "coordinates": [-61.86969323230107, -5.223864623439008, 0.0]}}, {"id": "15", "type": "Feature", "properties": {"id": null, "Name": "\u00c1rea 116", "descriptio": null, "timestamp": null, "begin": null, "end": null, "altitudeMo": null, "tessellate": -1, "extrude": 0, "visibility": -1, "drawOrder": null, "icon": null}, "geometry": {"type": "Point", "coordinates": [-61.8738718838792, -5.228013243026851, 0.0]}}, {"id": "16", "type": "Feature", "properties": {"id": null, "Name": "\u00c1rea 117", "descriptio": null, "timestamp": null, "begin": null, "end": null, "altitudeMo": null, "tessellate": -1, "extrude": 0, "visibility": -1, "drawOrder": null, "icon": null}, "geometry": {"type": "Point", "coordinates": [-61.88662443246107, -5.240452698729709, 0.0]}}, {"id": "17", "type": "Feature", "properties": {"id": null, "Name": "\u00c1rea 118", "descriptio": null, "timestamp": null, "begin": null, "end": null, "altitudeMo": null, "tessellate": -1, "extrude": 0, "visibility": -1, "drawOrder": null, "icon": null}, "geometry": {"type": "Point", "coordinates": [-61.9234974002247, -5.276683491056161, 0.0]}}, {"id": "18", "type": "Feature", "properties": {"id": null, "Name": "\u00c1rea 119", "descriptio": null, "timestamp": null, "begin": null, "end": null, "altitudeMo": null, "tessellate": -1, "extrude": 0, "visibility": -1, "drawOrder": null, "icon": null}, "geometry": {"type": "Point", "coordinates": [-61.90120567195684, -5.254733254583342, 0.0]}}, {"id": "19", "type": "Feature", "properties": {"id": null, "Name": "\u00c1rea 120", "descriptio": null, "timestamp": null, "begin": null, "end": null, "altitudeMo": null, "tessellate": -1, "extrude": 0, "visibility": -1, "drawOrder": null, "icon": null}, "geometry": {"type": "Point", "coordinates": [-61.92885175039612, -5.281808086112687, 0.0]}}, {"id": "20", "type": "Feature", "properties": {"id": null, "Name": "\u00c1rea 121", "descriptio": null, "timestamp": null, "begin": null, "end": null, "altitudeMo": null, "tessellate": -1, "extrude": 0, "visibility": -1, "drawOrder": null, "icon": null}, "geometry": {"type": "Point", "coordinates": [-61.9067309067257, -5.260109306258608, 0.0]}}, {"id": "21", "type": "Feature", "properties": {"id": null, "Name": "\u00c1rea 122", "descriptio": null, "timestamp": null, "begin": null, "end": null, "altitudeMo": null, "tessellate": -1, "extrude": 0, "visibility": -1, "drawOrder": null, "icon": null}, "geometry": {"type": "Point", "coordinates": [-61.94811857457909, -5.297562300067405, 0.0]}}, {"id": "22", "type": "Feature", "properties": {"id": null, "Name": "\u00c1rea 123", "descriptio": null, "timestamp": null, "begin": null, "end": null, "altitudeMo": null, "tessellate": -1, "extrude": 0, "visibility": -1, "drawOrder": null, "icon": null}, "geometry": {"type": "Point", "coordinates": [-61.94806422709102, -5.297238465748386, 0.0]}}, {"id": "23", "type": "Feature", "properties": {"id": null, "Name": "\u00c1rea 124", "descriptio": null, "timestamp": null, "begin": null, "end": null, "altitudeMo": null, "tessellate": -1, "extrude": 0, "visibility": -1, "drawOrder": null, "icon": null}, "geometry": {"type": "Point", "coordinates": [-61.92929524973488, -5.282139332109523, 0.0]}}, {"id": "24", "type": "Feature", "properties": {"id": null, "Name": "\u00c1rea 125", "descriptio": null, "timestamp": null, "begin": null, "end": null, "altitudeMo": null, "tessellate": -1, "extrude": 0, "visibility": -1, "drawOrder": null, "icon": null}, "geometry": {"type": "Point", "coordinates": [-61.97512346051309, -5.307623953557244, 0.0]}}, {"id": "25", "type": "Feature", "properties": {"id": null, "Name": "\u00c1rea 126", "descriptio": null, "timestamp": null, "begin": null, "end": null, "altitudeMo": null, "tessellate": -1, "extrude": 0, "visibility": -1, "drawOrder": null, "icon": null}, "geometry": {"type": "Point", "coordinates": [-61.9690521810263, -5.305434856587217, 0.0]}}, {"id": "26", "type": "Feature", "properties": {"id": null, "Name": "\u00c1rea 127", "descriptio": null, "timestamp": null, "begin": null, "end": null, "altitudeMo": null, "tessellate": -1, "extrude": 0, "visibility": -1, "drawOrder": null, "icon": null}, "geometry": {"type": "Point", "coordinates": [-61.99730924033226, -5.31636287411408, 0.0]}}, {"id": "27", "type": "Feature", "properties": {"id": null, "Name": "\u00c1rea 128", "descriptio": null, "timestamp": null, "begin": null, "end": null, "altitudeMo": null, "tessellate": -1, "extrude": 0, "visibility": -1, "drawOrder": null, "icon": null}, "geometry": {"type": "Point", "coordinates": [-61.97184232654563, -5.306495174298654, 0.0]}}, {"id": "28", "type": "Feature", "properties": {"id": null, "Name": "\u00c1rea 129", "descriptio": null, "timestamp": null, "begin": null, "end": null, "altitudeMo": null, "tessellate": -1, "extrude": 0, "visibility": -1, "drawOrder": null, "icon": null}, "geometry": {"type": "Point", "coordinates": [-62.00030455244173, -5.317357149384436, 0.0]}}, {"id": "29", "type": "Feature", "properties": {"id": null, "Name": "\u00c1rea 130", "descriptio": null, "timestamp": null, "begin": null, "end": null, "altitudeMo": null, "tessellate": -1, "extrude": 0, "visibility": -1, "drawOrder": null, "icon": null}, "geometry": {"type": "Point", "coordinates": [-62.03726245151513, -5.356534270753701, 0.0]}}, {"id": "30", "type": "Feature", "properties": {"id": null, "Name": "\u00c1rea 131", "descriptio": null, "timestamp": null, "begin": null, "end": null, "altitudeMo": null, "tessellate": -1, "extrude": 0, "visibility": -1, "drawOrder": null, "icon": null}, "geometry": {"type": "Point", "coordinates": [-62.03817022881707, -5.357813676211051, 0.0]}}, {"id": "31", "type": "Feature", "properties": {"id": null, "Name": "\u00c1rea 132", "descriptio": null, "timestamp": null, "begin": null, "end": null, "altitudeMo": null, "tessellate": -1, "extrude": 0, "visibility": -1, "drawOrder": null, "icon": null}, "geometry": {"type": "Point", "coordinates": [-62.02344294871202, -5.337610875379466, 0.0]}}, {"id": "32", "type": "Feature", "properties": {"id": null, "Name": "\u00c1rea 133", "descriptio": null, "timestamp": null, "begin": null, "end": null, "altitudeMo": null, "tessellate": -1, "extrude": 0, "visibility": -1, "drawOrder": null, "icon": null}, "geometry": {"type": "Point", "coordinates": [-62.02696213432225, -5.342433437416294, 0.0]}}, {"id": "33", "type": "Feature", "properties": {"id": null, "Name": "\u00c1rea 134", "descriptio": null, "timestamp": null, "begin": null, "end": null, "altitudeMo": null, "tessellate": -1, "extrude": 0, "visibility": -1, "drawOrder": null, "icon": null}, "geometry": {"type": "Point", "coordinates": [-62.03702027872973, -5.355966407084155, 0.0]}}, {"id": "34", "type": "Feature", "properties": {"id": null, "Name": "\u00c1rea 135", "descriptio": null, "timestamp": null, "begin": null, "end": null, "altitudeMo": null, "tessellate": -1, "extrude": 0, "visibility": -1, "drawOrder": null, "icon": null}, "geometry": {"type": "Point", "coordinates": [-62.08308132419077, -5.420108856779572, 0.0]}}, {"id": "35", "type": "Feature", "properties": {"id": null, "Name": "\u00c1rea 136", "descriptio": null, "timestamp": null, "begin": null, "end": null, "altitudeMo": null, "tessellate": -1, "extrude": 0, "visibility": -1, "drawOrder": null, "icon": null}, "geometry": {"type": "Point", "coordinates": [-62.0834217739778, -5.420349658141287, 0.0]}}, {"id": "36", "type": "Feature", "properties": {"id": null, "Name": "\u00c1rea 137", "descriptio": null, "timestamp": null, "begin": null, "end": null, "altitudeMo": null, "tessellate": -1, "extrude": 0, "visibility": -1, "drawOrder": null, "icon": null}, "geometry": {"type": "Point", "coordinates": [-62.09635030151328, -5.446956018424042, 0.0]}}, {"id": "37", "type": "Feature", "properties": {"id": null, "Name": "\u00c1rea 138", "descriptio": null, "timestamp": null, "begin": null, "end": null, "altitudeMo": null, "tessellate": -1, "extrude": 0, "visibility": -1, "drawOrder": null, "icon": null}, "geometry": {"type": "Point", "coordinates": [-62.08501620920923, -5.423764759475961, 0.0]}}, {"id": "38", "type": "Feature", "properties": {"id": null, "Name": "\u00c1rea 139", "descriptio": null, "timestamp": null, "begin": null, "end": null, "altitudeMo": null, "tessellate": -1, "extrude": 0, "visibility": -1, "drawOrder": null, "icon": null}, "geometry": {"type": "Point", "coordinates": [-62.08773315381947, -5.429087603829229, 0.0]}}, {"id": "39", "type": "Feature", "properties": {"id": null, "Name": "\u00c1rea 140", "descriptio": null, "timestamp": null, "begin": null, "end": null, "altitudeMo": null, "tessellate": -1, "extrude": 0, "visibility": -1, "drawOrder": null, "icon": null}, "geometry": {"type": "Point", "coordinates": [-62.10065229105201, -5.454947095079185, 0.0]}}, {"id": "40", "type": "Feature", "properties": {"id": null, "Name": "\u00c1rea 141", "descriptio": null, "timestamp": null, "begin": null, "end": null, "altitudeMo": null, "tessellate": -1, "extrude": 0, "visibility": -1, "drawOrder": null, "icon": null}, "geometry": {"type": "Point", "coordinates": [-62.10665510068419, -5.467947503403838, 0.0]}}, {"id": "41", "type": "Feature", "properties": {"id": null, "Name": "\u00c1rea 142", "descriptio": null, "timestamp": null, "begin": null, "end": null, "altitudeMo": null, "tessellate": -1, "extrude": 0, "visibility": -1, "drawOrder": null, "icon": null}, "geometry": {"type": "Point", "coordinates": [-62.11014429113101, -5.474789194052103, 0.0]}}, {"id": "42", "type": "Feature", "properties": {"id": null, "Name": "\u00c1rea 143", "descriptio": null, "timestamp": null, "begin": null, "end": null, "altitudeMo": null, "tessellate": -1, "extrude": 0, "visibility": -1, "drawOrder": null, "icon": null}, "geometry": {"type": "Point", "coordinates": [-62.1018996971653, -5.458424204550744, 0.0]}}, {"id": "43", "type": "Feature", "properties": {"id": null, "Name": "\u00c1rea 144", "descriptio": null, "timestamp": null, "begin": null, "end": null, "altitudeMo": null, "tessellate": -1, "extrude": 0, "visibility": -1, "drawOrder": null, "icon": null}, "geometry": {"type": "Point", "coordinates": [-62.1117571202036, -5.48078794154799, 0.0]}}, {"id": "44", "type": "Feature", "properties": {"id": null, "Name": "\u00c1rea 145", "descriptio": null, "timestamp": null, "begin": null, "end": null, "altitudeMo": null, "tessellate": -1, "extrude": 0, "visibility": -1, "drawOrder": null, "icon": null}, "geometry": {"type": "Point", "coordinates": [-62.13496302030158, -5.519807608540398, 0.0]}}, {"id": "45", "type": "Feature", "properties": {"id": null, "Name": "\u00c1rea 146", "descriptio": null, "timestamp": null, "begin": null, "end": null, "altitudeMo": null, "tessellate": -1, "extrude": 0, "visibility": -1, "drawOrder": null, "icon": null}, "geometry": {"type": "Point", "coordinates": [-62.13805695126884, -5.523764116487919, 0.0]}}, {"id": "46", "type": "Feature", "properties": {"id": null, "Name": "\u00c1rea 147", "descriptio": null, "timestamp": null, "begin": null, "end": null, "altitudeMo": null, "tessellate": -1, "extrude": 0, "visibility": -1, "drawOrder": null, "icon": null}, "geometry": {"type": "Point", "coordinates": [-62.12362762422236, -5.503249979014632, 0.0]}}, {"id": "47", "type": "Feature", "properties": {"id": null, "Name": "\u00c1rea 148", "descriptio": null, "timestamp": null, "begin": null, "end": null, "altitudeMo": null, "tessellate": -1, "extrude": 0, "visibility": -1, "drawOrder": null, "icon": null}, "geometry": {"type": "Point", "coordinates": [-62.13611111111111, -5.521388888888889, 0.0]}}, {"id": "48", "type": "Feature", "properties": {"id": null, "Name": "\u00c1rea 149", "descriptio": null, "timestamp": null, "begin": null, "end": null, "altitudeMo": null, "tessellate": -1, "extrude": 0, "visibility": -1, "drawOrder": null, "icon": null}, "geometry": {"type": "Point", "coordinates": [-62.16737560591887, -5.561827777777777, 0.0]}}, {"id": "49", "type": "Feature", "properties": {"id": null, "Name": "\u00c1rea 150", "descriptio": "DISCRIMINA\u00c7\u00c3O E CLASSIFICA\u00c7\u00c3O DO PROBLEMA\nER (33) - Eros\u00e3o (Em sulcos), SC \u2013 Sem cobertura\n\nLOCALIZA\u00c7\u00c3O\nDist\u00e2ncia do eixo (m) 5\n\nDIMENS\u00d5ES (m)\nComprimento 109,1\nLargura 37,3\n\nSOLU\u00c7\u00c3O\nProte\u00e7\u00e3o vegetal (PVE) com mudas e leguminosas.\nImplanta", "timestamp": null, "begin": null, "end": null, "altitudeMo": null, "tessellate": -1, "extrude": 0, "visibility": -1, "drawOrder": null, "icon": null}, "geometry": {"type": "Point", "coordinates": [-62.19121681529087, -5.599753443936955, 0.0]}}]}