{"type": "FeatureCollection", "features": [{"id": "0", "type": "Feature", "properties": {"id": null, "Name": "\u00c1rea 39", "descriptio": "DISCRIMINA\u00c7\u00c3O E CLASSIFICA\u00c7\u00c3O DO PROBLEMA\nSC \u2013 Sem cobertura\n\nLOCALIZA\u00c7\u00c3O\nDist\u00e2ncia do eixo (m) 12\n\nDIMENS\u00d5ES (m)\nComprimento 90\nLargura 40\nAltura 2,0\n\nSOLU\u00c7\u00c3O\nCercamento da \u00e1rea e prote\u00e7\u00e3o vegetal (PVE) com mudas e leguminosas. Implanta\u00e7", "timestamp": null, "begin": null, "end": null, "altitudeMo": null, "tessellate": -1, "extrude": 0, "visibility": -1, "drawOrder": null, "icon": null}, "geometry": {"type": "Point", "coordinates": [-60.83750000000002, -4.257222222222223, 0.0]}}, {"id": "1", "type": "Feature", "properties": {"id": null, "Name": "\u00c1rea 40", "descriptio": null, "timestamp": null, "begin": null, "end": null, "altitudeMo": null, "tessellate": -1, "extrude": 0, "visibility": -1, "drawOrder": null, "icon": null}, "geometry": {"type": "Point", "coordinates": [-60.85971575952594, -4.291162970290806, 0.0]}}, {"id": "2", "type": "Feature", "properties": {"id": null, "Name": "\u00c1rea 41", "descriptio": "DISCRIMINA\u00c7\u00c3O E CLASSIFICA\u00c7\u00c3O DO PROBLEMA\nSC \u2013 Sem cobertura\n\nLOCALIZA\u00c7\u00c3O\nDist\u00e2ncia do eixo (m) 15\n\nDIMENS\u00d5ES (m)\nComprimento 90\nLargura 40\nAltura 2,0\n\nSOLU\u00c7\u00c3O\nCercamento da \u00e1rea e prote\u00e7\u00e3o vegetal (PVE) com mudas e leguminosas. Implanta\u00e7", "timestamp": null, "begin": null, "end": null, "altitudeMo": null, "tessellate": -1, "extrude": 0, "visibility": -1, "drawOrder": null, "icon": null}, "geometry": {"type": "Point", "coordinates": [-60.86323816892489, -4.29429156898424, 0.0]}}, {"id": "3", "type": "Feature", "properties": {"id": null, "Name": "\u00c1rea 42", "descriptio": "DISCRIMINA\u00c7\u00c3O E CLASSIFICA\u00c7\u00c3O DO PROBLEMA\nER (33) - Eros\u00e3o (Ravinamento), SC \u2013 Sem cobertura\n\nLOCALIZA\u00c7\u00c3O\nDist\u00e2ncia do eixo (m) 15\n\nDIMENS\u00d5ES (m)\nComprimento 100\nLargura 120\nAltura 3,0\n\nSOLU\u00c7\u00c3O\nCercamento da \u00e1rea e prote\u00e7\u00e3o vegetal (PVE)", "timestamp": null, "begin": null, "end": null, "altitudeMo": null, "tessellate": -1, "extrude": 0, "visibility": -1, "drawOrder": null, "icon": null}, "geometry": {"type": "Point", "coordinates": [-60.98303322841863, -4.400693693080672, 0.0]}}, {"id": "4", "type": "Feature", "properties": {"id": null, "Name": "\u00c1rea 43", "descriptio": "DISCRIMINA\u00c7\u00c3O E CLASSIFICA\u00c7\u00c3O DO PROBLEMA\nER (33) - Eros\u00e3o (Ravinamento), SC \u2013 Sem cobertura\n\nLOCALIZA\u00c7\u00c3O\nDist\u00e2ncia do eixo (m) 50\n\nDIMENS\u00d5ES (m)\nComprimento 150\nLargura 230\nAltura 0\n\nSOLU\u00c7\u00c3O\nCercamento da \u00e1rea e prote\u00e7\u00e3o vegetal (PVE) co", "timestamp": null, "begin": null, "end": null, "altitudeMo": null, "tessellate": -1, "extrude": 0, "visibility": -1, "drawOrder": null, "icon": null}, "geometry": {"type": "Point", "coordinates": [-61.0177133492818, -4.430479691671597, 0.0]}}, {"id": "5", "type": "Feature", "properties": {"id": null, "Name": "\u00c1rea 44", "descriptio": "DISCRIMINA\u00c7\u00c3O E CLASSIFICA\u00c7\u00c3O DO PROBLEMA\nER (33) - Eros\u00e3o (Ravinamento), SC \u2013 Sem cobertura\n\nLOCALIZA\u00c7\u00c3O\nDist\u00e2ncia do eixo (m) 30\n\nDIMENS\u00d5ES (m)\nComprimento 190\nLargura 170\nAltura 1,0\n\nSOLU\u00c7\u00c3O\nCercamento da \u00e1rea e prote\u00e7\u00e3o vegetal (PVE)", "timestamp": null, "begin": null, "end": null, "altitudeMo": null, "tessellate": -1, "extrude": 0, "visibility": -1, "drawOrder": null, "icon": null}, "geometry": {"type": "Point", "coordinates": [-61.02043091454977, -4.432245707389863, 0.0]}}, {"id": "6", "type": "Feature", "properties": {"id": null, "Name": "\u00c1rea 45", "descriptio": "DISCRIMINA\u00c7\u00c3O E CLASSIFICA\u00c7\u00c3O DO PROBLEMA\nER (33) - Eros\u00e3o (Ravinamento), SC \u2013 Sem cobertura\n\nLOCALIZA\u00c7\u00c3O\nDist\u00e2ncia do eixo (m) 25\n\nDIMENS\u00d5ES (m)\nComprimento 0\nLargura 0\nAltura 0\n\nSOLU\u00c7\u00c3O\nCercamento da \u00e1rea e prote\u00e7\u00e3o vegetal (PVE) com mu", "timestamp": null, "begin": null, "end": null, "altitudeMo": null, "tessellate": -1, "extrude": 0, "visibility": -1, "drawOrder": null, "icon": null}, "geometry": {"type": "Point", "coordinates": [-61.02560349264395, -4.436228467709515, 0.0]}}, {"id": "7", "type": "Feature", "properties": {"id": null, "Name": "\u00c1rea 46", "descriptio": "DISCRIMINA\u00c7\u00c3O E CLASSIFICA\u00c7\u00c3O DO PROBLEMA\nSC \u2013 Sem cobertura\n\nLOCALIZA\u00c7\u00c3O\nDist\u00e2ncia do eixo (m) 20\n\nDIMENS\u00d5ES (m)\nComprimento 320\nLargura 110\nAltura 1\n\nSOLU\u00c7\u00c3O\nCercamento da \u00e1rea e prote\u00e7\u00e3o vegetal (PVE) com mudas e leguminosas. Implanta\u00e7", "timestamp": null, "begin": null, "end": null, "altitudeMo": null, "tessellate": -1, "extrude": 0, "visibility": -1, "drawOrder": null, "icon": null}, "geometry": {"type": "Point", "coordinates": [-61.02822185745207, -4.437969857782337, 0.0]}}, {"id": "8", "type": "Feature", "properties": {"id": null, "Name": "\u00c1rea 47", "descriptio": "DISCRIMINA\u00c7\u00c3O E CLASSIFICA\u00c7\u00c3O DO PROBLEMA\nSC \u2013 Sem cobertura\n\nLOCALIZA\u00c7\u00c3O\nDist\u00e2ncia do eixo (m) 10\n\nDIMENS\u00d5ES (m)\nComprimento 0\nLargura 0\nAltura 0\n\nSOLU\u00c7\u00c3O\nCercamento da \u00e1rea e prote\u00e7\u00e3o vegetal (PVE) com mudas e leguminosas. Implanta\u00e7\u00e3o", "timestamp": null, "begin": null, "end": null, "altitudeMo": null, "tessellate": -1, "extrude": 0, "visibility": -1, "drawOrder": null, "icon": null}, "geometry": {"type": "Point", "coordinates": [-61.03603119962389, -4.444215799624632, 0.0]}}, {"id": "9", "type": "Feature", "properties": {"id": null, "Name": "\u00c1rea 48", "descriptio": "DISCRIMINA\u00c7\u00c3O E CLASSIFICA\u00c7\u00c3O DO PROBLEMA\nSC \u2013 Sem cobertura\n\nLOCALIZA\u00c7\u00c3O\nDist\u00e2ncia do eixo (m) 16\n\nDIMENS\u00d5ES (m)\nComprimento 50\nLargura 80\nAltura 1\n\nSOLU\u00c7\u00c3O\nCercamento da \u00e1rea e prote\u00e7\u00e3o vegetal (PVE) com mudas e leguminosas. Implanta\u00e7\u00e3", "timestamp": null, "begin": null, "end": null, "altitudeMo": null, "tessellate": -1, "extrude": 0, "visibility": -1, "drawOrder": null, "icon": null}, "geometry": {"type": "Point", "coordinates": [-61.0628144385574, -4.464606749959031, 0.0]}}, {"id": "10", "type": "Feature", "properties": {"id": null, "Name": "\u00c1rea 49", "descriptio": "DISCRIMINA\u00c7\u00c3O E CLASSIFICA\u00c7\u00c3O DO PROBLEMA\nER (33) - Eros\u00e3o (Ravinamento), SC \u2013 Sem cobertura\n\nLOCALIZA\u00c7\u00c3O\nDist\u00e2ncia do eixo (m) 20\n\nDIMENS\u00d5ES (m)\nComprimento 310\nLargura 75\nAltura 0\n\nSOLU\u00c7\u00c3O\nCercamento da \u00e1rea e prote\u00e7\u00e3o vegetal (PVE) com", "timestamp": null, "begin": null, "end": null, "altitudeMo": null, "tessellate": -1, "extrude": 0, "visibility": -1, "drawOrder": null, "icon": null}, "geometry": {"type": "Point", "coordinates": [-61.09339062267364, -4.487839908095165, 0.0]}}, {"id": "11", "type": "Feature", "properties": {"id": null, "Name": "\u00c1rea 50", "descriptio": "DISCRIMINA\u00c7\u00c3O E CLASSIFICA\u00c7\u00c3O DO PROBLEMA\nSC \u2013 Sem cobertura\n\nLOCALIZA\u00c7\u00c3O\nDist\u00e2ncia do eixo (m) 0\n\nDIMENS\u00d5ES (m)\nComprimento 100\nLargura 60\nAltura 0\n\nSOLU\u00c7\u00c3O\nCercamento da \u00e1rea e prote\u00e7\u00e3o vegetal (PVE) com mudas e leguminosas. Implanta\u00e7\u00e3", "timestamp": null, "begin": null, "end": null, "altitudeMo": null, "tessellate": -1, "extrude": 0, "visibility": -1, "drawOrder": null, "icon": null}, "geometry": {"type": "Point", "coordinates": [-61.10134521138141, -4.494469894821727, 0.0]}}, {"id": "12", "type": "Feature", "properties": {"id": null, "Name": "\u00c1rea 51", "descriptio": "DISCRIMINA\u00c7\u00c3O E CLASSIFICA\u00c7\u00c3O DO PROBLEMA\nSC \u2013 Sem cobertura\n\nLOCALIZA\u00c7\u00c3O\nDist\u00e2ncia do eixo (m) 15\n\nDIMENS\u00d5ES (m)\nComprimento 70\nLargura 50\nAltura 0\n\nSOLU\u00c7\u00c3O\nCercamento da \u00e1rea e prote\u00e7\u00e3o vegetal (PVE) com mudas e leguminosas. Implanta\u00e7\u00e3", "timestamp": null, "begin": null, "end": null, "altitudeMo": null, "tessellate": -1, "extrude": 0, "visibility": -1, "drawOrder": null, "icon": null}, "geometry": {"type": "Point", "coordinates": [-61.1104715876069, -4.50102299278357, 0.0]}}, {"id": "13", "type": "Feature", "properties": {"id": null, "Name": "\u00c1rea 52", "descriptio": null, "timestamp": null, "begin": null, "end": null, "altitudeMo": null, "tessellate": -1, "extrude": 0, "visibility": -1, "drawOrder": null, "icon": null}, "geometry": {"type": "Point", "coordinates": [-61.14373243111743, -4.526413166978219, 0.0]}}, {"id": "14", "type": "Feature", "properties": {"id": null, "Name": "\u00c1rea 53", "descriptio": "DISCRIMINA\u00c7\u00c3O E CLASSIFICA\u00c7\u00c3O DO PROBLEMA\nER (33) - Eros\u00e3o (Ravinamento), SC \u2013 Sem cobertura\n\nLOCALIZA\u00c7\u00c3O\nDist\u00e2ncia do eixo (m) 15\n\nDIMENS\u00d5ES (m)\nComprimento 70\nLargura 30\nAltura 0\n\nSOLU\u00c7\u00c3O\nCercamento da \u00e1rea e prote\u00e7\u00e3o vegetal (PVE) com", "timestamp": null, "begin": null, "end": null, "altitudeMo": null, "tessellate": -1, "extrude": 0, "visibility": -1, "drawOrder": null, "icon": null}, "geometry": {"type": "Point", "coordinates": [-61.16158997334981, -4.540162043503107, 0.0]}}, {"id": "15", "type": "Feature", "properties": {"id": null, "Name": "\u00c1rea 54", "descriptio": "DISCRIMINA\u00c7\u00c3O E CLASSIFICA\u00c7\u00c3O DO PROBLEMA\nSC \u2013 Sem cobertura\n\nLOCALIZA\u00c7\u00c3O\nDist\u00e2ncia do eixo (m) 10\n\nDIMENS\u00d5ES (m)\nComprimento 90\nLargura 35\nAltura 2,0\n\nSOLU\u00c7\u00c3O\nCercamento da \u00e1rea e prote\u00e7\u00e3o vegetal (PVE) com mudas e leguminosas. Implanta\u00e7", "timestamp": null, "begin": null, "end": null, "altitudeMo": null, "tessellate": -1, "extrude": 0, "visibility": -1, "drawOrder": null, "icon": null}, "geometry": {"type": "Point", "coordinates": [-61.1634601983527, -4.541615317773895, 0.0]}}, {"id": "16", "type": "Feature", "properties": {"id": null, "Name": "\u00c1rea 55", "descriptio": "DISCRIMINA\u00c7\u00c3O E CLASSIFICA\u00c7\u00c3O DO PROBLEMA\nSC \u2013 Sem cobertura\n\nLOCALIZA\u00c7\u00c3O\nDist\u00e2ncia do eixo (m) 12\n\nDIMENS\u00d5ES (m)\nComprimento 90\nLargura 35\nAltura 0\n\nSOLU\u00c7\u00c3O\nCercamento da \u00e1rea e prote\u00e7\u00e3o vegetal (PVE) com mudas e leguminosas. Implanta\u00e7\u00e3", "timestamp": null, "begin": null, "end": null, "altitudeMo": null, "tessellate": -1, "extrude": 0, "visibility": -1, "drawOrder": null, "icon": null}, "geometry": {"type": "Point", "coordinates": [-61.16519032412354, -4.542886934099895, 0.0]}}, {"id": "17", "type": "Feature", "properties": {"id": null, "Name": "\u00c1rea 56", "descriptio": "DISCRIMINA\u00c7\u00c3O E CLASSIFICA\u00c7\u00c3O DO PROBLEMA\nER (33) - Eros\u00e3o (Ravinamento), SC \u2013 Sem cobertura\n\nLOCALIZA\u00c7\u00c3O\nDist\u00e2ncia do eixo (m) 15\n\nDIMENS\u00d5ES (m)\nComprimento 70\nLargura 60\nAltura 2,0\n\nSOLU\u00c7\u00c3O\nCercamento da \u00e1rea e prote\u00e7\u00e3o vegetal (PVE) co", "timestamp": null, "begin": null, "end": null, "altitudeMo": null, "tessellate": -1, "extrude": 0, "visibility": -1, "drawOrder": null, "icon": null}, "geometry": {"type": "Point", "coordinates": [-61.17277990626944, -4.550229002809039, 0.0]}}, {"id": "18", "type": "Feature", "properties": {"id": null, "Name": "\u00c1rea 57", "descriptio": "DISCRIMINA\u00c7\u00c3O E CLASSIFICA\u00c7\u00c3O DO PROBLEMA\nER (33) - Eros\u00e3o (Ravinamento), SC \u2013 Sem cobertura\n\nLOCALIZA\u00c7\u00c3O\nDist\u00e2ncia do eixo (m) 15\n\nDIMENS\u00d5ES (m)\nComprimento 70\nLargura 40\nAltura 2,0\n\nSOLU\u00c7\u00c3O\nCercamento da \u00e1rea e prote\u00e7\u00e3o vegetal (PVE) co", "timestamp": null, "begin": null, "end": null, "altitudeMo": null, "tessellate": -1, "extrude": 0, "visibility": -1, "drawOrder": null, "icon": null}, "geometry": {"type": "Point", "coordinates": [-61.19039142107207, -4.568338825125652, 0.0]}}, {"id": "19", "type": "Feature", "properties": {"id": null, "Name": "\u00c1rea 58", "descriptio": "DISCRIMINA\u00c7\u00c3O E CLASSIFICA\u00c7\u00c3O DO PROBLEMA\nSC \u2013 Sem cobertura\n\nLOCALIZA\u00c7\u00c3O\nDist\u00e2ncia do eixo (m) 20\n\nDIMENS\u00d5ES (m)\nComprimento 250\nLargura 200\nAltura 0\n\nSOLU\u00c7\u00c3O\nCercamento da \u00e1rea e prote\u00e7\u00e3o vegetal (PVE) com mudas e leguminosas. Implanta\u00e7", "timestamp": null, "begin": null, "end": null, "altitudeMo": null, "tessellate": -1, "extrude": 0, "visibility": -1, "drawOrder": null, "icon": null}, "geometry": {"type": "Point", "coordinates": [-61.1925, -4.569999999999999, 0.0]}}, {"id": "20", "type": "Feature", "properties": {"id": null, "Name": "\u00c1rea 59", "descriptio": null, "timestamp": null, "begin": null, "end": null, "altitudeMo": null, "tessellate": -1, "extrude": 0, "visibility": -1, "drawOrder": null, "icon": null}, "geometry": {"type": "Point", "coordinates": [-61.22342632432231, -4.601982013136243, 0.0]}}, {"id": "21", "type": "Feature", "properties": {"id": null, "Name": "\u00c1rea 60", "descriptio": "DISCRIMINA\u00c7\u00c3O E CLASSIFICA\u00c7\u00c3O DO PROBLEMA\nSC \u2013 Sem cobertura\n\nLOCALIZA\u00c7\u00c3O\nDist\u00e2ncia do eixo (m) 0\n\nDIMENS\u00d5ES (m)\nComprimento 50\nLargura 30\n\nSOLU\u00c7\u00c3O\nCercamento da \u00e1rea e prote\u00e7\u00e3o vegetal (PVE) com mudas, biomanta e leguminosas. Implanta\u00e7\u00e3", "timestamp": null, "begin": null, "end": null, "altitudeMo": null, "tessellate": -1, "extrude": 0, "visibility": -1, "drawOrder": null, "icon": null}, "geometry": {"type": "Point", "coordinates": [-61.26394982021239, -4.651880546436209, 0.0]}}, {"id": "22", "type": "Feature", "properties": {"id": null, "Name": "\u00c1rea 61", "descriptio": "DISCRIMINA\u00c7\u00c3O E CLASSIFICA\u00c7\u00c3O DO PROBLEMA\nSC \u2013 Sem cobertura\n\nLOCALIZA\u00c7\u00c3O\nDist\u00e2ncia do eixo (m) 10\n\nDIMENS\u00d5ES (m)\nComprimento 75\nLargura 40\nAltura 1,0\n\nSOLU\u00c7\u00c3O\nCercamento da \u00e1rea e prote\u00e7\u00e3o vegetal (PVE) com mudas e leguminosas. Implanta\u00e7", "timestamp": null, "begin": null, "end": null, "altitudeMo": null, "tessellate": -1, "extrude": 0, "visibility": -1, "drawOrder": null, "icon": null}, "geometry": {"type": "Point", "coordinates": [-61.26155876378056, -4.648104338746887, 0.0]}}]}