{"type": "FeatureCollection", "features": [{"id": "0", "type": "Feature", "properties": {"id": "ID_00141", "Name": "39", "descriptio": "<html xmlns:fo=\"http://www.w3.org/1999/XSL/Format\" xmlns:msxsl=\"urn:schemas-microsoft-com:xslt\">\n\n<head>\n\n<META http-equiv=\"Content-Type\" content=\"text/html\">\n\n<meta http-equiv=\"content-type\" content=\"text/html; charset=UTF-8\">\n\n</head>\n\n<body style=\"mar", "timestamp": null, "begin": null, "end": null, "altitudeMo": null, "tessellate": -1, "extrude": 0, "visibility": -1, "drawOrder": null, "icon": null, "snippet": null, "AREA": null}, "geometry": {"type": "MultiPolygon", "coordinates": [[[[-60.83773800408549, -4.257989890505928, 0.0], [-60.83785969610599, -4.258025918106622, 0.0], [-60.83799279675347, -4.2579500705244, 0.0], [-60.83799874899864, -4.257900209664878, 0.0], [-60.83764863650789, -4.257168839992767, 0.0], [-60.83732539207835, -4.257295884817778, 0.0], [-60.83762011494058, -4.257900769591924, 0.0], [-60.83773800408549, -4.257989890505928, 0.0]]], [[[-60.83726834894368, -4.257138500926999, 0.0], [-60.83730067338664, -4.257261753374318, 0.0], [-60.83762558509628, -4.2571284442482, 0.0], [-60.83757638187065, -4.257043691338877, 0.0], [-60.83751933873613, -4.257015248460044, 0.0], [-60.83735011076998, -4.257075926600173, 0.0], [-60.83726834894368, -4.257138500926999, 0.0]]]]}}, {"id": "1", "type": "Feature", "properties": {"id": "ID_00142", "Name": "40", "descriptio": "<html xmlns:fo=\"http://www.w3.org/1999/XSL/Format\" xmlns:msxsl=\"urn:schemas-microsoft-com:xslt\">\n\n<head>\n\n<META http-equiv=\"Content-Type\" content=\"text/html\">\n\n<meta http-equiv=\"content-type\" content=\"text/html; charset=UTF-8\">\n\n</head>\n\n<body style=\"mar", "timestamp": null, "begin": null, "end": null, "altitudeMo": null, "tessellate": -1, "extrude": 0, "visibility": -1, "drawOrder": null, "icon": null, "snippet": null, "AREA": null}, "geometry": {"type": "Polygon", "coordinates": [[[-60.86032198424361, -4.291758851392673, 0.0], [-60.86032578711928, -4.291709552634713, 0.0], [-60.86026494110901, -4.291629916172842, 0.0], [-60.85968880544927, -4.291108486752939, 0.0], [-60.85961084649856, -4.29116726608719, 0.0], [-60.85952147892101, -4.291389110630468, 0.0], [-60.85949676022933, -4.291521838104114, 0.0], [-60.85955570480181, -4.291559760235282, 0.0], [-60.85969641120052, -4.291565448554776, 0.0], [-60.85978768021591, -4.291601474577337, 0.0], [-60.85984852622621, -4.291641292810733, 0.0], [-60.85997402112237, -4.291728513695841, 0.0], [-60.86011282608333, -4.291722825377546, 0.0], [-60.86019268647179, -4.291798669617973, 0.0], [-60.86032198424361, -4.291758851392673, 0.0]]]}}, {"id": "2", "type": "Feature", "properties": {"id": "ID_00143", "Name": "41", "descriptio": "<html xmlns:fo=\"http://www.w3.org/1999/XSL/Format\" xmlns:msxsl=\"urn:schemas-microsoft-com:xslt\">\n\n<head>\n\n<META http-equiv=\"Content-Type\" content=\"text/html\">\n\n<meta http-equiv=\"content-type\" content=\"text/html; charset=UTF-8\">\n\n</head>\n\n<body style=\"mar", "timestamp": null, "begin": null, "end": null, "altitudeMo": null, "tessellate": -1, "extrude": 0, "visibility": -1, "drawOrder": null, "icon": null, "snippet": null, "AREA": null}, "geometry": {"type": "Polygon", "coordinates": [[[-60.8641860518388, -4.295152712474958, 0.0], [-60.86401111955929, -4.294959310497072, 0.0], [-60.86326955880911, -4.294291883687158, 0.0], [-60.86322582573926, -4.294280507088718, 0.0], [-60.86321631855011, -4.294307052484764, 0.0], [-60.8632334314905, -4.294411337960255, 0.0], [-60.8632334314905, -4.294473909238692, 0.0], [-60.86330568612774, -4.294559233700972, 0.0], [-60.8633969551431, -4.294642662054907, 0.0], [-60.86337794076496, -4.294669207438377, 0.0], [-60.86331899619245, -4.294650246450289, 0.0], [-60.86329808037641, -4.29474125918871, 0.0], [-60.86330188325206, -4.294851232899878, 0.0], [-60.86337223645145, -4.294917596338601, 0.0], [-60.86356998598485, -4.294855025096551, 0.0], [-60.86362322624384, -4.294902427553069, 0.0], [-60.86360801474128, -4.295001024653334, 0.0], [-60.86358139461176, -4.295021881730572, 0.0], [-60.86366886075153, -4.295092037349916, 0.0], [-60.86375442545349, -4.295057907589974, 0.0], [-60.86394837211121, -4.295069284176769, 0.0], [-60.86396928792723, -4.29510531003393, 0.0], [-60.8640301339375, -4.295099621740799, 0.0], [-60.86409478282342, -4.295160296865244, 0.0], [-60.8641594317093, -4.295167881255453, 0.0], [-60.8641860518388, -4.295152712474958, 0.0]]]}}, {"id": "3", "type": "Feature", "properties": {"id": "ID_00144", "Name": "42", "descriptio": "<html xmlns:fo=\"http://www.w3.org/1999/XSL/Format\" xmlns:msxsl=\"urn:schemas-microsoft-com:xslt\">\n\n<head>\n\n<META http-equiv=\"Content-Type\" content=\"text/html\">\n\n<meta http-equiv=\"content-type\" content=\"text/html; charset=UTF-8\">\n\n</head>\n\n<body style=\"mar", "timestamp": null, "begin": null, "end": null, "altitudeMo": null, "tessellate": -1, "extrude": 0, "visibility": -1, "drawOrder": null, "icon": null, "snippet": null, "AREA": null}, "geometry": {"type": "Polygon", "coordinates": [[[-60.98304471499954, -4.400683944866942, 0.0], [-60.98295201990582, -4.400769257305258, 0.0], [-60.98278089050191, -4.400765702620506, 0.0], [-60.98271671697545, -4.400833241627552, 0.0], [-60.98267036942854, -4.400954100888109, 0.0], [-60.98234950179626, -4.401163827205258, 0.0], [-60.98231384983714, -4.401259803635832, 0.0], [-60.98232454542492, -4.401362889417806, 0.0], [-60.98240297973496, -4.401426873689068, 0.0], [-60.98246358806552, -4.401412654962572, 0.0], [-60.98253845717976, -4.401494412636161, 0.0], [-60.98252063120017, -4.401576170300716, 0.0], [-60.98230671944532, -4.401611717108599, 0.0], [-60.98228889346574, -4.401640154553645, 0.0], [-60.98208924249452, -4.401693474760251, 0.0], [-60.98203576455581, -4.401665037317199, 0.0], [-60.98172915770717, -4.401824997920182, 0.0], [-60.98180046162548, -4.402038278670752, 0.0], [-60.98202150377215, -4.402034723992071, 0.0], [-60.98216411160876, -4.402134254988541, 0.0], [-60.98246715326146, -4.402070270778057, 0.0], [-60.98255628315929, -4.401832107279549, 0.0], [-60.98264184786125, -4.401636599873088, 0.0], [-60.98288428118345, -4.401266913000513, 0.0], [-60.98309819293827, -4.401181600619286, 0.0], [-60.98321584440345, -4.401263358318192, 0.0], [-60.98344758213789, -4.401035858611976, 0.0], [-60.98304471499954, -4.400683944866942, 0.0]]]}}, {"id": "4", "type": "Feature", "properties": {"id": "ID_00145", "Name": "43", "descriptio": "<html xmlns:fo=\"http://www.w3.org/1999/XSL/Format\" xmlns:msxsl=\"urn:schemas-microsoft-com:xslt\">\n\n<head>\n\n<META http-equiv=\"Content-Type\" content=\"text/html\">\n\n<meta http-equiv=\"content-type\" content=\"text/html; charset=UTF-8\">\n\n</head>\n\n<body style=\"mar", "timestamp": null, "begin": null, "end": null, "altitudeMo": null, "tessellate": -1, "extrude": 0, "visibility": -1, "drawOrder": null, "icon": null, "snippet": null, "AREA": null}, "geometry": {"type": "Polygon", "coordinates": [[[-61.01769708491382, -4.430455925312747, 0.0], [-61.01683539500708, -4.43211357489374, 0.0], [-61.01677463482137, -4.432317338871468, 0.0], [-61.01744852051765, -4.432675302479951, 0.0], [-61.01761975376838, -4.432631245429847, 0.0], [-61.01795117296324, -4.432812980744814, 0.0], [-61.01802298045547, -4.432669795348866, 0.0], [-61.01801193314898, -4.432488059998662, 0.0], [-61.01823287927891, -4.43211357489374, 0.0], [-61.01828259215817, -4.432146617704797, 0.0], [-61.01841515983612, -4.432019953587882, 0.0], [-61.01854772751412, -4.432014446451836, 0.0], [-61.01824945023868, -4.432471538600992, 0.0], [-61.01845934906212, -4.432565159849666, 0.0], [-61.01879076825698, -4.4322182104569, 0.0], [-61.0189620015077, -4.432284296068028, 0.0], [-61.0191553293714, -4.432080532081253, 0.0], [-61.01937075184812, -4.432052996403048, 0.0], [-61.01928237339612, -4.431915317996638, 0.0], [-61.01934313358185, -4.431695032493153, 0.0], [-61.01921608955713, -4.431612425412412, 0.0], [-61.01880181556348, -4.431639961107018, 0.0], [-61.0181942137062, -4.431210404154321, 0.0], [-61.0180837406412, -4.431293011279959, 0.0], [-61.01800088584247, -4.431243447005696, 0.0], [-61.01824945023868, -4.430863454125744, 0.0], [-61.01769708491382, -4.430455925312747, 0.0]]]}}, {"id": "5", "type": "Feature", "properties": {"id": "ID_00146", "Name": "44", "descriptio": "<html xmlns:fo=\"http://www.w3.org/1999/XSL/Format\" xmlns:msxsl=\"urn:schemas-microsoft-com:xslt\">\n\n<head>\n\n<META http-equiv=\"Content-Type\" content=\"text/html\">\n\n<meta http-equiv=\"content-type\" content=\"text/html; charset=UTF-8\">\n\n</head>\n\n<body style=\"mar", "timestamp": null, "begin": null, "end": null, "altitudeMo": null, "tessellate": -1, "extrude": 0, "visibility": -1, "drawOrder": null, "icon": null, "snippet": null, "AREA": null}, "geometry": {"type": "Polygon", "coordinates": [[[-61.02096833631478, -4.432676939598908, 0.0], [-61.0210958476193, -4.432483702129679, 0.0], [-61.02103974264528, -4.432376912980339, 0.0], [-61.02130496615883, -4.432183675432692, 0.0], [-61.021503883794, -4.431970097031797, 0.0], [-61.02224854981281, -4.431156464463122, 0.0], [-61.02220264574322, -4.431029334293434, 0.0], [-61.02227915252593, -4.430846266810641, 0.0], [-61.02230975523903, -4.430754733052245, 0.0], [-61.02251887377856, -4.430678454911543, 0.0], [-61.02270759050936, -4.430429279597252, 0.0], [-61.02250867287418, -4.430266552816031, 0.0], [-61.02235055885649, -4.430312319726856, 0.0], [-61.02225875071719, -4.430230956327858, 0.0], [-61.02221284664754, -4.430129252066537, 0.0], [-61.02182011182938, -4.429758031393979, 0.0], [-61.02167219871608, -4.429691923583436, 0.0], [-61.02148348198527, -4.429727520097525, 0.0], [-61.02067761054024, -4.430668284492183, 0.0], [-61.02054499878346, -4.431075101156998, 0.0], [-61.02043788928761, -4.431283594610978, 0.0], [-61.02063170647059, -4.431380213508813, 0.0], [-61.02062150556622, -4.431558195655784, 0.0], [-61.02048889380944, -4.431664984923438, 0.0], [-61.02051949652255, -4.432117567839003, 0.0], [-61.02043278883549, -4.432244697821607, 0.0], [-61.02096833631478, -4.432676939598908, 0.0]]]}}, {"id": "6", "type": "Feature", "properties": {"id": "ID_00147", "Name": "45", "descriptio": "<html xmlns:fo=\"http://www.w3.org/1999/XSL/Format\" xmlns:msxsl=\"urn:schemas-microsoft-com:xslt\">\n\n<head>\n\n<META http-equiv=\"Content-Type\" content=\"text/html\">\n\n<meta http-equiv=\"content-type\" content=\"text/html; charset=UTF-8\">\n\n</head>\n\n<body style=\"mar", "timestamp": null, "begin": null, "end": null, "altitudeMo": null, "tessellate": -1, "extrude": 0, "visibility": -1, "drawOrder": null, "icon": null, "snippet": null, "AREA": null}, "geometry": {"type": "Polygon", "coordinates": [[[-61.02676138024636, -4.436906670994181, 0.0], [-61.0268015413145, -4.436671765455286, 0.0], [-61.02686312161892, -4.436674434836765, 0.0], [-61.02695683077782, -4.436516941309221, 0.0], [-61.0269943144414, -4.436380802809135, 0.0], [-61.0268497345962, -4.436330084537942, 0.0], [-61.02670247734652, -4.436233986751522, 0.0], [-61.02682296055078, -4.436167252170235, 0.0], [-61.02659805856946, -4.435956370853664, 0.0], [-61.02650434941054, -4.435902983169072, 0.0], [-61.0264748979606, -4.435908321937713, 0.0], [-61.02659805856946, -4.436060476827594, 0.0], [-61.02658467154674, -4.43612721141855, 0.0], [-61.0263918984199, -4.436095178815629, 0.0], [-61.02597154590704, -4.435830909788732, 0.0], [-61.02581893384827, -4.435745489476935, 0.0], [-61.0257466439257, -4.435705448702412, 0.0], [-61.02567167659858, -4.435708118087459, 0.0], [-61.02562348331689, -4.43568142423667, 0.0], [-61.02558867705787, -4.435694771162187, 0.0], [-61.02554048377611, -4.435732142552353, 0.0], [-61.02553245156252, -4.435785530249336, 0.0], [-61.02560741888966, -4.435804215942317, 0.0], [-61.02610273872952, -4.436159244020005, 0.0], [-61.02615896422488, -4.436177929703631, 0.0], [-61.02617770605664, -4.436236656134652, 0.0], [-61.02608399689775, -4.436258011199306, 0.0], [-61.02603044880696, -4.436193946003504, 0.0], [-61.02598493292975, -4.436140558335977, 0.0], [-61.02595012667076, -4.436076493129974, 0.0], [-61.02588854636634, -4.436065815595118, 0.0], [-61.02588854636634, -4.436103186966482, 0.0], [-61.02590728819812, -4.436207292919704, 0.0], [-61.02593941705261, -4.436228647985228, 0.0], [-61.02600902957065, -4.436255341816236, 0.0], [-61.02603044880696, -4.436292713178006, 0.0], [-61.02598493292975, -4.436319407006758, 0.0], [-61.02589657857999, -4.436319407006754, 0.0], [-61.0258109016347, -4.436287374412178, 0.0], [-61.02554316118067, -4.436191276620164, 0.0], [-61.02587515934362, -4.436415504782103, 0.0], [-61.02598493292975, -4.436370125278682, 0.0], [-61.02615628682037, -4.436306060092511, 0.0], [-61.02625267338377, -4.436303390709713, 0.0], [-61.02627409262007, -4.436375464043903, 0.0], [-61.02632496330635, -4.436434190459173, 0.0], [-61.02646954315152, -4.436516941309221, 0.0], [-61.02658199414222, -4.436570328949436, 0.0], [-61.02658734895131, -4.436677104218369, 0.0], [-61.02654718788317, -4.436794556996329, 0.0], [-61.02676138024636, -4.436906670994181, 0.0]]]}}, {"id": "7", "type": "Feature", "properties": {"id": "ID_00148", "Name": "46", "descriptio": "<html xmlns:fo=\"http://www.w3.org/1999/XSL/Format\" xmlns:msxsl=\"urn:schemas-microsoft-com:xslt\">\n\n<head>\n\n<META http-equiv=\"Content-Type\" content=\"text/html\">\n\n<meta http-equiv=\"content-type\" content=\"text/html; charset=UTF-8\">\n\n</head>\n\n<body style=\"mar", "timestamp": null, "begin": null, "end": null, "altitudeMo": null, "tessellate": -1, "extrude": 0, "visibility": -1, "drawOrder": null, "icon": null, "snippet": null, "AREA": null}, "geometry": {"type": "Polygon", "coordinates": [[[-61.02985148024936, -4.439149506476999, 0.0], [-61.02981022218591, -4.439122824773793, 0.0], [-61.02970683150437, -4.439105052269598, 0.0], [-61.02972822267987, -4.439051734754216, 0.0], [-61.02965691876165, -4.438987753730909, 0.0], [-61.0296070060188, -4.438856237165324, 0.0], [-61.02955709327598, -4.438724720576266, 0.0], [-61.02946796337813, -4.438692730051008, 0.0], [-61.02935744230484, -4.43870694806242, 0.0], [-61.02928613838652, -4.43870339355962, 0.0], [-61.02925761681922, -4.43864296700906, 0.0], [-61.02926118201515, -4.438564767936352, 0.0], [-61.0292897035825, -4.438458132823948, 0.0], [-61.02924692123152, -4.438323061659312, 0.0], [-61.0291506609418, -4.438230644532468, 0.0], [-61.02910431339495, -4.438276853097267, 0.0], [-61.02910431339495, -4.438333725173218, 0.0], [-61.02906866143576, -4.438404815261843, 0.0], [-61.02892605359921, -4.438323061659304, 0.0], [-61.02882979330951, -4.438195099480633, 0.0], [-61.02871927223623, -4.438013819689414, 0.0], [-61.02875492419533, -4.437953393082438, 0.0], [-61.0287228374321, -4.437818321825467, 0.0], [-61.02858379479142, -4.437562397270855, 0.0], [-61.02851962126492, -4.437544624729079, 0.0], [-61.02844475215075, -4.437505525135513, 0.0], [-61.02838057862432, -4.437459316522438, 0.0], [-61.02837701342838, -4.437374008305942, 0.0], [-61.02844475215075, -4.437327799684448, 0.0], [-61.02851249087308, -4.437171401252232, 0.0], [-61.02854457763641, -4.437196282823149, 0.0], [-61.02868362027699, -4.437142965170039, 0.0], [-61.02863370753425, -4.437039884363007, 0.0], [-61.02865509870975, -4.436954576098067, 0.0], [-61.0287014462566, -4.436915476473367, 0.0], [-61.02873353301983, -4.436865713311615, 0.0], [-61.0287228374321, -4.436798177586661, 0.0], [-61.0284269261712, -4.436510262058714, 0.0], [-61.02808466736349, -4.436695096731539, 0.0], [-61.02794918991867, -4.436698651244021, 0.0], [-61.02785292962898, -4.436705760268947, 0.0], [-61.0281096237348, -4.437448652995829, 0.0], [-61.02820588402447, -4.437498416118337, 0.0], [-61.02824866637548, -4.437669032512754, 0.0], [-61.0282451011796, -4.437864530416135, 0.0], [-61.02819875363264, -4.437956947588904, 0.0], [-61.02822371000412, -4.438035146725923, 0.0], [-61.02835205705702, -4.43808135530307, 0.0], [-61.02855883842005, -4.438241308047687, 0.0], [-61.02869788106074, -4.438358606705047, 0.0], [-61.02878344576266, -4.438515004885874, 0.0], [-61.02879057615452, -4.438621639990077, 0.0], [-61.02892248840323, -4.43875315659745, 0.0], [-61.02959274523517, -4.439225905289994, 0.0], [-61.02969257072073, -4.439222350789636, 0.0], [-61.02976387463907, -4.439275668292607, 0.0], [-61.02985148024936, -4.439149506476999, 0.0]]]}}, {"id": "8", "type": "Feature", "properties": {"id": "ID_00149", "Name": "47", "descriptio": "<html xmlns:fo=\"http://www.w3.org/1999/XSL/Format\" xmlns:msxsl=\"urn:schemas-microsoft-com:xslt\">\n\n<head>\n\n<META http-equiv=\"Content-Type\" content=\"text/html\">\n\n<meta http-equiv=\"content-type\" content=\"text/html; charset=UTF-8\">\n\n</head>\n\n<body style=\"mar", "timestamp": null, "begin": null, "end": null, "altitudeMo": null, "tessellate": -1, "extrude": 0, "visibility": -1, "drawOrder": null, "icon": null, "snippet": null, "AREA": null}, "geometry": {"type": "Polygon", "coordinates": [[[-61.03716618105354, -4.445072954071066, 0.0], [-61.03718044183719, -4.445044518293436, 0.0], [-61.03712815229708, -4.444966319899473, 0.0], [-61.03704021079789, -4.444845467819635, 0.0], [-61.03697841406872, -4.444774378351666, 0.0], [-61.03718044183719, -4.444869164307415, 0.0], [-61.03720183301266, -4.44491181798355, 0.0], [-61.03724461536365, -4.444921296577882, 0.0], [-61.0372517457555, -4.444895230443116, 0.0], [-61.03719470262082, -4.444847837468436, 0.0], [-61.03714954347257, -4.444800444490719, 0.0], [-61.03709725393255, -4.444691440630343, 0.0], [-61.037075862757, -4.444589545702877, 0.0], [-61.03697603727142, -4.444542152708534, 0.0], [-61.03691424054224, -4.444667744136903, 0.0], [-61.03691899413681, -4.444726985369219, 0.0], [-61.03637708435786, -4.444295709088904, 0.0], [-61.03611325986017, -4.444148790737997, 0.0], [-61.03603720234736, -4.444129833529279, 0.0], [-61.03600630398274, -4.444163008644189, 0.0], [-61.03716618105354, -4.445072954071066, 0.0]]]}}, {"id": "9", "type": "Feature", "properties": {"id": "ID_00150", "Name": "48", "descriptio": "<html xmlns:fo=\"http://www.w3.org/1999/XSL/Format\" xmlns:msxsl=\"urn:schemas-microsoft-com:xslt\">\n\n<head>\n\n<META http-equiv=\"Content-Type\" content=\"text/html\">\n\n<meta http-equiv=\"content-type\" content=\"text/html; charset=UTF-8\">\n\n</head>\n\n<body style=\"mar", "timestamp": null, "begin": null, "end": null, "altitudeMo": null, "tessellate": -1, "extrude": 0, "visibility": -1, "drawOrder": null, "icon": null, "snippet": null, "AREA": null}, "geometry": {"type": "Polygon", "coordinates": [[[-61.06321362987066, -4.464923576446755, 0.0], [-61.06325474798761, -4.464884632781408, 0.0], [-61.06328147476362, -4.464694013758059, 0.0], [-61.06361864332277, -4.464575133051778, 0.0], [-61.06363920238119, -4.464517742359061, 0.0], [-61.06365770553387, -4.464380414611917, 0.0], [-61.0636720968748, -4.464230788828281, 0.0], [-61.06372349452099, -4.464118057053331, 0.0], [-61.06370087955665, -4.464044268973119, 0.0], [-61.06371527089757, -4.463993027246364, 0.0], [-61.0636720968748, -4.463968431216271, 0.0], [-61.06363097875779, -4.463972530554681, 0.0], [-61.06348295353676, -4.464009424599321, 0.0], [-61.06317662356538, -4.464091411358593, 0.0], [-61.0630512133087, -4.464253335181179, 0.0], [-61.06306766055548, -4.464290229211769, 0.0], [-61.06301420700338, -4.464320974235761, 0.0], [-61.06290318808762, -4.464374265607704, 0.0], [-61.06285795815894, -4.464429606643722, 0.0], [-61.06283123138292, -4.46449724568204, 0.0], [-61.06276338648995, -4.464562835046527, 0.0], [-61.06321362987066, -4.464923576446755, 0.0]]]}}, {"id": "10", "type": "Feature", "properties": {"id": "ID_00151", "Name": "49", "descriptio": "<html xmlns:fo=\"http://www.w3.org/1999/XSL/Format\" xmlns:msxsl=\"urn:schemas-microsoft-com:xslt\">\n\n<head>\n\n<META http-equiv=\"Content-Type\" content=\"text/html\">\n\n<meta http-equiv=\"content-type\" content=\"text/html; charset=UTF-8\">\n\n</head>\n\n<body style=\"mar", "timestamp": null, "begin": null, "end": null, "altitudeMo": null, "tessellate": -1, "extrude": 0, "visibility": -1, "drawOrder": null, "icon": null, "snippet": null, "AREA": null}, "geometry": {"type": "Polygon", "coordinates": [[[-61.09535933540875, -4.489472200069445, 0.0], [-61.09542999583783, -4.489303918059239, 0.0], [-61.09480190313475, -4.488744282257823, 0.0], [-61.09473516828506, -4.488838207177543, 0.0], [-61.09449178236261, -4.488646443786929, 0.0], [-61.0944328986717, -4.488724714564658, 0.0], [-61.0941777360111, -4.488564259461238, 0.0], [-61.09432298244869, -4.488392063701216, 0.0], [-61.09444467540991, -4.48834901475488, 0.0], [-61.09471554038812, -4.488380323079778, 0.0], [-61.09497462862815, -4.488466420966211, 0.0], [-61.09510809832756, -4.48857208654031, 0.0], [-61.09517875875665, -4.488728628103331, 0.0], [-61.0952768982415, -4.488724714564658, 0.0], [-61.09533970751182, -4.488669925021147, 0.0], [-61.0952768982415, -4.488270743936872, 0.0], [-61.09503351231901, -4.488098548107558, 0.0], [-61.09486863798445, -4.488125942901286, 0.0], [-61.09438971729839, -4.487996796007526, 0.0], [-61.09428372665476, -4.488016363720205, 0.0], [-61.09401678725592, -4.487836340744086, 0.0], [-61.09358104794318, -4.487621095823085, 0.0], [-61.09351431309348, -4.487675885445327, 0.0], [-61.09341617360862, -4.487617182278486, 0.0], [-61.09336121549707, -4.487648490634784, 0.0], [-61.09338476897346, -4.487867649090933, 0.0], [-61.09378125249229, -4.48816116477743, 0.0], [-61.09422876854321, -4.488341187673456, 0.0], [-61.09424054528137, -4.488395977241679, 0.0], [-61.09413062905833, -4.488568173000783, 0.0], [-61.09535933540875, -4.489472200069445, 0.0]]]}}, {"id": "11", "type": "Feature", "properties": {"id": "ID_00152", "Name": "50", "descriptio": "<html xmlns:fo=\"http://www.w3.org/1999/XSL/Format\" xmlns:msxsl=\"urn:schemas-microsoft-com:xslt\">\n\n<head>\n\n<META http-equiv=\"Content-Type\" content=\"text/html\">\n\n<meta http-equiv=\"content-type\" content=\"text/html; charset=UTF-8\">\n\n</head>\n\n<body style=\"mar", "timestamp": null, "begin": null, "end": null, "altitudeMo": null, "tessellate": -1, "extrude": 0, "visibility": -1, "drawOrder": null, "icon": null, "snippet": null, "AREA": null}, "geometry": {"type": "Polygon", "coordinates": [[[-61.10178022370094, -4.494769743459584, 0.0], [-61.10131900112564, -4.494439520453578, 0.0], [-61.10124772127306, -4.494512671132404, 0.0], [-61.10120579194803, -4.494631802222121, 0.0], [-61.10118482728557, -4.494734213143403, 0.0], [-61.10109467923676, -4.494809453811017, 0.0], [-61.10102549585044, -4.494897234580143, 0.0], [-61.10097518066044, -4.494995465428244, 0.0], [-61.10080327042783, -4.495037265785189, 0.0], [-61.10063555312772, -4.495112506421536, 0.0], [-61.1005936238027, -4.495191927084812, 0.0], [-61.10050976515262, -4.495308968046536, 0.0], [-61.10057894853893, -4.495390478705142, 0.0], [-61.10067748245277, -4.495417648922674, 0.0], [-61.1007571481703, -4.495396748755478, 0.0], [-61.10080955982657, -4.495329868216229, 0.0], [-61.10090180434161, -4.495315238097537, 0.0], [-61.10097308419419, -4.495367488520341, 0.0], [-61.10111983683176, -4.495494979536268, 0.0], [-61.1011827308193, -4.495430189022803, 0.0], [-61.1012665894693, -4.4952567176195, 0.0], [-61.10133367638934, -4.495242087499228, 0.0], [-61.10138608804568, -4.495214917275152, 0.0], [-61.10132529052439, -4.495152216754261, 0.0], [-61.10133996578811, -4.495095786280785, 0.0], [-61.10138399157941, -4.495056075944943, 0.0], [-61.10150768308824, -4.495014275589134, 0.0], [-61.10150768308824, -4.494964115159021, 0.0], [-61.1015957346708, -4.494895144561938, 0.0], [-61.10178022370094, -4.494769743459584, 0.0]]]}}, {"id": "12", "type": "Feature", "properties": {"id": "ID_00153", "Name": "51", "descriptio": "<html xmlns:fo=\"http://www.w3.org/1999/XSL/Format\" xmlns:msxsl=\"urn:schemas-microsoft-com:xslt\">\n\n<head>\n\n<META http-equiv=\"Content-Type\" content=\"text/html\">\n\n<meta http-equiv=\"content-type\" content=\"text/html; charset=UTF-8\">\n\n</head>\n\n<body style=\"mar", "timestamp": null, "begin": null, "end": null, "altitudeMo": null, "tessellate": -1, "extrude": 0, "visibility": -1, "drawOrder": null, "icon": null, "snippet": null, "AREA": null}, "geometry": {"type": "Polygon", "coordinates": [[[-61.11101226485991, -4.501390829518861, 0.0], [-61.1111521177796, -4.501296022869928, 0.0], [-61.11120246483068, -4.501191921437362, 0.0], [-61.11117449424671, -4.501011602849209, 0.0], [-61.11111482366768, -4.500946539430156, 0.0], [-61.11102158838786, -4.500840578992413, 0.0], [-61.11095072957522, -4.500760643915154, 0.0], [-61.1108425766507, -4.500703016295827, 0.0], [-61.11069340020307, -4.500669555095386, 0.0], [-61.11057592375055, -4.500704875251356, 0.0], [-61.11051625317154, -4.500738336450094, 0.0], [-61.11055354728337, -4.500829425261203, 0.0], [-61.1105069296435, -4.500907501375965, 0.0], [-61.11047336494278, -4.501037628215236, 0.0], [-61.11101226485991, -4.501390829518861, 0.0]]]}}, {"id": "13", "type": "Feature", "properties": {"id": "ID_00154", "Name": "52", "descriptio": "<html xmlns:fo=\"http://www.w3.org/1999/XSL/Format\" xmlns:msxsl=\"urn:schemas-microsoft-com:xslt\">\n\n<head>\n\n<META http-equiv=\"Content-Type\" content=\"text/html\">\n\n<meta http-equiv=\"content-type\" content=\"text/html; charset=UTF-8\">\n\n</head>\n\n<body style=\"mar", "timestamp": null, "begin": null, "end": null, "altitudeMo": null, "tessellate": -1, "extrude": 0, "visibility": -1, "drawOrder": null, "icon": null, "snippet": null, "AREA": null}, "geometry": {"type": "Polygon", "coordinates": [[[-61.14503608728049, -4.527491385868788, 0.0], [-61.14515498341299, -4.527264642114351, 0.0], [-61.14496888511867, -4.527207956164646, 0.0], [-61.14465096719919, -4.52691679644384, 0.0], [-61.14453982516228, -4.52689360672654, 0.0], [-61.14434855747087, -4.526545760877738, 0.0], [-61.14414953568387, -4.526298403727996, 0.0], [-61.14401513136023, -4.52625460089053, 0.0], [-61.14381610957324, -4.526365396297717, 0.0], [-61.14371013693343, -4.526401469217364, 0.0], [-61.14503608728049, -4.527491385868788, 0.0]]]}}, {"id": "14", "type": "Feature", "properties": {"id": "ID_00155", "Name": "53", "descriptio": "<html xmlns:fo=\"http://www.w3.org/1999/XSL/Format\" xmlns:msxsl=\"urn:schemas-microsoft-com:xslt\">\n\n<head>\n\n<META http-equiv=\"Content-Type\" content=\"text/html\">\n\n<meta http-equiv=\"content-type\" content=\"text/html; charset=UTF-8\">\n\n</head>\n\n<body style=\"mar", "timestamp": null, "begin": null, "end": null, "altitudeMo": null, "tessellate": -1, "extrude": 0, "visibility": -1, "drawOrder": null, "icon": null, "snippet": null, "AREA": null}, "geometry": {"type": "Polygon", "coordinates": [[[-61.16231409582289, -4.540712932094541, 0.0], [-61.16235755783688, -4.540624883287062, 0.0], [-61.16231269382244, -4.540589943281103, 0.0], [-61.16233652783012, -4.540500496858111, 0.0], [-61.16225801580494, -4.540443195237546, 0.0], [-61.16216127777391, -4.540378905609109, 0.0], [-61.16205612774025, -4.540323001579719, 0.0], [-61.16196219371012, -4.54024333833032, 0.0], [-61.16192153569708, -4.540177651082997, 0.0], [-61.16180657166026, -4.540142711055314, 0.0], [-61.16165094961034, -4.540100783019981, 0.0], [-61.16154860357754, -4.540111963829661, 0.0], [-61.16231409582289, -4.540712932094541, 0.0]]]}}, {"id": "15", "type": "Feature", "properties": {"id": "ID_00156", "Name": "54", "descriptio": "<html xmlns:fo=\"http://www.w3.org/1999/XSL/Format\" xmlns:msxsl=\"urn:schemas-microsoft-com:xslt\">\n\n<head>\n\n<META http-equiv=\"Content-Type\" content=\"text/html\">\n\n<meta http-equiv=\"content-type\" content=\"text/html; charset=UTF-8\">\n\n</head>\n\n<body style=\"mar", "timestamp": null, "begin": null, "end": null, "altitudeMo": null, "tessellate": -1, "extrude": 0, "visibility": -1, "drawOrder": null, "icon": null, "snippet": null, "AREA": null}, "geometry": {"type": "Polygon", "coordinates": [[[-61.16454139037856, -4.542416907260853, 0.0], [-61.16456753514863, -4.542232099364623, 0.0], [-61.16374754008832, -4.541559208675743, 0.0], [-61.16361681623816, -4.541471543293353, 0.0], [-61.16355739630626, -4.541481020632457, 0.0], [-61.16344568683425, -4.541625550039164, 0.0], [-61.16454139037856, -4.542416907260853, 0.0]]]}}, {"id": "16", "type": "Feature", "properties": {"id": "ID_00157", "Name": "55", "descriptio": "<html xmlns:fo=\"http://www.w3.org/1999/XSL/Format\" xmlns:msxsl=\"urn:schemas-microsoft-com:xslt\">\n\n<head>\n\n<META http-equiv=\"Content-Type\" content=\"text/html\">\n\n<meta http-equiv=\"content-type\" content=\"text/html; charset=UTF-8\">\n\n</head>\n\n<body style=\"mar", "timestamp": null, "begin": null, "end": null, "altitudeMo": null, "tessellate": -1, "extrude": 0, "visibility": -1, "drawOrder": null, "icon": null, "snippet": null, "AREA": null}, "geometry": {"type": "Polygon", "coordinates": [[[-61.16515987731116, -4.542886230159714, 0.0], [-61.16616095147163, -4.543620875525685, 0.0], [-61.16618508834927, -4.54351189323898, 0.0], [-61.166135296839, -4.543353442906064, 0.0], [-61.16602805358603, -4.543355351946448, 0.0], [-61.16575611533749, -4.543172084048543, 0.0], [-61.16540565970745, -4.542818911405573, 0.0], [-61.16531948209342, -4.542895273072774, 0.0], [-61.16520840872438, -4.542864728406892, 0.0], [-61.16515987731116, -4.542886230159714, 0.0]]]}}, {"id": "17", "type": "Feature", "properties": {"id": "ID_00158", "Name": "56", "descriptio": "<html xmlns:fo=\"http://www.w3.org/1999/XSL/Format\" xmlns:msxsl=\"urn:schemas-microsoft-com:xslt\">\n\n<head>\n\n<META http-equiv=\"Content-Type\" content=\"text/html\">\n\n<meta http-equiv=\"content-type\" content=\"text/html; charset=UTF-8\">\n\n</head>\n\n<body style=\"mar", "timestamp": null, "begin": null, "end": null, "altitudeMo": null, "tessellate": -1, "extrude": 0, "visibility": -1, "drawOrder": null, "icon": null, "snippet": null, "AREA": null}, "geometry": {"type": "Polygon", "coordinates": [[[-61.17310646803452, -4.55051385014328, 0.0], [-61.17289034222506, -4.55027702558053, 0.0], [-61.17278145441266, -4.550207951735064, 0.0], [-61.17263957029342, -4.550364190185627, 0.0], [-61.1725504802651, -4.550372413260983, 0.0], [-61.1724663396828, -4.550438197860885, 0.0], [-61.17254718063443, -4.550540163978799, 0.0], [-61.17259007583323, -4.550545097822872, 0.0], [-61.17260822380197, -4.550582923959477, 0.0], [-61.17256862823383, -4.550607593177882, 0.0], [-61.17259007583323, -4.550637196238897, 0.0], [-61.17268246549227, -4.550597725490596, 0.0], [-61.17275340755187, -4.550601014719751, 0.0], [-61.17286064554895, -4.550696402357262, 0.0], [-61.17296623373068, -4.550656931612235, 0.0], [-61.17301242856015, -4.550676666985046, 0.0], [-61.17306027320498, -4.550653642383392, 0.0], [-61.17302232745217, -4.550577990115686, 0.0], [-61.17310646803452, -4.55051385014328, 0.0]]]}}, {"id": "18", "type": "Feature", "properties": {"id": "ID_00159", "Name": "57", "descriptio": "<html xmlns:fo=\"http://www.w3.org/1999/XSL/Format\" xmlns:msxsl=\"urn:schemas-microsoft-com:xslt\">\n\n<head>\n\n<META http-equiv=\"Content-Type\" content=\"text/html\">\n\n<meta http-equiv=\"content-type\" content=\"text/html; charset=UTF-8\">\n\n</head>\n\n<body style=\"mar", "timestamp": null, "begin": null, "end": null, "altitudeMo": null, "tessellate": -1, "extrude": 0, "visibility": -1, "drawOrder": null, "icon": null, "snippet": null, "AREA": null}, "geometry": {"type": "Polygon", "coordinates": [[[-61.1906297846377, -4.568485704148777, 0.0], [-61.19058272405163, -4.568457273198502, 0.0], [-61.19052710699535, -4.568471488673761, 0.0], [-61.19037023837511, -4.568296638308261, 0.0], [-61.19022620446015, -4.568444479270477, 0.0], [-61.19040303817754, -4.568632123524786, 0.0], [-61.19069253208578, -4.568926383733887, 0.0], [-61.1908693658031, -4.568770013589544, 0.0], [-61.19063691502948, -4.568521242835031, 0.0], [-61.1906297846377, -4.568485704148777, 0.0]]]}}, {"id": "19", "type": "Feature", "properties": {"id": "ID_00160", "Name": "58", "descriptio": "<html xmlns:fo=\"http://www.w3.org/1999/XSL/Format\" xmlns:msxsl=\"urn:schemas-microsoft-com:xslt\">\n\n<head>\n\n<META http-equiv=\"Content-Type\" content=\"text/html\">\n\n<meta http-equiv=\"content-type\" content=\"text/html; charset=UTF-8\">\n\n</head>\n\n<body style=\"mar", "timestamp": null, "begin": null, "end": null, "altitudeMo": null, "tessellate": -1, "extrude": 0, "visibility": -1, "drawOrder": null, "icon": null, "snippet": null, "AREA": null}, "geometry": {"type": "Polygon", "coordinates": [[[-61.1929436003014, -4.570446368345102, 0.0], [-61.19298519425371, -4.570407868204921, 0.0], [-61.19294954229459, -4.570277560023022, 0.0], [-61.19285744140012, -4.570244982973732, 0.0], [-61.19281584744781, -4.570147251817329, 0.0], [-61.19279505047158, -4.570088020806923, 0.0], [-61.19284258641716, -4.570070251502825, 0.0], [-61.19290200634907, -4.570108751661075, 0.0], [-61.19294954229459, -4.570076174604231, 0.0], [-61.19298816525028, -4.570096905458735, 0.0], [-61.19297331026731, -4.570165021119442, 0.0], [-61.19299113624691, -4.570215367473187, 0.0], [-61.19306541116177, -4.570227213673594, 0.0], [-61.1931485990664, -4.570224252123511, 0.0], [-61.19316345404938, -4.570135405615601, 0.0], [-61.19322584497792, -4.570135405615601, 0.0], [-61.19331794587238, -4.570194636622076, 0.0], [-61.19341301776342, -4.570173905770425, 0.0], [-61.1934189597566, -4.570102828559945, 0.0], [-61.19333577185191, -4.570025828240722, 0.0], [-61.19337736580428, -4.569913289297725, 0.0], [-61.1935288866306, -4.569969558771405, 0.0], [-61.19363287151147, -4.56971190377663, 0.0], [-61.19354671261019, -4.569626018757778, 0.0], [-61.19359127755914, -4.569312094118565, 0.0], [-61.19343381473957, -4.569303209457003, 0.0], [-61.19307729514817, -4.569205478172112, 0.0], [-61.19297628126393, -4.568790860451831, 0.0], [-61.19317533803577, -4.568669436645505, 0.0], [-61.19326743893023, -4.568533205033468, 0.0], [-61.19320504800176, -4.568429550528632, 0.0], [-61.19313968607664, -4.568346626914077, 0.0], [-61.19300896222649, -4.568352550029683, 0.0], [-61.19274751452613, -4.568817514455389, 0.0], [-61.19253063177465, -4.568906361126574, 0.0], [-61.19249497981551, -4.569039631112743, 0.0], [-61.19236128496874, -4.56910478531921, 0.0], [-61.19221273513899, -4.569134400865715, 0.0], [-61.19222164812875, -4.569220285943429, 0.0], [-61.19233751699594, -4.569477941114891, 0.0], [-61.19246526984953, -4.569540133728663, 0.0], [-61.19244447287338, -4.569726711537451, 0.0], [-61.19240584991761, -4.569907366194953, 0.0], [-61.1929436003014, -4.570446368345102, 0.0]]]}}, {"id": "20", "type": "Feature", "properties": {"id": "ID_00161", "Name": "59", "descriptio": "<html xmlns:fo=\"http://www.w3.org/1999/XSL/Format\" xmlns:msxsl=\"urn:schemas-microsoft-com:xslt\">\n\n<head>\n\n<META http-equiv=\"Content-Type\" content=\"text/html\">\n\n<meta http-equiv=\"content-type\" content=\"text/html; charset=UTF-8\">\n\n</head>\n\n<body style=\"mar", "timestamp": null, "begin": null, "end": null, "altitudeMo": null, "tessellate": -1, "extrude": 0, "visibility": -1, "drawOrder": null, "icon": null, "snippet": null, "AREA": null}, "geometry": {"type": "MultiPolygon", "coordinates": [[[[-61.22410945350496, -4.603018085958242, 0.0], [-61.22421296970185, -4.603020329052131, 0.0], [-61.22423097251868, -4.602928362195018, 0.0], [-61.22422197111025, -4.602760130108672, 0.0], [-61.22408694998398, -4.602616572030104, 0.0], [-61.22404419329396, -4.602903688158185, 0.0], [-61.22410945350496, -4.603018085958242, 0.0]]], [[[-61.22360087392926, -4.60263675988669, 0.0], [-61.22352211160558, -4.602719754402007, 0.0], [-61.22358737181664, -4.602748914634798, 0.0], [-61.22365038167555, -4.602699566547789, 0.0], [-61.22380115526664, -4.602757887013889, 0.0], [-61.22394292744923, -4.602477500113929, 0.0], [-61.2233848401272, -4.601844946862067, 0.0], [-61.22333308202882, -4.602233002647074, 0.0], [-61.22343209752143, -4.602497687974409, 0.0], [-61.22360087392926, -4.60263675988669, 0.0]]]]}}, {"id": "21", "type": "Feature", "properties": {"id": "ID_00162", "Name": "60", "descriptio": "<html xmlns:fo=\"http://www.w3.org/1999/XSL/Format\" xmlns:msxsl=\"urn:schemas-microsoft-com:xslt\">\n\n<head>\n\n<META http-equiv=\"Content-Type\" content=\"text/html\">\n\n<meta http-equiv=\"content-type\" content=\"text/html; charset=UTF-8\">\n\n</head>\n\n<body style=\"mar", "timestamp": null, "begin": null, "end": null, "altitudeMo": null, "tessellate": -1, "extrude": 0, "visibility": -1, "drawOrder": null, "icon": null, "snippet": null, "AREA": "1643,32264622504"}, "geometry": {"type": "MultiPolygon", "coordinates": [[[[-61.26438520698121, -4.652546357092437, 0.0], [-61.26451377517365, -4.65271231476678, 0.0], [-61.2644421142139, -4.652502241754635, 0.0], [-61.2644189297858, -4.652414011070935, 0.0], [-61.2643641302283, -4.652325780376087, 0.0], [-61.26437466860474, -4.652262758444474, 0.0], [-61.26434516115076, -4.652193434313143, 0.0], [-61.26429457694388, -4.652159822610652, 0.0], [-61.26423134668534, -4.652159822610652, 0.0], [-61.26419762388073, -4.652172426999247, 0.0], [-61.2641575780503, -4.652203937969841, 0.0], [-61.26438520698121, -4.652546357092437, 0.0]]], [[[-61.26382667303039, -4.652071591883995, 0.0], [-61.26388358026314, -4.652111505785575, 0.0], [-61.26393837982056, -4.652098901395798, 0.0], [-61.2637592274213, -4.651842612089426, 0.0], [-61.26376765812245, -4.651989663342215, 0.0], [-61.26378662720001, -4.652035879443868, 0.0], [-61.26382667303039, -4.652071591883995, 0.0]]], [[[-61.26384564210802, -4.651743877659582, 0.0], [-61.26410277849287, -4.65217452773069, 0.0], [-61.26414282432332, -4.652172426999247, 0.0], [-61.26422713133478, -4.652134613832751, 0.0], [-61.26424188506172, -4.652079994810836, 0.0], [-61.26422291598418, -4.652014872125277, 0.0], [-61.26417022410203, -4.651953950897944, 0.0], [-61.26384564210802, -4.651743877659582, 0.0]]]]}}, {"id": "22", "type": "Feature", "properties": {"id": "ID_00163", "Name": "61", "descriptio": "<html xmlns:fo=\"http://www.w3.org/1999/XSL/Format\" xmlns:msxsl=\"urn:schemas-microsoft-com:xslt\">\n\n<head>\n\n<META http-equiv=\"Content-Type\" content=\"text/html\">\n\n<meta http-equiv=\"content-type\" content=\"text/html; charset=UTF-8\">\n\n</head>\n\n<body style=\"mar", "timestamp": null, "begin": null, "end": null, "altitudeMo": null, "tessellate": -1, "extrude": 0, "visibility": -1, "drawOrder": null, "icon": null, "snippet": null, "AREA": null}, "geometry": {"type": "Polygon", "coordinates": [[[-61.26198248252906, -4.648762558748029, 0.0], [-61.26207028299639, -4.648734377037155, 0.0], [-61.26210599844067, -4.648669114123365, 0.0], [-61.26202266240394, -4.648449593368965, 0.0], [-61.2619542078023, -4.648281986260454, 0.0], [-61.26189617020524, -4.648224139550044, 0.0], [-61.26189319391825, -4.648270120268999, 0.0], [-61.26184706146931, -4.648273086766817, 0.0], [-61.26185301404337, -4.648212273557565, 0.0], [-61.2617905120158, -4.648195957817586, 0.0], [-61.26176521357603, -4.648133661352388, 0.0], [-61.26178009501118, -4.648108446114994, 0.0], [-61.26169824711794, -4.648041699893737, 0.0], [-61.26158663635442, -4.648065431884218, 0.0], [-61.26153752761843, -4.648092130372579, 0.0], [-61.26198248252906, -4.648762558748029, 0.0]]]}}]}