{"type": "FeatureCollection", "features": [{"id": "0", "type": "Feature", "properties": {"Id": 13, "CONTRATO": "SR-667/19", "KM": "514,60", "ESTACA": "75", "RODOVIA": "BR-319", "RELATORIO": "RNC 594-25", "LADO": "ESQUERDO", "LONG": "062\u00c2\u00b0 49' 6.38\" W", "LAT": "06\u00c2\u00b0 22' 49.32\" S", "STATUS": "SEM LICEN\u00c3\u0087A"}, "geometry": {"type": "Point", "coordinates": [-62.818438268644464, -6.380367041556129]}}, {"id": "1", "type": "Feature", "properties": {"Id": 14, "CONTRATO": "SR-667/19", "KM": "514,90", "ESTACA": "90", "RODOVIA": "BR-319", "RELATORIO": "RNC 595-25", "LADO": "2 LADOS", "LONG": "062\u00c2\u00b0 49' 7.61\" W", "LAT": "06\u00c2\u00b0 22' 50.88\" S", "STATUS": "REGULARIZADO"}, "geometry": {"type": "Point", "coordinates": [-62.81878172494516, -6.380801377509948]}}, {"id": "2", "type": "Feature", "properties": {"Id": 15, "CONTRATO": "SR-667/19", "KM": "527,70", "ESTACA": "730", "RODOVIA": "BR-319", "RELATORIO": "RNC 596-25", "LADO": "ESQUERDO", "LONG": "062\u00c2\u00b0 53' 20.54\" W", "LAT": "06\u00c2\u00b0 28' 25.57\" S", "STATUS": "REGULARIZADO"}, "geometry": {"type": "Point", "coordinates": [-62.88903881798456, -6.473770574320392]}}, {"id": "3", "type": "Feature", "properties": {"Id": 16, "CONTRATO": "SR-667/19", "KM": "533,80", "ESTACA": "1035", "RODOVIA": "BR-319", "RELATORIO": "RNC 597-25", "LADO": "2 LADOS", "LONG": "062\u00c2\u00b0 55' 22.15\" W", "LAT": "06\u00c2\u00b0 30' 59.76\" S", "STATUS": "REGULARIZADO"}, "geometry": {"type": "Point", "coordinates": [-62.922820758070856, -6.516601270994134]}}, {"id": "4", "type": "Feature", "properties": {"Id": 17, "CONTRATO": "SR-667/19", "KM": "536,30", "ESTACA": "1160", "RODOVIA": "BR-319", "RELATORIO": "RNC 598-25", "LADO": "2 LADOS", "LONG": "062\u00c2\u00b0 56' 7.73\" W", "LAT": "06\u00c2\u00b0 32' 6.17\" S", "STATUS": "REGULARIZADO"}, "geometry": {"type": "Point", "coordinates": [-62.935481105868945, -6.535048116502875]}}, {"id": "5", "type": "Feature", "properties": {"Id": 18, "CONTRATO": "SR-667/19", "KM": "546,20", "ESTACA": "1655", "RODOVIA": "BR-319", "RELATORIO": "RNC 599-25", "LADO": "2 LADOS", "LONG": "062\u00c2\u00b0 57' 26.25\" W", "LAT": "06\u00c2\u00b0 37' 17.87\" S", "STATUS": "REGULARIZADO"}, "geometry": {"type": "Point", "coordinates": [-62.957290555258574, -6.6216308434474245]}}, {"id": "6", "type": "Feature", "properties": {"Id": 19, "CONTRATO": "SR-667/19", "KM": "546,20", "ESTACA": "1655", "RODOVIA": "BR-319", "RELATORIO": "RNC 600-25", "LADO": "DIREITO", "LONG": "062\u00c2\u00b0 57' 26.25\" W", "LAT": "06\u00c2\u00b0 37' 17.87\" S", "STATUS": "SEM LICEN\u00c3\u0087A"}, "geometry": {"type": "Point", "coordinates": [-62.95729055525859, -6.6216308434474325]}}, {"id": "7", "type": "Feature", "properties": {"Id": 20, "CONTRATO": "SR-667/19", "KM": "546,50", "ESTACA": "1670", "RODOVIA": "BR-319", "RELATORIO": "RNC 606-25", "LADO": "2 LADOS", "LONG": "062\u00c2\u00b0 57' 26.93\" W", "LAT": "06\u00c2\u00b0 37' 25.95\" S", "STATUS": "REGULARIZADO"}, "geometry": {"type": "Point", "coordinates": [-62.957480343782755, -6.623874293233309]}}, {"id": "8", "type": "Feature", "properties": {"Id": 21, "CONTRATO": "SR-667/19", "KM": "547,40", "ESTACA": "1715", "RODOVIA": "BR-319", "RELATORIO": "RNC 601-25", "LADO": "ESQUERDO", "LONG": "062\u00c2\u00b0 57' 32.69\" W", "LAT": "06\u00c2\u00b0 37' 55.29\" S", "STATUS": "SEM LICEN\u00c3\u0087A"}, "geometry": {"type": "Point", "coordinates": [-62.95908094375541, -6.63202496480022]}}, {"id": "9", "type": "Feature", "properties": {"Id": 22, "CONTRATO": "SR-667/19", "KM": "547,50", "ESTACA": "1720", "RODOVIA": "BR-319", "RELATORIO": "RNC 602-25", "LADO": "ESQUERDO", "LONG": "062\u00c2\u00b0 57' 33.11\" W", "LAT": "06\u00c2\u00b0 37' 58.9\" S", "STATUS": "SEM LICEN\u00c3\u0087A"}, "geometry": {"type": "Point", "coordinates": [-62.95919847063031, -6.633029091523964]}}, {"id": "10", "type": "Feature", "properties": {"Id": 23, "CONTRATO": "SR-667/19", "KM": "548,90", "ESTACA": "1790", "RODOVIA": "BR-319", "RELATORIO": "RNC 603-25", "LADO": "2 LADOS", "LONG": "062\u00c2\u00b0 57' 42.07\" W", "LAT": "06\u00c2\u00b0 38' 42.35\" S", "STATUS": "REGULARIZADO"}, "geometry": {"type": "Point", "coordinates": [-62.96168543531365, -6.645096783757755]}}, {"id": "11", "type": "Feature", "properties": {"Id": 24, "CONTRATO": "SR-667/19", "KM": "553,5", "ESTACA": "2020", "RODOVIA": "BR-319", "RELATORIO": "RNC 607-25", "LADO": "2 LADOS", "LONG": "062\u00c2\u00b0 58' 15.41\" W", "LAT": "06\u00c2\u00b0 41' 22.87\" S", "STATUS": "REGULARIZADO"}, "geometry": {"type": "Point", "coordinates": [-62.970947062668735, -6.689685580961226]}}, {"id": "12", "type": "Feature", "properties": {"Id": 25, "CONTRATO": "SR-667/19", "KM": "564,10", "ESTACA": "2550", "RODOVIA": "BR-319", "RELATORIO": "RNC 604-25", "LADO": "2 LADOS", "LONG": "063\u00c2\u00b0 00' 23.55\" W", "LAT": "06\u00c2\u00b0 46' 28.53\" S", "STATUS": "REGULARIZADO"}, "geometry": {"type": "Point", "coordinates": [-63.00654279818648, -6.774592763012241]}}, {"id": "13", "type": "Feature", "properties": {"Id": 26, "CONTRATO": "SR-667/19", "KM": "569,20", "ESTACA": "2805", "RODOVIA": "BR-319", "RELATORIO": "RNC 605-25", "LADO": "2 LADOS", "LONG": "063\u00c2\u00b0 01' 46.87\" W", "LAT": "06\u00c2\u00b0 48' 48.69\" S", "STATUS": "REGULARIZADO"}, "geometry": {"type": "Point", "coordinates": [-63.0296847899016, -6.813526061135553]}}, {"id": "14", "type": "Feature", "properties": {"Id": 27, "CONTRATO": "SR-667/19", "KM": "571,80", "ESTACA": "2935", "RODOVIA": "BR-319", "RELATORIO": "RNC 608-25", "LADO": "2 LADOS", "LONG": "063\u00c2\u00b0 02' 25.64\" W", "LAT": "06\u00c2\u00b0 49' 48.32\" S", "STATUS": "REGULARIZADO"}, "geometry": {"type": "Point", "coordinates": [-63.04045596471844, -6.830088559729359]}}, {"id": "15", "type": "Feature", "properties": {"Id": 2, "CONTRATO": null, "KM": "158,50", "ESTACA": null, "RODOVIA": "BR-319", "RELATORIO": "IBAMA", "LADO": null, "LONG": "060\u00c2\u00b0 47' 42.48\" W", "LAT": "04\u00c2\u00b0 09' 58.49\" S", "STATUS": "IBAMA"}, "geometry": {"type": "Point", "coordinates": [-60.79513194444445, -4.166248333470267]}}, {"id": "16", "type": "Feature", "properties": {"Id": 1, "CONTRATO": null, "KM": "98,70", "ESTACA": null, "RODOVIA": "BR-319", "RELATORIO": "IBAMA", "LADO": null, "LONG": "060\u00c2\u00b0 17' 1.57\" W", "LAT": "03\u00c2\u00b0 44' 13.33\" S", "STATUS": "IBAMA"}, "geometry": {"type": "Point", "coordinates": [-60.28377083333333, -3.7370372223451236]}}, {"id": "17", "type": "Feature", "properties": {"Id": 9, "CONTRATO": null, "KM": "432,4", "ESTACA": null, "RODOVIA": "BR-319", "RELATORIO": "IBAMA", "LADO": null, "LONG": "062\u00c2\u00b0 19' 5.29\" W", "LAT": "05\u00c2\u00b0 48' 56.32\" S", "STATUS": "IBAMA"}, "geometry": {"type": "Point", "coordinates": [-62.31813611111111, -5.8156447224127215]}}, {"id": "18", "type": "Feature", "properties": {"Id": 5, "CONTRATO": null, "KM": "366,5", "ESTACA": null, "RODOVIA": "BR-319", "RELATORIO": "IBAMA", "LADO": null, "LONG": "062\u00c2\u00b0 00' 0.26\" W", "LAT": "05\u00c2\u00b0 19' 3.49\" S", "STATUS": "IBAMA"}, "geometry": {"type": "Point", "coordinates": [-62.000071944444436, -5.317636389063271]}}, {"id": "19", "type": "Feature", "properties": {"Id": 4, "CONTRATO": null, "KM": "250,7", "ESTACA": null, "RODOVIA": "BR-319", "RELATORIO": "IBAMA", "LADO": null, "LONG": "061\u00c2\u00b0 21' 40.87\" W", "LAT": "04\u00c2\u00b0 48' 6.22\" S", "STATUS": "IBAMA"}, "geometry": {"type": "Point", "coordinates": [-61.36135222222223, -4.801728611268727]}}, {"id": "20", "type": "Feature", "properties": {"Id": 3, "CONTRATO": null, "KM": "231,6", "ESTACA": null, "RODOVIA": "BR-319", "RELATORIO": "IBAMA", "LADO": null, "LONG": "061\u00c2\u00b0 07' 41.1\" W", "LAT": "04\u00c2\u00b0 30' 52.65\" S", "STATUS": "IBAMA"}, "geometry": {"type": "Point", "coordinates": [-61.12808472222222, -4.51462444459273]}}, {"id": "21", "type": "Feature", "properties": {"Id": 12, "CONTRATO": "SR-595/20", "KM": "474,10", "ESTACA": "2050", "RODOVIA": "BR-319", "RELATORIO": "RC 550-25", "LADO": "ESQUERDO", "LONG": "062\u00c2\u00b0 34' 2.92\" W", "LAT": "06\u00c2\u00b0 05' 45.83\" S", "STATUS": "REGULARIZADO"}, "geometry": {"type": "Point", "coordinates": [-62.567477694838466, -6.096064966133515]}}, {"id": "22", "type": "Feature", "properties": {"Id": 10, "CONTRATO": "SR-595/20", "KM": "434,40", "ESTACA": "65", "RODOVIA": "BR-319", "RELATORIO": "RO 518-24", "LADO": "2 LADOS", "LONG": "062\u00c2\u00b0 20' 27.81\" W", "LAT": "05\u00c2\u00b0 49' 35.23\" S", "STATUS": "N\u00c3\u0083O REGULARIZADO"}, "geometry": {"type": "Point", "coordinates": [-62.341058488481124, -5.826453450684288]}}, {"id": "23", "type": "Feature", "properties": {"Id": 11, "CONTRATO": "SR-595/20", "KM": "473,90", "ESTACA": "2075", "RODOVIA": "BR-319", "RELATORIO": "ROC 356-23", "LADO": "2 LADOS", "LONG": "062\u00c2\u00b0 34' 43.16\" W", "LAT": "06\u00c2\u00b0 06' 30.58\" S", "STATUS": "REGULARIZADO"}, "geometry": {"type": "Point", "coordinates": [-62.57865612355215, -6.108494042143027]}}, {"id": "24", "type": "Feature", "properties": {"Id": 28, "CONTRATO": "SR-595/20", "KM": null, "ESTACA": null, "RODOVIA": "BR-319", "RELATORIO": "RNC 011-22", "LADO": "ESQUERDO", "LONG": "062\u00c2\u00b0 34' 3.34\" W", "LAT": "06\u00c2\u00b0 05' 44.99\" S", "STATUS": "REGULARIZADO"}, "geometry": {"type": "Point", "coordinates": [-62.56759536745725, -6.095829863620091]}}, {"id": "25", "type": "Feature", "properties": {"Id": 6, "CONTRATO": "SR-594/20", "KM": "373,2", "ESTACA": null, "RODOVIA": "BR-319", "RELATORIO": "RO 611-20", "LADO": "2 LADOS", "LONG": "062\u00c2\u00b0 01' 40.2\" W", "LAT": "05\u00c2\u00b0 20' 36.58\" S", "STATUS": "IBAMA"}, "geometry": {"type": "Point", "coordinates": [-62.027832795882446, -5.343494794549767]}}, {"id": "26", "type": "Feature", "properties": {"Id": 8, "CONTRATO": "SR-594/20", "KM": "385,9", "ESTACA": "1985", "RODOVIA": "BR-319", "RELATORIO": "RO 614-20", "LADO": "2 LADOS", "LONG": "062\u00c2\u00b0 05' 31.53\" W", "LAT": "05\u00c2\u00b0 26' 17.32\" S", "STATUS": "IBAMA"}, "geometry": {"type": "Point", "coordinates": [-62.09209108885345, -5.43814465825653]}}, {"id": "27", "type": "Feature", "properties": {"Id": 7, "CONTRATO": "SR-594/20", "KM": "374,7", "ESTACA": "1425", "RODOVIA": "BR-319", "RELATORIO": "RO 616-20", "LADO": "DIREITO", "LONG": "062\u00c2\u00b0 02' 9.7\" W", "LAT": "05\u00c2\u00b0 21' 17.66\" S", "STATUS": "IBAMA"}, "geometry": {"type": "Point", "coordinates": [-62.03602717528561, -5.354904743664262]}}, {"id": "28", "type": "Feature", "properties": {"Id": 0, "CONTRATO": null, "KM": "318,14", "ESTACA": null, "RODOVIA": "BR-319", "RELATORIO": "CANTEIRO DE OBRAS TOQUINHA DA ON\u00c3\u0087A", "LADO": null, "LONG": "062\u00c2\u00b0 11' 57.09\" W", "LAT": "05\u00c2\u00b0 36' 45.08\" S", "STATUS": "IBAMA"}, "geometry": {"type": "Point", "coordinates": [-62.19919277999996, -5.612522359999954]}}]}