{"type": "FeatureCollection", "features": [{"id": "0", "type": "Feature", "properties": {"contrato": "01 00354/2021", "Nome": "Alvar\u00e3es", "Proc_dnit": "50013.000168/2018-81", "Proc_ipaam": "01.01.030201.015352/2023-11", "Contratos": "SR-354-2021", "Lote": "LOTE 4 - MANUTEN\u00c7\u00c3O E REGULARIZA\u00c7\u00c3O DE IP4s", "Supervisao": "Laghi Engenharia LTDA", "Operacao": "Antonelly Constru\u00e7\u00f5es e Servi\u00e7os LTDA"}, "geometry": {"type": "MultiPoint", "coordinates": [[-64.8036666698809, -3.210861110351914]]}}, {"id": "1", "type": "Feature", "properties": {"contrato": "01 00916/2020", "Nome": "Anori", "Proc_dnit": "50601.001364/2018-43", "Proc_ipaam": "01.01.030201.017856/2024-57", "Contratos": "DAQ-186/2023", "Lote": "LOTE 5 - OPERA\u00c7\u00c3O, MANUTEN\u00c7\u00c3O E REGULARIZA\u00c7\u00c3O DE IP4s", "Supervisao": "Laghi Engenharia LTDA", "Operacao": "Antonelly Constru\u00e7\u00f5es e Servi\u00e7os LTDA"}, "geometry": {"type": "MultiPoint", "coordinates": [[-61.644138889697956, -3.758777780270293]]}}, {"id": "2", "type": "Feature", "properties": {"contrato": "01 00032/2021", "Nome": "Autazes", "Proc_dnit": "50013.000853/2019-99", "Proc_ipaam": "01.01.030201.025221/2024-23", "Contratos": "SR-032/2021", "Lote": "LOTE 6 - OPERA\u00c7\u00c3O, MANUTEN\u00c7\u00c3O E REGULARIZA\u00c7\u00c3O DE IP4s", "Supervisao": "R Peotta Engenharia e Consultoria LTDA.", "Operacao": "Antonelly Constru\u00e7\u00f5es e Servi\u00e7os LTDA"}, "geometry": {"type": "MultiPoint", "coordinates": [[-59.134625000043684, -3.577308330315134]]}}, {"id": "3", "type": "Feature", "properties": {"contrato": "01 00032/2021", "Nome": "Barcelos", "Proc_dnit": "50013.000149/2019-36", "Proc_ipaam": "01.01.030201.025220/2024-89", "Contratos": "SR-032/2021", "Lote": "LOTE 6 - OPERA\u00c7\u00c3O, MANUTEN\u00c7\u00c3O E REGULARIZA\u00c7\u00c3O DE IP4s", "Supervisao": "R Peotta Engenharia e Consultoria LTDA.", "Operacao": "Antonelly Constru\u00e7\u00f5es e Servi\u00e7os LTDA"}, "geometry": {"type": "MultiPoint", "coordinates": [[-62.92994029620769, -0.9668607413300947]]}}, {"id": "4", "type": "Feature", "properties": {"contrato": "01 00915/2020", "Nome": "Barreirinha", "Proc_dnit": "50013.000444/2020-26", "Proc_ipaam": "01.01.030201.021594/2024-25", "Contratos": "DAQ-185/2023", "Lote": "LOTE 1 - OPERA\u00c7\u00c3O, MANUTEN\u00c7\u00c3O E REGULARIZA\u00c7\u00c3O DE IP4s", "Supervisao": "R Peotta Engenharia e Consultoria LTDA.", "Operacao": "Antonelly Constru\u00e7\u00f5es e Servi\u00e7os LTDA"}, "geometry": {"type": "MultiPoint", "coordinates": [[-57.072611110214496, -2.793030559612589]]}}, {"id": "5", "type": "Feature", "properties": {"contrato": "01 00352/2021", "Nome": "Benjamin Constant", "Proc_dnit": "50013.000439/2019-80", "Proc_ipaam": "01.01.030201.019835/2024-76", "Contratos": "SR-352/2021", "Lote": "LOTE 2 - OPERA\u00c7\u00c3O, MANUTEN\u00c7\u00c3O E REGULARIZA\u00c7\u00c3O DE IP4s", "Supervisao": "Laghi Engenharia LTDA", "Operacao": "Antonelly Constru\u00e7\u00f5es e Servi\u00e7os LTDA"}, "geometry": {"type": "MultiPoint", "coordinates": [[-70.0276750004009, -4.372966669875893]]}}, {"id": "6", "type": "Feature", "properties": {"contrato": "01 00916/2020", "Nome": "Beruri", "Proc_dnit": "50013.000855/2019-88", "Proc_ipaam": "01.01.030201.024824/2024-08", "Contratos": "DAQ-186/2023", "Lote": "LOTE 5 - OPERA\u00c7\u00c3O, MANUTEN\u00c7\u00c3O E REGULARIZA\u00c7\u00c3O DE IP4s", "Supervisao": "Laghi Engenharia LTDA", "Operacao": "Antonelly Constru\u00e7\u00f5es e Servi\u00e7os LTDA"}, "geometry": {"type": "MultiPoint", "coordinates": [[-61.37568332962195, -3.8976055597487402]]}}, {"id": "7", "type": "Feature", "properties": {"contrato": "01 00915/2020", "Nome": "Boa Vista do Ramos", "Proc_dnit": "50013.000440/2019-12", "Proc_ipaam": "01.01.030201.018011/2024-89", "Contratos": "DAQ-185/2023", "Lote": "LOTE 1 - OPERA\u00c7\u00c3O, MANUTEN\u00c7\u00c3O E REGULARIZA\u00c7\u00c3O DE IP4s", "Supervisao": "R Peotta Engenharia e Consultoria LTDA.", "Operacao": "Antonelly Constru\u00e7\u00f5es e Servi\u00e7os LTDA"}, "geometry": {"type": "MultiPoint", "coordinates": [[-57.58979931278799, -2.9682352701415766]]}}, {"id": "8", "type": "Feature", "properties": {"contrato": "01 00353/2021", "Nome": "Borba", "Proc_dnit": "50013.000865/2019-13", "Proc_ipaam": "01.01.030201.020292/2024-30", "Contratos": "SR-353/2021", "Lote": "LOTE 3 - OPERA\u00c7\u00c3O, MANUTEN\u00c7\u00c3O E REGULARIZA\u00c7\u00c3O DE IP4s", "Supervisao": "R Peotta Engenharia e Consultoria LTDA", "Operacao": "Antonelly Constru\u00e7\u00f5es e Servi\u00e7os LTDA"}, "geometry": {"type": "MultiPoint", "coordinates": [[-59.59282221976957, -4.384538889657961]]}}, {"id": "9", "type": "Feature", "properties": {"contrato": "01 00916/2020", "Nome": "Canutama", "Proc_dnit": "50013.000062/2020-01", "Proc_ipaam": "01.01.030201.019313/2024-74", "Contratos": "DAQ-186/2023", "Lote": "LOTE 5 - OPERA\u00c7\u00c3O, MANUTEN\u00c7\u00c3O E REGULARIZA\u00c7\u00c3O DE IP4s", "Supervisao": "R Peotta Engenharia e Consultoria LTDA.", "Operacao": "Antonelly Constru\u00e7\u00f5es e Servi\u00e7os LTDA"}, "geometry": {"type": "MultiPoint", "coordinates": [[-64.38707777981563, -6.540080559969795]]}}, {"id": "10", "type": "Feature", "properties": {"contrato": "01 00354/2021", "Nome": "Carauari", "Proc_dnit": "50013.000443/2020-81", "Proc_ipaam": "01.01.030201.024886/2024-10", "Contratos": "SR-354-2021", "Lote": "LOTE 4 - MANUTEN\u00c7\u00c3O E REGULARIZA\u00c7\u00c3O DE IP4s", "Supervisao": "R Peotta Engenharia e Consultoria LTDA.", "Operacao": "Antonelly Constru\u00e7\u00f5es e Servi\u00e7os LTDA"}, "geometry": {"type": "MultiPoint", "coordinates": [[-66.85058333025643, -4.8367499997126515]]}}, {"id": "11", "type": "Feature", "properties": {"contrato": "01 00032/2021", "Nome": "Careiro da V\u00e1rzea", "Proc_dnit": "50601.001931/2021-67", "Proc_ipaam": "01.01.030201.018878/2024-34", "Contratos": "SR-032/2021", "Lote": "LOTE 6 - OPERA\u00c7\u00c3O, MANUTEN\u00c7\u00c3O E REGULARIZA\u00c7\u00c3O DE IP4s", "Supervisao": "R Peotta Engenharia e Consultoria LTDA.", "Operacao": "Antonelly Constru\u00e7\u00f5es e Servi\u00e7os LTDA"}, "geometry": {"type": "MultiPoint", "coordinates": [[-59.86813889029753, -3.188554472910539]]}}, {"id": "12", "type": "Feature", "properties": {"contrato": "01 00352/2021", "Nome": "Coari", "Proc_dnit": "50013.000854/2019-33", "Proc_ipaam": "01.01.030201.023165/2024-92", "Contratos": "SR-352/2021", "Lote": "LOTE 2 - OPERA\u00c7\u00c3O, MANUTEN\u00c7\u00c3O E REGULARIZA\u00c7\u00c3O DE IP4s", "Supervisao": "Laghi Engenharia LTDA", "Operacao": "Antonelly Constru\u00e7\u00f5es e Servi\u00e7os LTDA"}, "geometry": {"type": "MultiPoint", "coordinates": [[-63.142525000228545, -4.0823944397515675]]}}, {"id": "13", "type": "Feature", "properties": {"contrato": "01 00916/2020", "Nome": "Codaj\u00e1s", "Proc_dnit": "50013.000360/2019-59", "Proc_ipaam": "01.01.030201.020350/2024-25", "Contratos": "DAQ-186/2023", "Lote": "LOTE 5 - OPERA\u00c7\u00c3O, MANUTEN\u00c7\u00c3O E REGULARIZA\u00c7\u00c3O DE IP4s", "Supervisao": "Laghi Engenharia LTDA", "Operacao": "Antonelly Constru\u00e7\u00f5es e Servi\u00e7os LTDA"}, "geometry": {"type": "MultiPoint", "coordinates": [[-62.06367778000549, -3.8446638900264816]]}}, {"id": "14", "type": "Feature", "properties": {"contrato": "01 00354/2021", "Nome": "Eirunep\u00e9", "Proc_dnit": "50013.000442/2020-37", "Proc_ipaam": "01.01.030201.019794/2024-18", "Contratos": "SR-354-2021", "Lote": "LOTE 4 - MANUTEN\u00c7\u00c3O E REGULARIZA\u00c7\u00c3O DE IP4s", "Supervisao": "Laghi Engenharia LTDA", "Operacao": "Antonelly Constru\u00e7\u00f5es e Servi\u00e7os LTDA"}, "geometry": {"type": "MultiPoint", "coordinates": [[-69.86691943998011, -6.668211109654919]]}}, {"id": "15", "type": "Feature", "properties": {"contrato": "01 00354/2021", "Nome": "Envira", "Proc_dnit": "50013.000445/2020-71", "Proc_ipaam": "01.01.030201.013145/2023-22", "Contratos": "SR-354-2021", "Lote": "LOTE 4 - MANUTEN\u00c7\u00c3O E REGULARIZA\u00c7\u00c3O DE IP4s", "Supervisao": "Laghi Engenharia LTDA", "Operacao": "Antonelly Constru\u00e7\u00f5es e Servi\u00e7os LTDA"}, "geometry": {"type": "MultiPoint", "coordinates": [[-70.02809749020696, -7.433721555405384]]}}, {"id": "16", "type": "Feature", "properties": {"contrato": "01 00352/2021", "Nome": "Fonte Boa", "Proc_dnit": "50013.000441/2019-59", "Proc_ipaam": "01.01.030201.023504/2024-30", "Contratos": "SR-352/2021", "Lote": "LOTE 2 - OPERA\u00c7\u00c3O, MANUTEN\u00c7\u00c3O E REGULARIZA\u00c7\u00c3O DE IP4s", "Supervisao": "Laghi Engenharia LTDA", "Operacao": "Antonelly Constru\u00e7\u00f5es e Servi\u00e7os LTDA"}, "geometry": {"type": "MultiPoint", "coordinates": [[-66.06869444039609, -2.496472219817065]]}}, {"id": "17", "type": "Feature", "properties": {"contrato": "01 00354/2021", "Nome": "Guajar\u00e1", "Proc_dnit": "50013.000441/2020-92", "Proc_ipaam": "01.01.030201.019745/2024-85", "Contratos": "SR-354-2021", "Lote": "LOTE 4 - MANUTEN\u00c7\u00c3O E REGULARIZA\u00c7\u00c3O DE IP4s", "Supervisao": "Laghi Engenharia LTDA", "Operacao": "Antonelly Constru\u00e7\u00f5es e Servi\u00e7os LTDA"}, "geometry": {"type": "MultiPoint", "coordinates": [[-72.57858333035637, -7.547444439808999]]}}, {"id": "18", "type": "Feature", "properties": {"contrato": "01 00353/2021", "Nome": "Humait\u00e1", "Proc_dnit": "50013.000444/2018-10", "Proc_ipaam": "01.01.030201.018085/2024-15", "Contratos": "SR-353/2021", "Lote": "LOTE 3 - OPERA\u00c7\u00c3O, MANUTEN\u00c7\u00c3O E REGULARIZA\u00c7\u00c3O DE IP4s", "Supervisao": "R Peotta Engenharia e Consultoria LTDA", "Operacao": "Antonelly Constru\u00e7\u00f5es e Servi\u00e7os LTDA"}, "geometry": {"type": "MultiPoint", "coordinates": [[-63.019444439709105, -7.509166670205616]]}}, {"id": "19", "type": "Feature", "properties": {"contrato": "01 00354/2021", "Nome": "Ipixuna", "Proc_dnit": "50013.000440/2020-48", "Proc_ipaam": "01.01.030201.019733/2024-50", "Contratos": "SR-354-2021", "Lote": "LOTE 4 - MANUTEN\u00c7\u00c3O E REGULARIZA\u00c7\u00c3O DE IP4s", "Supervisao": "Laghi Engenharia LTDA", "Operacao": "Antonelly Constru\u00e7\u00f5es e Servi\u00e7os LTDA"}, "geometry": {"type": "MultiPoint", "coordinates": [[-71.68925000028725, -7.056138890297518]]}}, {"id": "20", "type": "Feature", "properties": {"contrato": "01 00916/2020", "Nome": "Iranduba", "Proc_dnit": "50013.000868/2019-57", "Proc_ipaam": "01.01.030201.017213/2023-22", "Contratos": "DAQ-186/2023", "Lote": "LOTE 5 - OPERA\u00c7\u00c3O, MANUTEN\u00c7\u00c3O E REGULARIZA\u00c7\u00c3O DE IP4s", "Supervisao": "Laghi Engenharia LTDA", "Operacao": "Antonelly Constru\u00e7\u00f5es e Servi\u00e7os LTDA"}, "geometry": {"type": "MultiPoint", "coordinates": [[-60.18961111006462, -3.290361109977198]]}}, {"id": "21", "type": "Feature", "properties": {"contrato": "01 00032/2021", "Nome": "Itacoatiara (antigo)", "Proc_dnit": "50013.000868/2019-57", "Proc_ipaam": "01.01.030201.024793/2024-95", "Contratos": "SR-032/2021", "Lote": "LOTE 6 - OPERA\u00c7\u00c3O, MANUTEN\u00c7\u00c3O E REGULARIZA\u00c7\u00c3O DE IP4s", "Supervisao": "R Peotta Engenharia e Consultoria LTDA.", "Operacao": "Antonelly Constru\u00e7\u00f5es e Servi\u00e7os LTDA"}, "geometry": {"type": "MultiPoint", "coordinates": [[-58.448972219692166, -3.1475833300066256]]}}, {"id": "22", "type": "Feature", "properties": {"contrato": "01 00032/2021", "Nome": "Itacoatiara (novo)", "Proc_dnit": "50013.000132/2019-89", "Proc_ipaam": "01.01.030201.024793/2024-95", "Contratos": "SR-032/2021", "Lote": "LOTE 6 - OPERA\u00c7\u00c3O, MANUTEN\u00c7\u00c3O E REGULARIZA\u00c7\u00c3O DE IP4s", "Supervisao": "R Peotta Engenharia e Consultoria LTDA.", "Operacao": "Antonelly Constru\u00e7\u00f5es e Servi\u00e7os LTDA"}, "geometry": {"type": "MultiPoint", "coordinates": [[-58.42938889038493, -3.1544444395591995]]}}, {"id": "23", "type": "Feature", "properties": {"contrato": "01 00354/2021", "Nome": "Itamarati", "Proc_dnit": "50013.000439/2020-13", "Proc_ipaam": "01.01.030201.027970/2024-95", "Contratos": "SR-354-2021", "Lote": "LOTE 4 - MANUTEN\u00c7\u00c3O E REGULARIZA\u00c7\u00c3O DE IP4s", "Supervisao": "Laghi Engenharia LTDA", "Operacao": "Antonelly Constru\u00e7\u00f5es e Servi\u00e7os LTDA"}, "geometry": {"type": "MultiPoint", "coordinates": [[-68.24586110970239, -6.441055560165921]]}}, {"id": "24", "type": "Feature", "properties": {"contrato": "01 00915/2020", "Nome": "Itapiranga", "Proc_dnit": "50013.000013/2020-60", "Proc_ipaam": "01.01.030201.007352/2023-48", "Contratos": "DAQ-185/2023", "Lote": "LOTE 1 - OPERA\u00c7\u00c3O, MANUTEN\u00c7\u00c3O E REGULARIZA\u00c7\u00c3O DE IP4s", "Supervisao": "R Peotta Engenharia e Consultoria LTDA.", "Operacao": "Antonelly Constru\u00e7\u00f5es e Servi\u00e7os LTDA"}, "geometry": {"type": "MultiPoint", "coordinates": [[-58.02263555998309, -2.7506769896513106]]}}, {"id": "25", "type": "Feature", "properties": {"contrato": "01 00352/2021", "Nome": "Japur\u00e1", "Proc_dnit": "50013.000083/2020-18", "Proc_ipaam": "01.01.030201.018855/2024-20", "Contratos": "SR-352/2021", "Lote": "LOTE 2 - OPERA\u00c7\u00c3O, MANUTEN\u00c7\u00c3O E REGULARIZA\u00c7\u00c3O DE IP4s", "Supervisao": "Laghi Engenharia LTDA", "Operacao": "Antonelly Constru\u00e7\u00f5es e Servi\u00e7os LTDA"}, "geometry": {"type": "MultiPoint", "coordinates": [[-66.99727778004547, -1.8773611104268753]]}}, {"id": "26", "type": "Feature", "properties": {"contrato": "01 00352/2021", "Nome": "Juta\u00ed", "Proc_dnit": "50601.001674/2022-44", "Proc_ipaam": "2322/T/05", "Contratos": "SR-352/2021", "Lote": "LOTE 2 - OPERA\u00c7\u00c3O, MANUTEN\u00c7\u00c3O E REGULARIZA\u00c7\u00c3O DE IP4s", "Supervisao": "Laghi Engenharia LTDA", "Operacao": "Antonelly Constru\u00e7\u00f5es e Servi\u00e7os LTDA"}, "geometry": {"type": "MultiPoint", "coordinates": [[-66.77254722007808, -2.743444440308622]]}}, {"id": "27", "type": "Feature", "properties": {"contrato": "01 00916/2020", "Nome": "L\u00e1brea", "Proc_dnit": "50013.000624/2019-74", "Proc_ipaam": "736.2020", "Contratos": "DAQ-186/2023", "Lote": "LOTE 5 - OPERA\u00c7\u00c3O, MANUTEN\u00c7\u00c3O E REGULARIZA\u00c7\u00c3O DE IP4s", "Supervisao": "Laghi Engenharia LTDA", "Operacao": "Antonelly Constru\u00e7\u00f5es e Servi\u00e7os LTDA"}, "geometry": {"type": "MultiPoint", "coordinates": [[-64.79962999992449, -7.25789699974672]]}}, {"id": "28", "type": "Feature", "properties": {"contrato": "01 00916/2020", "Nome": "Manacapuru", "Proc_dnit": "50013.000869/2019-00", "Proc_ipaam": "01.01.030201.009769/2023-45", "Contratos": "DAQ-186/2023", "Lote": "LOTE 5 - OPERA\u00c7\u00c3O, MANUTEN\u00c7\u00c3O E REGULARIZA\u00c7\u00c3O DE IP4s", "Supervisao": "Laghi Engenharia LTDA", "Operacao": "Antonelly Constru\u00e7\u00f5es e Servi\u00e7os LTDA"}, "geometry": {"type": "MultiPoint", "coordinates": [[-60.638222219579745, -3.294750000312206]]}}, {"id": "29", "type": "Feature", "properties": {"contrato": "01 00916/2020", "Nome": "Manaquiri", "Proc_dnit": "50013.000859/2019-66", "Proc_ipaam": "01.01.030201.019423/2024-36", "Contratos": "DAQ-186/2023", "Lote": "LOTE 5 - OPERA\u00c7\u00c3O, MANUTEN\u00c7\u00c3O E REGULARIZA\u00c7\u00c3O DE IP4s", "Supervisao": "Laghi Engenharia LTDA", "Operacao": "Antonelly Constru\u00e7\u00f5es e Servi\u00e7os LTDA"}, "geometry": {"type": "MultiPoint", "coordinates": [[-60.45922499963399, -3.427022220299193]]}}, {"id": "30", "type": "Feature", "properties": {"contrato": "01 00353/2021", "Nome": "Manicor\u00e9", "Proc_dnit": "50013.000676/2019-41", "Proc_ipaam": "01.01.030201.020292/2024-30", "Contratos": "SR-353/2021", "Lote": "LOTE 3 - OPERA\u00c7\u00c3O, MANUTEN\u00c7\u00c3O E REGULARIZA\u00c7\u00c3O DE IP4s", "Supervisao": "R Peotta Engenharia e Consultoria LTDA", "Operacao": "Antonelly Constru\u00e7\u00f5es e Servi\u00e7os LTDA"}, "geometry": {"type": "MultiPoint", "coordinates": [[-61.30166667008069, -5.813333329769307]]}}, {"id": "31", "type": "Feature", "properties": {"contrato": "01 00915/2020", "Nome": "Mau\u00e9s", "Proc_dnit": "50013.000605/2019-48", "Proc_ipaam": "01.01.030201.018091/2024-72", "Contratos": "DAQ-185/2023", "Lote": "LOTE 1 - OPERA\u00c7\u00c3O, MANUTEN\u00c7\u00c3O E REGULARIZA\u00c7\u00c3O DE IP4s", "Supervisao": "R Peotta Engenharia e Consultoria LTDA.", "Operacao": "Antonelly Constru\u00e7\u00f5es e Servi\u00e7os LTDA"}, "geometry": {"type": "MultiPoint", "coordinates": [[-57.72498610962123, -3.382027780357703]]}}, {"id": "32", "type": "Feature", "properties": {"contrato": "01 00915/2020", "Nome": "Nhamund\u00e1", "Proc_dnit": "50013.000024/2020-40", "Proc_ipaam": "01.01.030201.021712/2024-03", "Contratos": "DAQ-185/2023", "Lote": "LOTE 1 - OPERA\u00c7\u00c3O, MANUTEN\u00c7\u00c3O E REGULARIZA\u00c7\u00c3O DE IP4s", "Supervisao": "R Peotta Engenharia e Consultoria LTDA.", "Operacao": "Antonelly Constru\u00e7\u00f5es e Servi\u00e7os LTDA"}, "geometry": {"type": "MultiPoint", "coordinates": [[-56.712222219979424, -2.185722220204241]]}}, {"id": "33", "type": "Feature", "properties": {"contrato": "01 00353/2021", "Nome": "Nova Olinda do Norte", "Proc_dnit": "50013.000180/2019-77", "Proc_ipaam": "01.01.030201.021612/2024-79", "Contratos": "SR-353/2021", "Lote": "LOTE 3 - OPERA\u00c7\u00c3O, MANUTEN\u00c7\u00c3O E REGULARIZA\u00c7\u00c3O DE IP4s", "Supervisao": "R Peotta Engenharia e Consultoria LTDA", "Operacao": "Antonelly Constru\u00e7\u00f5es e Servi\u00e7os LTDA"}, "geometry": {"type": "MultiPoint", "coordinates": [[-59.09136111022701, -3.886327779803139]]}}, {"id": "34", "type": "Feature", "properties": {"contrato": "01 00032/2021", "Nome": "Novo Air\u00e3o", "Proc_dnit": "50013.000232/2018-24", "Proc_ipaam": "01.01.030201.023006/2024-98", "Contratos": "SR-032/2021", "Lote": "LOTE 6 - OPERA\u00c7\u00c3O, MANUTEN\u00c7\u00c3O E REGULARIZA\u00c7\u00c3O DE IP4s", "Supervisao": "R Peotta Engenharia e Consultoria LTDA.", "Operacao": "Antonelly Constru\u00e7\u00f5es e Servi\u00e7os LTDA"}, "geometry": {"type": "MultiPoint", "coordinates": [[-60.94588888996026, -2.6207777801703855]]}}, {"id": "35", "type": "Feature", "properties": {"contrato": "15 00549/2021", "Nome": "Novo Aripuan\u00e3", "Proc_dnit": "50013.000870/2019-26", "Proc_ipaam": "01.01.030201.024945/2024-50", "Contratos": "SR-353/2021", "Lote": "LOTE 3 - OPERA\u00c7\u00c3O, MANUTEN\u00c7\u00c3O E REGULARIZA\u00c7\u00c3O DE IP4s", "Supervisao": "R Peotta Engenharia e Consultoria LTDA", "Operacao": "Antonelly Constru\u00e7\u00f5es e Servi\u00e7os LTDA"}, "geometry": {"type": "MultiPoint", "coordinates": [[-60.37438610993098, -5.115727779713211]]}}, {"id": "36", "type": "Feature", "properties": {"contrato": "01 00915/2020", "Nome": "Parintins", "Proc_dnit": "50013.000438/2020-79", "Proc_ipaam": "01.01.030201.019246/2024-98", "Contratos": "DAQ-185/2023", "Lote": "LOTE 1 - OPERA\u00c7\u00c3O, MANUTEN\u00c7\u00c3O E REGULARIZA\u00c7\u00c3O DE IP4s", "Supervisao": "R Peotta Engenharia e Consultoria LTDA.", "Operacao": "Antonelly Constru\u00e7\u00f5es e Servi\u00e7os LTDA"}, "geometry": {"type": "MultiPoint", "coordinates": [[-56.733777779620766, -2.6235000001248636]]}}, {"id": "37", "type": "Feature", "properties": {"contrato": "01 00915/2020", "Nome": "Parintins (Vila Amaz\u00f4nia)", "Proc_dnit": "50013.000267/2018-63", "Proc_ipaam": "01.01.030201.017968/2024-08", "Contratos": "DAQ-185/2023", "Lote": "LOTE 1 - OPERA\u00c7\u00c3O, MANUTEN\u00c7\u00c3O E REGULARIZA\u00c7\u00c3O DE IP4s", "Supervisao": "R Peotta Engenharia e Consultoria LTDA.", "Operacao": "Antonelly Constru\u00e7\u00f5es e Servi\u00e7os LTDA"}, "geometry": {"type": "MultiPoint", "coordinates": [[-56.668463890096405, -2.6116833302214673]]}}, {"id": "38", "type": "Feature", "properties": {"contrato": "01 00032/2021", "Nome": "Santa Isabel do Rio Negro", "Proc_dnit": "50013.000427/2018-74", "Proc_ipaam": "01.01.030201.020275/2024-00", "Contratos": "SR-032/2021", "Lote": "LOTE 6 - OPERA\u00c7\u00c3O, MANUTEN\u00c7\u00c3O E REGULARIZA\u00c7\u00c3O DE IP4s", "Supervisao": "R Peotta Engenharia e Consultoria LTDA.", "Operacao": "Antonelly Constru\u00e7\u00f5es e Servi\u00e7os LTDA"}, "geometry": {"type": "MultiPoint", "coordinates": [[-65.02077777957084, -0.4169166703679821]]}}, {"id": "39", "type": "Feature", "properties": {"contrato": "01 00352/2021", "Nome": "Santo Ant\u00f4nio do I\u00e7\u00e1", "Proc_dnit": "50600.001435/2025-47", "Proc_ipaam": "01.01.030201.021333/2024-05", "Contratos": "SR-352/2021", "Lote": "LOTE 2 - OPERA\u00c7\u00c3O, MANUTEN\u00c7\u00c3O E REGULARIZA\u00c7\u00c3O DE IP4s", "Supervisao": "Laghi Engenharia LTDA", "Operacao": "Antonelly Constru\u00e7\u00f5es e Servi\u00e7os LTDA"}, "geometry": {"type": "MultiPoint", "coordinates": [[-67.9458944400763, -3.10853332964939]]}}, {"id": "40", "type": "Feature", "properties": {"contrato": "01 00352/2021", "Nome": "S\u00e3o Paulo de Oliven\u00e7a", "Proc_dnit": "50601.000824/2021-11", "Proc_ipaam": "1996.2020", "Contratos": "SR-352/2021", "Lote": "LOTE 2 - OPERA\u00c7\u00c3O, MANUTEN\u00c7\u00c3O E REGULARIZA\u00c7\u00c3O DE IP4s", "Supervisao": "Laghi Engenharia LTDA", "Operacao": "Antonelly Constru\u00e7\u00f5es e Servi\u00e7os LTDA"}, "geometry": {"type": "MultiPoint", "coordinates": [[-68.95760100038581, -3.4623050001755473]]}}, {"id": "41", "type": "Feature", "properties": {"contrato": "01 00032/2021", "Nome": "Manaus (S\u00e3o Raimundo)", "Proc_dnit": "50601.002034/2020-90", "Proc_ipaam": "01.01.030201.000598/2024-70", "Contratos": "SR-032/2021", "Lote": "LOTE 6 - OPERA\u00c7\u00c3O, MANUTEN\u00c7\u00c3O E REGULARIZA\u00c7\u00c3O DE IP4s", "Supervisao": "R Peotta Engenharia e Consultoria LTDA.", "Operacao": "Antonelly Constru\u00e7\u00f5es e Servi\u00e7os LTDA"}, "geometry": {"type": "MultiPoint", "coordinates": [[-60.04264167007699, -3.1251194398102484]]}}, {"id": "42", "type": "Feature", "properties": {"contrato": "01 00915/2020", "Nome": "S\u00e3o Sebasti\u00e3o do Uatum\u00e3", "Proc_dnit": "50601.001638/2021-08", "Proc_ipaam": null, "Contratos": "DAQ-185/2023", "Lote": "LOTE 1 - OPERA\u00c7\u00c3O, MANUTEN\u00c7\u00c3O E REGULARIZA\u00c7\u00c3O DE IP4s", "Supervisao": "R Peotta Engenharia e Consultoria LTDA.", "Operacao": "Antonelly Constru\u00e7\u00f5es e Servi\u00e7os LTDA"}, "geometry": {"type": "MultiPoint", "coordinates": [[-57.870516670308064, -2.5727499998125722]]}}, {"id": "43", "type": "Feature", "properties": {"contrato": "01 00915/2020", "Nome": "Silves", "Proc_dnit": "50601.001632/2020-41", "Proc_ipaam": "01.01.030201.021579/2024-87", "Contratos": "DAQ-185/2023", "Lote": "LOTE 1 - OPERA\u00c7\u00c3O, MANUTEN\u00c7\u00c3O E REGULARIZA\u00c7\u00c3O DE IP4s", "Supervisao": "R Peotta Engenharia e Consultoria LTDA.", "Operacao": "Antonelly Constru\u00e7\u00f5es e Servi\u00e7os LTDA"}, "geometry": {"type": "MultiPoint", "coordinates": [[-58.22456389041116, -2.8250638901863567]]}}, {"id": "44", "type": "Feature", "properties": {"contrato": "01 00352/2021", "Nome": "Tabatinga", "Proc_dnit": "50013.000173/2018-94", "Proc_ipaam": "01.01.030201.019801/2024-81", "Contratos": "SR-352/2021", "Lote": "LOTE 2 - OPERA\u00c7\u00c3O, MANUTEN\u00c7\u00c3O E REGULARIZA\u00c7\u00c3O DE IP4s", "Supervisao": "R Peotta Engenharia e Consultoria LTDA.", "Operacao": "Antonelly Constru\u00e7\u00f5es e Servi\u00e7os LTDA"}, "geometry": {"type": "MultiPoint", "coordinates": [[-69.94344167009695, -4.235108329885463]]}}, {"id": "45", "type": "Feature", "properties": {"contrato": "01 00916/2020", "Nome": "Tapau\u00e1", "Proc_dnit": "50013.000058/2020-34", "Proc_ipaam": "01.01.030201.023625/2024-82", "Contratos": "DAQ-186/2023", "Lote": "LOTE 5 - OPERA\u00c7\u00c3O, MANUTEN\u00c7\u00c3O E REGULARIZA\u00c7\u00c3O DE IP4s", "Supervisao": "Laghi Engenharia LTDA", "Operacao": "Antonelly Constru\u00e7\u00f5es e Servi\u00e7os LTDA"}, "geometry": {"type": "MultiPoint", "coordinates": [[-63.18747222036666, -5.61747221976708]]}}, {"id": "46", "type": "Feature", "properties": {"contrato": "01 00354/2021", "Nome": "Tef\u00e9", "Proc_dnit": "50601.000029/2019-17", "Proc_ipaam": "01.01.030201.021692/2024-62", "Contratos": "SR-354-2021", "Lote": "LOTE 4 - MANUTEN\u00c7\u00c3O E REGULARIZA\u00c7\u00c3O DE IP4s", "Supervisao": "Laghi Engenharia LTDA", "Operacao": "Antonelly Constru\u00e7\u00f5es e Servi\u00e7os LTDA"}, "geometry": {"type": "MultiPoint", "coordinates": [[-64.70736799993318, -3.344420000282753]]}}, {"id": "47", "type": "Feature", "properties": {"contrato": "01 00352/2021", "Nome": "Tonantins", "Proc_dnit": "50013.000074/2020-27", "Proc_ipaam": "01.01.030201.020208/2024-88", "Contratos": "SR-352/2021", "Lote": "LOTE 2 - OPERA\u00c7\u00c3O, MANUTEN\u00c7\u00c3O E REGULARIZA\u00c7\u00c3O DE IP4s", "Supervisao": "R Peotta Engenharia e Consultoria LTDA.", "Operacao": "Antonelly Constru\u00e7\u00f5es e Servi\u00e7os LTDA"}, "geometry": {"type": "MultiPoint", "coordinates": [[-67.77108333043134, -2.8622777797956473]]}}, {"id": "48", "type": "Feature", "properties": {"contrato": "01 00915/2020", "Nome": "Urucar\u00e1", "Proc_dnit": "50013.000072/2020-38", "Proc_ipaam": "01.01.030201.001341/2025-16", "Contratos": "DAQ-185/2023", "Lote": "LOTE 1 - OPERA\u00c7\u00c3O, MANUTEN\u00c7\u00c3O E REGULARIZA\u00c7\u00c3O DE IP4s", "Supervisao": "R Peotta Engenharia e Consultoria LTDA.", "Operacao": "Antonelly Constru\u00e7\u00f5es e Servi\u00e7os LTDA"}, "geometry": {"type": "MultiPoint", "coordinates": [[-57.750861110351934, -2.5400611102319886]]}}, {"id": "49", "type": "Feature", "properties": {"contrato": "01 00353/2021", "Nome": "Urucurituba", "Proc_dnit": "50013.000542/2018-49", "Proc_ipaam": "01.01.030201.020342/2024-89", "Contratos": "SR-353/2021", "Lote": "LOTE 3 - OPERA\u00c7\u00c3O, MANUTEN\u00c7\u00c3O E REGULARIZA\u00c7\u00c3O DE IP4s", "Supervisao": "R Peotta Engenharia e Consultoria LTDA.", "Operacao": "Antonelly Constru\u00e7\u00f5es e Servi\u00e7os LTDA"}, "geometry": {"type": "MultiPoint", "coordinates": [[-58.158696999666745, -3.123090000003458]]}}, {"id": "50", "type": "Feature", "properties": {"contrato": "01 00353/2021", "Nome": "Apu\u00ed", "Proc_dnit": "50601.001673/2022-08", "Proc_ipaam": "3714/T/07", "Contratos": "SR-353/2021", "Lote": "LOTE 3 - OPERA\u00c7\u00c3O, MANUTEN\u00c7\u00c3O E REGULARIZA\u00c7\u00c3O DE IP4s", "Supervisao": "R Peotta Engenharia e Consultoria LTDA.", "Operacao": "Antonelly Constru\u00e7\u00f5es e Servi\u00e7os LTDA"}, "geometry": {"type": "MultiPoint", "coordinates": [[-60.65005555571929, -7.229388889285758]]}}]}