{"type": "FeatureCollection", "features": [{"id": "0", "type": "Feature", "properties": {"id": "ID_00000", "Name": "01", "descriptio": "<html xmlns:fo=\"http://www.w3.org/1999/XSL/Format\" xmlns:msxsl=\"urn:schemas-microsoft-com:xslt\">\n\n<head>\n\n<META http-equiv=\"Content-Type\" content=\"text/html\">\n\n<meta http-equiv=\"content-type\" content=\"text/html; charset=UTF-8\">\n\n</head>\n\n<body style=\"mar", "timestamp": null, "begin": null, "end": null, "altitudeMo": null, "tessellate": -1, "extrude": 0, "visibility": -1, "drawOrder": null, "icon": null, "snippet": null}, "geometry": {"type": "Polygon", "coordinates": [[[-59.87742517579647, -3.364684688552899, 0.0], [-59.8774429328413, -3.364709842131799, 0.0], [-59.87748918340175, -3.36474942822151, 0.0], [-59.87752839054239, -3.364760309999552, 0.0], [-59.87755694117089, -3.364756816662144, 0.0], [-59.8775962511121, -3.364735431912341, 0.0], [-59.87762668399841, -3.364708473477235, 0.0], [-59.87764202064701, -3.364672192732222, 0.0], [-59.87766695564044, -3.364609173326422, 0.0], [-59.87771079494161, -3.364584456944163, 0.0], [-59.87775661603836, -3.364534889499823, 0.0], [-59.87780994404147, -3.3645178520775, 0.0], [-59.87787091295377, -3.364491278679867, 0.0], [-59.87788620086145, -3.364470294647125, 0.0], [-59.87793600379449, -3.364365288781447, 0.0], [-59.87799896666291, -3.364310040116413, 0.0], [-59.87805067826861, -3.364203128254668, 0.0], [-59.87807171663341, -3.364168777931993, 0.0], [-59.8780679966618, -3.364141996413401, 0.0], [-59.87804913494706, -3.364090308748676, 0.0], [-59.87802837670836, -3.364036702874182, 0.0], [-59.87801522283258, -3.363985033571832, 0.0], [-59.87802104637101, -3.363948722197672, 0.0], [-59.87803640732996, -3.363904793055987, 0.0], [-59.87803268126448, -3.363879923630388, 0.0], [-59.87804043176755, -3.363835970009162, 0.0], [-59.87804240744991, -3.363813031033247, 0.0], [-59.87801154219643, -3.36374350614994, 0.0], [-59.87794373951273, -3.363728580808743, 0.0], [-59.87794540464625, -3.363803158481566, 0.0], [-59.87792247586532, -3.36383367850299, 0.0], [-59.87785389655848, -3.363860227464249, 0.0], [-59.87781210606823, -3.3638390598262, 0.0], [-59.87774950254879, -3.363781495143867, 0.0], [-59.87771898767699, -3.36380434231243, 0.0], [-59.87770540752938, -3.363886519370662, 0.0], [-59.87767659429305, -3.363972471644304, 0.0], [-59.87764575053546, -3.364098571693246, 0.0], [-59.87762241366545, -3.364257201755979, 0.0], [-59.87762029787478, -3.364324118802217, 0.0], [-59.87762385946438, -3.364400614664553, 0.0], [-59.87762368282438, -3.364456065288916, 0.0], [-59.87759119220987, -3.364501851394572, 0.0], [-59.87758907030978, -3.364570680528432, 0.0], [-59.8775699710781, -3.364593564395824, 0.0], [-59.87756983706566, -3.364635630384409, 0.0], [-59.87755637866434, -3.364679565609744, 0.0], [-59.87754489597431, -3.364700561871608, 0.0], [-59.87751430369342, -3.364702901374697, 0.0], [-59.87749302493303, -3.364663395639644, 0.0], [-59.87748811606013, -3.364606685787531, 0.0], [-59.87753064969461, -3.364394578444212, 0.0], [-59.87754429081086, -3.364293280505843, 0.0], [-59.87754074749285, -3.364211048378206, 0.0], [-59.87756592607392, -3.364071545353553, 0.0], [-59.87760638033949, -3.36391488247099, 0.0], [-59.87763138834936, -3.363828917962929, 0.0], [-59.87762399104685, -3.363761970313593, 0.0], [-59.87761281284529, -3.363729540961228, 0.0], [-59.87760129367977, -3.363719830880827, 0.0], [-59.87756518059427, -3.363708242055103, 0.0], [-59.87751382834784, -3.363702340537874, 0.0], [-59.87749677183239, -3.363681252462061, 0.0], [-59.8774510726152, -3.363692578115868, 0.0], [-59.87740344642679, -3.363711546006517, 0.0], [-59.87736136972414, -3.363780246596074, 0.0], [-59.87732102508699, -3.363902491817933, 0.0], [-59.87727637573148, -3.364181516155461, 0.0], [-59.87724524559577, -3.364397484357605, 0.0], [-59.87724096520577, -3.364546615117322, 0.0], [-59.87724267896516, -3.364605896023213, 0.0], [-59.87728631722206, -3.364644278635767, 0.0], [-59.87734142599061, -3.364665489174357, 0.0], [-59.87739657131556, -3.36467522717144, 0.0], [-59.87742517579647, -3.364684688552899, 0.0]]]}}, {"id": "1", "type": "Feature", "properties": {"id": "ID_00001", "Name": "02", "descriptio": "<html xmlns:fo=\"http://www.w3.org/1999/XSL/Format\" xmlns:msxsl=\"urn:schemas-microsoft-com:xslt\">\n\n<head>\n\n<META http-equiv=\"Content-Type\" content=\"text/html\">\n\n<meta http-equiv=\"content-type\" content=\"text/html; charset=UTF-8\">\n\n</head>\n\n<body style=\"mar", "timestamp": null, "begin": null, "end": null, "altitudeMo": null, "tessellate": -1, "extrude": 0, "visibility": -1, "drawOrder": null, "icon": null, "snippet": null}, "geometry": {"type": "Polygon", "coordinates": [[[-60.26238705863273, -3.657210231670942, 0.0], [-60.26233221112915, -3.657217574615793, 0.0], [-60.26227581643388, -3.657182712722594, 0.0], [-60.26225670543563, -3.657274107170045, 0.0], [-60.2622846394783, -3.657378259998372, 0.0], [-60.2622749068326, -3.657482297393853, 0.0], [-60.26223056019666, -3.6576146106701, 0.0], [-60.2622365028264, -3.657725003206203, 0.0], [-60.26213259382189, -3.657831905485098, 0.0], [-60.26210417141908, -3.657888582296467, 0.0], [-60.26213201921338, -3.658021116831176, 0.0], [-60.26217527414332, -3.658248305156369, 0.0], [-60.2621841736265, -3.658418624240095, 0.0], [-60.26212095515475, -3.658563493815569, 0.0], [-60.26214589389264, -3.658620334204106, 0.0], [-60.26207338322421, -3.658724179100545, 0.0], [-60.2620889435882, -3.658768376530759, 0.0], [-60.26202558134207, -3.658960548899638, 0.0], [-60.26209436879997, -3.659049059260087, 0.0], [-60.26212891581013, -3.659042858084538, 0.0], [-60.26214508926233, -3.658885230086579, 0.0], [-60.26219880489992, -3.658768713357458, 0.0], [-60.26223348600053, -3.658718362852144, 0.0], [-60.26225245346654, -3.658674271273247, 0.0], [-60.26224006071975, -3.658620622895743, 0.0], [-60.26228110579741, -3.658541909922925, 0.0], [-60.26225619578008, -3.658475608965041, 0.0], [-60.26229722168587, -3.658403203030918, 0.0], [-60.26231583476572, -3.658475791789732, 0.0], [-60.26236898526054, -3.658545332872743, 0.0], [-60.26232173902162, -3.658598798427026, 0.0], [-60.26231842772313, -3.658655552216375, 0.0], [-60.26226485579093, -3.658724766128839, 0.0], [-60.26228029164547, -3.658809959358792, 0.0], [-60.26226113259504, -3.658917121391193, 0.0], [-60.26220743609844, -3.659027331078152, 0.0], [-60.26229502822412, -3.659125359754273, 0.0], [-60.26233893445555, -3.65913810858108, 0.0], [-60.26236386362132, -3.659198102508227, 0.0], [-60.26239531964308, -3.659176124086102, 0.0], [-60.26236455331201, -3.658971048854592, 0.0], [-60.26261666106428, -3.658643852229321, 0.0], [-60.26275181552819, -3.658584348992751, 0.0], [-60.26278365455948, -3.658436229568748, 0.0], [-60.2627905164611, -3.658243883836654, 0.0], [-60.26259336939745, -3.658044605767397, 0.0], [-60.26252791226602, -3.657893034615054, 0.0], [-60.26248760457685, -3.657728926338597, 0.0], [-60.26247238886219, -3.657571202072387, 0.0], [-60.26243840680866, -3.657391345432402, 0.0], [-60.26238705863273, -3.657210231670942, 0.0]]]}}, {"id": "2", "type": "Feature", "properties": {"id": "ID_00002", "Name": "03", "descriptio": "<html xmlns:fo=\"http://www.w3.org/1999/XSL/Format\" xmlns:msxsl=\"urn:schemas-microsoft-com:xslt\">\n\n<head>\n\n<META http-equiv=\"Content-Type\" content=\"text/html\">\n\n<meta http-equiv=\"content-type\" content=\"text/html; charset=UTF-8\">\n\n</head>\n\n<body style=\"mar", "timestamp": null, "begin": null, "end": null, "altitudeMo": null, "tessellate": -1, "extrude": 0, "visibility": -1, "drawOrder": null, "icon": null, "snippet": null}, "geometry": {"type": "MultiPolygon", "coordinates": [[[[-60.27333072444484, -3.688333990858487, 0.0], [-60.27339769861816, -3.6883801035855, 0.0], [-60.27345056380425, -3.688370224229892, 0.0], [-60.27342785204342, -3.688325682318101, 0.0], [-60.27341231071146, -3.688271120410099, 0.0], [-60.27343113230661, -3.688186538063015, 0.0], [-60.2734669581886, -3.68814504547436, 0.0], [-60.2734871027444, -3.688094897135772, 0.0], [-60.27345873162737, -3.688033122840059, 0.0], [-60.27339464400203, -3.687976976951511, 0.0], [-60.27338621184441, -3.687932478993396, 0.0], [-60.27342251340707, -3.687822785495391, 0.0], [-60.27350279410966, -3.687719742711921, 0.0], [-60.27352777869005, -3.687643308604167, 0.0], [-60.27351280953997, -3.687557187678943, 0.0], [-60.27317790463925, -3.686869471147074, 0.0], [-60.27283120014781, -3.686929613071278, 0.0], [-60.27317001874059, -3.687922996462492, 0.0], [-60.27333072444484, -3.688333990858487, 0.0]]], [[[-60.27401791758263, -3.68674963772611, 0.0], [-60.27334835828393, -3.68686149813502, 0.0], [-60.27344194073434, -3.6870711248511, 0.0], [-60.27364086378849, -3.687396908605559, 0.0], [-60.27372271016571, -3.687404811526032, 0.0], [-60.27381418706669, -3.68737640134006, 0.0], [-60.27386554698411, -3.687391861553615, 0.0], [-60.27392062151126, -3.687437937599686, 0.0], [-60.27397011247342, -3.687441915408448, 0.0], [-60.27402739996471, -3.687386621157633, 0.0], [-60.27405239031077, -3.687308274236452, 0.0], [-60.27403172090504, -3.687218310200048, 0.0], [-60.27411761420881, -3.687147801719372, 0.0], [-60.27415402237663, -3.687071402680793, 0.0], [-60.27422071880198, -3.687052480073548, 0.0], [-60.27430648966958, -3.687022139471161, 0.0], [-60.27432974505235, -3.686888316674066, 0.0], [-60.27431649903001, -3.686861497070142, 0.0], [-60.27427258585691, -3.686901530305981, 0.0], [-60.27421744718941, -3.686876494629896, 0.0], [-60.27412982485959, -3.686889614555332, 0.0], [-60.2741299647596, -3.686843708367856, 0.0], [-60.27407282306199, -3.686851183713633, 0.0], [-60.27409962403544, -3.68680344675659, 0.0], [-60.27413200860388, -3.686797808036411, 0.0], [-60.27422554676946, -3.686717759142412, 0.0], [-60.27406938823731, -3.686728755507144, 0.0], [-60.27401791758263, -3.68674963772611, 0.0]]]]}}, {"id": "3", "type": "Feature", "properties": {"id": "ID_00003", "Name": "04", "descriptio": "<html xmlns:fo=\"http://www.w3.org/1999/XSL/Format\" xmlns:msxsl=\"urn:schemas-microsoft-com:xslt\">\n\n<head>\n\n<META http-equiv=\"Content-Type\" content=\"text/html\">\n\n<meta http-equiv=\"content-type\" content=\"text/html; charset=UTF-8\">\n\n</head>\n\n<body style=\"mar", "timestamp": null, "begin": null, "end": null, "altitudeMo": null, "tessellate": -1, "extrude": 0, "visibility": -1, "drawOrder": null, "icon": null, "snippet": null}, "geometry": {"type": "Polygon", "coordinates": [[[-60.27716429030357, -3.717027692301683, 0.0], [-60.2772849996431, -3.716963669137135, 0.0], [-60.27765897207177, -3.716956022622839, 0.0], [-60.27773451549421, -3.717091261810339, 0.0], [-60.27803325075331, -3.716848590376204, 0.0], [-60.27806293344656, -3.716696067604095, 0.0], [-60.27798435144791, -3.716598972691013, 0.0], [-60.27797895872481, -3.716452211123785, 0.0], [-60.27805222900633, -3.716376130624265, 0.0], [-60.27806761046322, -3.71612377704429, 0.0], [-60.27835465940552, -3.715881069016473, 0.0], [-60.27835198097426, -3.71580181847089, 0.0], [-60.27828209126761, -3.715728229705356, 0.0], [-60.27827647338654, -3.715654839863208, 0.0], [-60.27830306340837, -3.715558070515292, 0.0], [-60.27824777194069, -3.715487461840232, 0.0], [-60.2782006957994, -3.715595907371791, 0.0], [-60.27819173344881, -3.71566044738894, 0.0], [-60.27815056317809, -3.7157483669002, 0.0], [-60.278170770273, -3.715827671688327, 0.0], [-60.27807412850193, -3.715903679895642, 0.0], [-60.27795472728086, -3.715780044603561, 0.0], [-60.27786700289107, -3.715806187129666, 0.0], [-60.27772932584093, -3.715926091704099, 0.0], [-60.277521597087, -3.716025235068119, 0.0], [-60.27738652625732, -3.716247868958185, 0.0], [-60.27735391308399, -3.71640331745555, 0.0], [-60.27726536910564, -3.716696532831957, 0.0], [-60.27713354371814, -3.716813520377206, 0.0], [-60.27716429030357, -3.717027692301683, 0.0]]]}}, {"id": "4", "type": "Feature", "properties": {"id": "ID_00004", "Name": "05", "descriptio": "<html xmlns:fo=\"http://www.w3.org/1999/XSL/Format\" xmlns:msxsl=\"urn:schemas-microsoft-com:xslt\">\n\n<head>\n\n<META http-equiv=\"Content-Type\" content=\"text/html\">\n\n<meta http-equiv=\"content-type\" content=\"text/html; charset=UTF-8\">\n\n</head>\n\n<body style=\"mar", "timestamp": null, "begin": null, "end": null, "altitudeMo": null, "tessellate": -1, "extrude": 0, "visibility": -1, "drawOrder": null, "icon": null, "snippet": null}, "geometry": {"type": "Polygon", "coordinates": [[[-60.27658272199833, -3.716299587484017, 0.0], [-60.27626632710907, -3.71640572299647, 0.0], [-60.27593832610221, -3.716571118485527, 0.0], [-60.27580630324152, -3.716781114933757, 0.0], [-60.27581351405011, -3.716913118919207, 0.0], [-60.27585336324118, -3.716957236284872, 0.0], [-60.2759066756099, -3.716957401487233, 0.0], [-60.27597717108389, -3.716942317709681, 0.0], [-60.2761085891163, -3.716929335471789, 0.0], [-60.2762816840599, -3.71698534235209, 0.0], [-60.27666854534836, -3.716873686943124, 0.0], [-60.27658272199833, -3.716299587484017, 0.0]]]}}, {"id": "5", "type": "Feature", "properties": {"id": "ID_00005", "Name": "06", "descriptio": "<html xmlns:fo=\"http://www.w3.org/1999/XSL/Format\" xmlns:msxsl=\"urn:schemas-microsoft-com:xslt\">\n\n<head>\n\n<META http-equiv=\"Content-Type\" content=\"text/html\">\n\n<meta http-equiv=\"content-type\" content=\"text/html; charset=UTF-8\">\n\n</head>\n\n<body style=\"mar", "timestamp": null, "begin": null, "end": null, "altitudeMo": null, "tessellate": -1, "extrude": 0, "visibility": -1, "drawOrder": null, "icon": null, "snippet": null}, "geometry": {"type": "Polygon", "coordinates": [[[-60.27736627183593, -3.719223324874077, 0.0], [-60.2773546445012, -3.719299590980895, 0.0], [-60.27737749717368, -3.719543890016045, 0.0], [-60.27746820909056, -3.719980462305998, 0.0], [-60.27751179473353, -3.72039080496919, 0.0], [-60.27759429494074, -3.720426628563553, 0.0], [-60.27762748532012, -3.720379308036144, 0.0], [-60.27764866975026, -3.720398343086545, 0.0], [-60.27768384763141, -3.720471957092651, 0.0], [-60.27779720717535, -3.720450968714741, 0.0], [-60.27784699903975, -3.720377617310676, 0.0], [-60.27791321162539, -3.720337512943359, 0.0], [-60.27795322695983, -3.720373204337392, 0.0], [-60.27795040848451, -3.720522578132007, 0.0], [-60.2782784308049, -3.720542563765799, 0.0], [-60.27840632339309, -3.720400691216439, 0.0], [-60.27842088521567, -3.720270322794685, 0.0], [-60.27830603189784, -3.720009140786757, 0.0], [-60.27826587806775, -3.720018500930605, 0.0], [-60.2777687445319, -3.719727680865328, 0.0], [-60.27765867021139, -3.719447544745951, 0.0], [-60.2776238115896, -3.71926960038929, 0.0], [-60.27752017011972, -3.719200516268371, 0.0], [-60.27736627183593, -3.719223324874077, 0.0]]]}}, {"id": "6", "type": "Feature", "properties": {"id": "ID_00006", "Name": "07", "descriptio": "<html xmlns:fo=\"http://www.w3.org/1999/XSL/Format\" xmlns:msxsl=\"urn:schemas-microsoft-com:xslt\">\n\n<head>\n\n<META http-equiv=\"Content-Type\" content=\"text/html\">\n\n<meta http-equiv=\"content-type\" content=\"text/html; charset=UTF-8\">\n\n</head>\n\n<body style=\"mar", "timestamp": null, "begin": null, "end": null, "altitudeMo": null, "tessellate": -1, "extrude": 0, "visibility": -1, "drawOrder": null, "icon": null, "snippet": null}, "geometry": {"type": "Polygon", "coordinates": [[[-60.27763969811355, -3.721490245056254, 0.0], [-60.27768677312605, -3.721485019095834, 0.0], [-60.27769542910073, -3.721456354104924, 0.0], [-60.27770832537886, -3.721442047689829, 0.0], [-60.27772271633022, -3.721406227692736, 0.0], [-60.27774705828005, -3.721384784257844, 0.0], [-60.27775573224118, -3.721350381592288, 0.0], [-60.27777988983001, -3.721389190036575, 0.0], [-60.27780986962972, -3.721392152403379, 0.0], [-60.27782567431535, -3.721360640158879, 0.0], [-60.27785278527779, -3.721367897687793, 0.0], [-60.27790406102355, -3.721411093924299, 0.0], [-60.277952574052, -3.721424155677706, 0.0], [-60.27797670106383, -3.72147300595196, 0.0], [-60.27794099618001, -3.721474329754017, 0.0], [-60.27792672933504, -3.721469982431238, 0.0], [-60.27788951628809, -3.721497123970542, 0.0], [-60.27783669730571, -3.721491221719982, 0.0], [-60.27779519269392, -3.721521219506137, 0.0], [-60.27780655023207, -3.721542773557637, 0.0], [-60.27787085985227, -3.721527192803186, 0.0], [-60.27795363615133, -3.72154322951388, 0.0], [-60.27797082579292, -3.721526067751305, 0.0], [-60.27802221215534, -3.721533399923932, 0.0], [-60.27804215642033, -3.721549242381105, 0.0], [-60.27806648128303, -3.721533537520192, 0.0], [-60.27805085646179, -3.72150623140492, 0.0], [-60.27807667060182, -3.721470447380731, 0.0], [-60.2781807185653, -3.721535326271742, 0.0], [-60.27820794733885, -3.721503849100821, 0.0], [-60.27819382618407, -3.721452160566228, 0.0], [-60.27824682143364, -3.721400679775002, 0.0], [-60.27827381728279, -3.721445235786456, 0.0], [-60.27829839305633, -3.72134776006857, 0.0], [-60.27830282221742, -3.721300432346538, 0.0], [-60.27770112360793, -3.720997304159722, 0.0], [-60.27764528560141, -3.721044472701759, 0.0], [-60.27758390687179, -3.72103567463416, 0.0], [-60.27758230338053, -3.721093053179357, 0.0], [-60.2776566656226, -3.721058853760556, 0.0], [-60.27767805060154, -3.721070396559025, 0.0], [-60.27766504460607, -3.72112056703805, 0.0], [-60.27767893193715, -3.721248287855701, 0.0], [-60.27764864906583, -3.721344311168481, 0.0], [-60.27764255346102, -3.72146910109563, 0.0], [-60.27763969811355, -3.721490245056254, 0.0]]]}}, {"id": "7", "type": "Feature", "properties": {"id": "ID_00007", "Name": "08", "descriptio": "<html xmlns:fo=\"http://www.w3.org/1999/XSL/Format\" xmlns:msxsl=\"urn:schemas-microsoft-com:xslt\">\n\n<head>\n\n<META http-equiv=\"Content-Type\" content=\"text/html\">\n\n<meta http-equiv=\"content-type\" content=\"text/html; charset=UTF-8\">\n\n</head>\n\n<body style=\"mar", "timestamp": null, "begin": null, "end": null, "altitudeMo": null, "tessellate": -1, "extrude": 0, "visibility": -1, "drawOrder": null, "icon": null, "snippet": null}, "geometry": {"type": "Polygon", "coordinates": [[[-60.27729630458079, -3.723246943868782, 0.0], [-60.27722928620257, -3.723248378287447, 0.0], [-60.27716628239796, -3.723303653318334, 0.0], [-60.27708628410469, -3.723312969395463, 0.0], [-60.27700587392189, -3.723456178337345, 0.0], [-60.27703408745316, -3.723569119696533, 0.0], [-60.27695398303985, -3.723612864519494, 0.0], [-60.27694021351999, -3.723756280305488, 0.0], [-60.27696220284332, -3.724035614229616, 0.0], [-60.27697353879773, -3.724064341273699, 0.0], [-60.2770136116888, -3.724035774308931, 0.0], [-60.27708202761347, -3.724078067626098, 0.0], [-60.27705136342964, -3.724143006771747, 0.0], [-60.27711969661664, -3.724212079201452, 0.0], [-60.2771463525221, -3.724212161939096, 0.0], [-60.2771899804332, -3.724265855062545, 0.0], [-60.27722430036113, -3.724250659217903, 0.0], [-60.27737079362721, -3.724289369636059, 0.0], [-60.27738054857343, -3.724212888591316, 0.0], [-60.27739584514211, -3.724191895716805, 0.0], [-60.27737701153979, -3.724124889929127, 0.0], [-60.27734098739661, -3.724075045904008, 0.0], [-60.27736401183962, -3.724017733908707, 0.0], [-60.27742682139063, -3.724025579594209, 0.0], [-60.27741931744749, -3.723989213708616, 0.0], [-60.27743462570738, -3.723964395118144, 0.0], [-60.27738523853788, -3.72392598597284, 0.0], [-60.27735854755888, -3.723937380383203, 0.0], [-60.27732430407332, -3.723927709973253, 0.0], [-60.2773149250437, -3.723881774401745, 0.0], [-60.27732845894121, -3.723814868438839, 0.0], [-60.27737612480825, -3.723793976288366, 0.0], [-60.27738393452092, -3.723730878954294, 0.0], [-60.27741250058637, -3.723729054229844, 0.0], [-60.27743190615752, -3.72361052268489, 0.0], [-60.27736344346811, -3.723583531332321, 0.0], [-60.27736544715759, -3.723551019941043, 0.0], [-60.27733317858326, -3.723518402429745, 0.0], [-60.27733547095517, -3.723392166392772, 0.0], [-60.27730121038251, -3.723388234556802, 0.0], [-60.27729630458079, -3.723246943868782, 0.0]]]}}, {"id": "8", "type": "Feature", "properties": {"id": "ID_00008", "Name": "09", "descriptio": "<html xmlns:fo=\"http://www.w3.org/1999/XSL/Format\" xmlns:msxsl=\"urn:schemas-microsoft-com:xslt\">\n\n<head>\n\n<META http-equiv=\"Content-Type\" content=\"text/html\">\n\n<meta http-equiv=\"content-type\" content=\"text/html; charset=UTF-8\">\n\n</head>\n\n<body style=\"mar", "timestamp": null, "begin": null, "end": null, "altitudeMo": null, "tessellate": -1, "extrude": 0, "visibility": -1, "drawOrder": null, "icon": null, "snippet": null}, "geometry": {"type": "Polygon", "coordinates": [[[-60.30459405043553, -3.770326646023584, 0.0], [-60.3044898650046, -3.770387995669223, 0.0], [-60.30439994142915, -3.770371935232609, 0.0], [-60.30430426554756, -3.770368768436911, 0.0], [-60.30446032520803, -3.770704953843599, 0.0], [-60.30458617759815, -3.770647960641992, 0.0], [-60.30467332896081, -3.770636754759529, 0.0], [-60.30473227140515, -3.77051069186818, 0.0], [-60.30469972503494, -3.77041303677582, 0.0], [-60.30459405043553, -3.770326646023584, 0.0]]]}}, {"id": "9", "type": "Feature", "properties": {"id": "ID_00009", "Name": "10", "descriptio": "<html xmlns:fo=\"http://www.w3.org/1999/XSL/Format\" xmlns:msxsl=\"urn:schemas-microsoft-com:xslt\">\n\n<head>\n\n<META http-equiv=\"Content-Type\" content=\"text/html\">\n\n<meta http-equiv=\"content-type\" content=\"text/html; charset=UTF-8\">\n\n</head>\n\n<body style=\"mar", "timestamp": null, "begin": null, "end": null, "altitudeMo": null, "tessellate": -1, "extrude": 0, "visibility": -1, "drawOrder": null, "icon": null, "snippet": null}, "geometry": {"type": "Polygon", "coordinates": [[[-60.30431983309376, -3.772480983986017, 0.0], [-60.30441572600489, -3.772547937613048, 0.0], [-60.30450500260371, -3.77254223770993, 0.0], [-60.30458829241571, -3.77254847450828, 0.0], [-60.30463898270285, -3.772512766926438, 0.0], [-60.30466296042727, -3.772456054778934, 0.0], [-60.30460971876346, -3.772354270409075, 0.0], [-60.30468722323674, -3.772306690876896, 0.0], [-60.30471735322323, -3.772184244583042, 0.0], [-60.30468200986684, -3.772067571936691, 0.0], [-60.30455146607727, -3.771947614066957, 0.0], [-60.3042384273615, -3.771187489986539, 0.0], [-60.30414916874912, -3.771187212095998, 0.0], [-60.30408976493067, -3.771154151218942, 0.0], [-60.3040572949082, -3.771070364081901, 0.0], [-60.30408136436342, -3.770983763865469, 0.0], [-60.30405477141052, -3.770923905889418, 0.0], [-60.30406978559211, -3.7708791205508, 0.0], [-60.30401659069304, -3.770762393045892, 0.0], [-60.30405840107431, -3.770711713550589, 0.0], [-60.30383634227331, -3.770358346536328, 0.0], [-60.3036664297619, -3.770462425076732, 0.0], [-60.30363653899501, -3.770507164549868, 0.0], [-60.3035915504097, -3.770623586285332, 0.0], [-60.30362398355994, -3.77071932811035, 0.0], [-60.30368931031336, -3.770761375013282, 0.0], [-60.30376071738318, -3.770761597145822, 0.0], [-60.30381710847275, -3.77080660371766, 0.0], [-60.30385258223083, -3.770881433607114, 0.0], [-60.30383441682483, -3.77098299584443, 0.0], [-60.3038668131029, -3.771090692357428, 0.0], [-60.30401533703815, -3.771168863228311, 0.0], [-60.30413365724247, -3.771393389768959, 0.0], [-60.30414820197791, -3.771501031423279, 0.0], [-60.304283986117, -3.771851141093122, 0.0], [-60.30436046806113, -3.772135313369843, 0.0], [-60.30441390307914, -3.772174334054098, 0.0], [-60.3043566909085, -3.772395325359788, 0.0], [-60.30431983309376, -3.772480983986017, 0.0]]]}}, {"id": "10", "type": "Feature", "properties": {"id": "ID_00010", "Name": "11", "descriptio": "<html xmlns:fo=\"http://www.w3.org/1999/XSL/Format\" xmlns:msxsl=\"urn:schemas-microsoft-com:xslt\">\n\n<head>\n\n<META http-equiv=\"Content-Type\" content=\"text/html\">\n\n<meta http-equiv=\"content-type\" content=\"text/html; charset=UTF-8\">\n\n</head>\n\n<body style=\"mar", "timestamp": null, "begin": null, "end": null, "altitudeMo": null, "tessellate": -1, "extrude": 0, "visibility": -1, "drawOrder": null, "icon": null, "snippet": null}, "geometry": {"type": "Polygon", "coordinates": [[[-60.30791661945636, -3.776026567447814, 0.0], [-60.30785268125618, -3.776010880573353, 0.0], [-60.30776882037474, -3.776035486024541, 0.0], [-60.30774017516894, -3.776062177003527, 0.0], [-60.30766591185233, -3.776061945877787, 0.0], [-60.30760493601895, -3.776075145227455, 0.0], [-60.30756862679068, -3.776117114788719, 0.0], [-60.30749038936994, -3.776170430196852, 0.0], [-60.307459816917, -3.776204766312583, 0.0], [-60.30739323470999, -3.77618351803059, 0.0], [-60.30736463087298, -3.776196819003672, 0.0], [-60.30753680338074, -3.77655696600682, 0.0], [-60.30762778599347, -3.776693059512763, 0.0], [-60.30776432106655, -3.776877115661996, 0.0], [-60.30780242264365, -3.776871495798564, 0.0], [-60.30782919366232, -3.776835235133665, 0.0], [-60.30783676325598, -3.77685056137995, 0.0], [-60.30784616656728, -3.776888847318105, 0.0], [-60.30787273613782, -3.776917622026304, 0.0], [-60.30796615951061, -3.776879656246821, 0.0], [-60.30804261087774, -3.776788078282837, 0.0], [-60.3080408715889, -3.776734513762456, 0.0], [-60.30803153932403, -3.776673274427713, 0.0], [-60.30804685567779, -3.776646542979234, 0.0], [-60.30809640562455, -3.776633306757347, 0.0], [-60.30814211276823, -3.776631535992244, 0.0], [-60.30801290986784, -3.776539318610348, 0.0], [-60.30800919656713, -3.776508702090625, 0.0], [-60.30801318775838, -3.776449416982661, 0.0], [-60.3080076695183, -3.776386276481123, 0.0], [-60.30798115840371, -3.776338373193048, 0.0], [-60.30797746758599, -3.776300105241345, 0.0], [-60.30797009314524, -3.776221656479916, 0.0], [-60.30794924686023, -3.776189073142885, 0.0], [-60.30797405465887, -3.776171935662003, 0.0], [-60.30797033416354, -3.776143231100913, 0.0], [-60.30795524803625, -3.776095363785686, 0.0], [-60.30792875490806, -3.776041721923633, 0.0], [-60.30791661945636, -3.776026567447814, 0.0]]]}}, {"id": "11", "type": "Feature", "properties": {"id": "ID_00011", "Name": "12", "descriptio": "<html xmlns:fo=\"http://www.w3.org/1999/XSL/Format\" xmlns:msxsl=\"urn:schemas-microsoft-com:xslt\">\n\n<head>\n\n<META http-equiv=\"Content-Type\" content=\"text/html\">\n\n<meta http-equiv=\"content-type\" content=\"text/html; charset=UTF-8\">\n\n</head>\n\n<body style=\"mar", "timestamp": null, "begin": null, "end": null, "altitudeMo": null, "tessellate": -1, "extrude": 0, "visibility": -1, "drawOrder": null, "icon": null, "snippet": null}, "geometry": {"type": "Polygon", "coordinates": [[[-60.31638845526294, -3.797925050275806, 0.0], [-60.31629309744847, -3.797858471666132, 0.0], [-60.31620386401708, -3.797849226635492, 0.0], [-60.31612922028722, -3.79793268012406, 0.0], [-60.31602751146045, -3.79810870262951, 0.0], [-60.31597971159437, -3.798171318826278, 0.0], [-60.31597652349774, -3.79824005131228, 0.0], [-60.31598520015684, -3.798320776257792, 0.0], [-60.31605354143773, -3.798350877466004, 0.0], [-60.31613976303959, -3.798372068191368, 0.0], [-60.31619036339453, -3.798366248678389, 0.0], [-60.31624984365532, -3.798375400179548, 0.0], [-60.31627355428105, -3.79840536289212, 0.0], [-60.31630608096083, -3.798471217547595, 0.0], [-60.31635962839406, -3.798474374167977, 0.0], [-60.31641620744199, -3.798459606400662, 0.0], [-60.31645484141774, -3.798474670944275, 0.0], [-60.31652017086914, -3.798516717847212, 0.0], [-60.31657364455799, -3.798543783843487, 0.0], [-60.3166449616956, -3.798573894044897, 0.0], [-60.3166745772699, -3.798618818778411, 0.0], [-60.31673407641647, -3.798621993385241, 0.0], [-60.31680556892185, -3.798595316795379, 0.0], [-60.31685330403673, -3.798553622426686, 0.0], [-60.31692767077533, -3.798559832245396, 0.0], [-60.31703782513546, -3.798539253958357, 0.0], [-60.31709159470131, -3.798470678853707, 0.0], [-60.31711560120397, -3.798404999566042, 0.0], [-60.31707104429324, -3.798380950795191, 0.0], [-60.31695504074247, -3.798368633680453, 0.0], [-60.31688663381107, -3.798359453400998, 0.0], [-60.31684210477925, -3.798326438389364, 0.0], [-60.3169076932354, -3.798284798879349, 0.0], [-60.31691080668833, -3.798239976668568, 0.0], [-60.31667019667218, -3.798110707218303, 0.0], [-60.31659854768479, -3.798188192805802, 0.0], [-60.31656581775825, -3.79818809118244, 0.0], [-60.31648879981822, -3.798077265028714, 0.0], [-60.31638845526294, -3.797925050275806, 0.0]]]}}, {"id": "12", "type": "Feature", "properties": {"id": "ID_00012", "Name": "13", "descriptio": "<html xmlns:fo=\"http://www.w3.org/1999/XSL/Format\" xmlns:msxsl=\"urn:schemas-microsoft-com:xslt\">\n\n<head>\n\n<META http-equiv=\"Content-Type\" content=\"text/html\">\n\n<meta http-equiv=\"content-type\" content=\"text/html; charset=UTF-8\">\n\n</head>\n\n<body style=\"mar", "timestamp": null, "begin": null, "end": null, "altitudeMo": null, "tessellate": -1, "extrude": 0, "visibility": -1, "drawOrder": null, "icon": null, "snippet": null}, "geometry": {"type": "Polygon", "coordinates": [[[-60.41016262273246, -3.876945726817241, 0.0], [-60.41025848671808, -3.876931340266962, 0.0], [-60.41029485997666, -3.876870236641227, 0.0], [-60.41029891374473, -3.876789903942245, 0.0], [-60.41027250600525, -3.876705651720878, 0.0], [-60.41031273497867, -3.876629256091331, 0.0], [-60.41028831333864, -3.876518228255793, 0.0], [-60.41025227208075, -3.876470293067241, 0.0], [-60.41022001667255, -3.876430021426114, 0.0], [-60.41020691180734, -3.876355374969978, 0.0], [-60.41020535083947, -3.876242504376251, 0.0], [-60.41022842698465, -3.876169882019493, 0.0], [-60.4102780622888, -3.876131774859339, 0.0], [-60.41030868099988, -3.87608404439476, 0.0], [-60.41033941616762, -3.87599805468705, 0.0], [-60.41038147393459, -3.8759465333817, 0.0], [-60.41043494164951, -3.875900786047057, 0.0], [-60.41050189273381, -3.875805342623678, 0.0], [-60.41054598895886, -3.875709829011737, 0.0], [-60.41055764343884, -3.875635258567411, 0.0], [-60.41056157483963, -3.875595098053584, 0.0], [-60.41058071368746, -3.875564549131089, 0.0], [-60.41059602592884, -3.87553972739973, 0.0], [-60.41072964270797, -3.87544257561543, 0.0], [-60.41060193757573, -3.875474704220118, 0.0], [-60.41055425929715, -3.875495600621965, 0.0], [-60.41049904424647, -3.875489692157676, 0.0], [-60.41046846051734, -3.875525944878025, 0.0], [-60.41044526217586, -3.875638739473307, 0.0], [-60.41034419188934, -3.875680514692661, 0.0], [-60.41032306694433, -3.875737839221431, 0.0], [-60.41027536535916, -3.87576638744043, 0.0], [-60.41021805357797, -3.875823600838442, 0.0], [-60.41010542773751, -3.875907426070062, 0.0], [-60.41000626781403, -3.875947294103586, 0.0], [-60.40994548464966, -3.875893544003023, 0.0], [-60.40979313656794, -3.875887337152792, 0.0], [-60.40969806536175, -3.875835394712575, 0.0], [-60.40958940591497, -3.875867581596601, 0.0], [-60.40953044582386, -3.875840618788411, 0.0], [-60.40941091815165, -3.875689126326746, 0.0], [-60.40927059171229, -3.875487832552292, 0.0], [-60.40923312941601, -3.875281115829267, 0.0], [-60.4092314869456, -3.875195026764089, 0.0], [-60.40932718121212, -3.875042282418553, 0.0], [-60.40944144357225, -3.875046459303727, 0.0], [-60.40957297515973, -3.875008603676157, 0.0], [-60.40970652194989, -3.874934407608385, 0.0], [-60.40980752223278, -3.874915587961065, 0.0], [-60.40992567526906, -3.874892995007583, 0.0], [-60.4100039546579, -3.874830107039529, 0.0], [-60.41005982167878, -3.874621763804262, 0.0], [-60.41007193018208, -3.874397982375114, 0.0], [-60.41001517739403, -3.874271551503573, 0.0], [-60.40986128012592, -3.874148648372008, 0.0], [-60.40966396213224, -3.873899355327425, 0.0], [-60.40958409267143, -3.87385893756813, 0.0], [-60.40953059604004, -3.87391424971055, 0.0], [-60.40969578669461, -3.874081186030774, 0.0], [-60.40978120687588, -3.874175184252358, 0.0], [-60.409826642837, -3.874265233764165, 0.0], [-60.40983207709633, -3.874357073447755, 0.0], [-60.4097994142059, -3.874450709142705, 0.0], [-60.40976675130236, -3.874544344831405, 0.0], [-60.4097817316578, -3.874628561906307, 0.0], [-60.40986721009055, -3.874703430548251, 0.0], [-60.40987848029318, -3.874755115591186, 0.0], [-60.40985165915514, -3.874806683675945, 0.0], [-60.40980251611921, -3.874839531669844, 0.0], [-60.40965942249363, -3.874921589489912, 0.0], [-60.40948424388, -3.874985614556955, 0.0], [-60.40935212548379, -3.874981621965256, 0.0], [-60.40924517925396, -3.874920317319193, 0.0], [-60.40915226612913, -3.874941552952219, 0.0], [-60.40905963693928, -3.87486953176754, 0.0], [-60.40874898742879, -3.874857817052643, 0.0], [-60.40867000906542, -3.874993874077783, 0.0], [-60.40882290935446, -3.875209553764051, 0.0], [-60.40894334245741, -3.875532738732848, 0.0], [-60.40890718397559, -3.87567968780992, 0.0], [-60.40930970944654, -3.876010913160033, 0.0], [-60.40942032513829, -3.876039947652433, 0.0], [-60.40945579552221, -3.87611896698081, 0.0], [-60.4094412381919, -3.876208593127951, 0.0], [-60.40935173211682, -3.876283641674994, 0.0], [-60.41016262273246, -3.876945726817241, 0.0]]]}}, {"id": "13", "type": "Feature", "properties": {"id": "ID_00013", "Name": "14", "descriptio": "<html xmlns:fo=\"http://www.w3.org/1999/XSL/Format\" xmlns:msxsl=\"urn:schemas-microsoft-com:xslt\">\n\n<head>\n\n<META http-equiv=\"Content-Type\" content=\"text/html\">\n\n<meta http-equiv=\"content-type\" content=\"text/html; charset=UTF-8\">\n\n</head>\n\n<body style=\"mar", "timestamp": null, "begin": null, "end": null, "altitudeMo": null, "tessellate": -1, "extrude": 0, "visibility": -1, "drawOrder": null, "icon": null, "snippet": null}, "geometry": {"type": "Polygon", "coordinates": [[[-60.40943714469489, -3.877034959395274, 0.0], [-60.40926497345879, -3.877122110762083, 0.0], [-60.40919988005061, -3.877232863455925, 0.0], [-60.40921689881708, -3.87727308829848, 0.0], [-60.40923775586492, -3.877303760046761, 0.0], [-60.40923553660546, -3.877407054046853, 0.0], [-60.40934763828744, -3.877495395562796, 0.0], [-60.40936268255695, -3.8775585700824, 0.0], [-60.40940841560495, -3.877551058716794, 0.0], [-60.40940852632615, -3.877514712467369, 0.0], [-60.40961473874387, -3.877345091060951, 0.0], [-60.4098034195917, -3.877303585277919, 0.0], [-60.40985881532379, -3.877250192066488, 0.0], [-60.40990487461146, -3.87713555482875, 0.0], [-60.41001150153512, -3.877145447306272, 0.0], [-60.41005329727187, -3.877180009337529, 0.0], [-60.41011231572207, -3.877187842566082, 0.0], [-60.41013313786492, -3.877229992082296, 0.0], [-60.4101730639914, -3.877253070492509, 0.0], [-60.41021868636443, -3.877281905340186, 0.0], [-60.41022450493706, -3.877247489581311, 0.0], [-60.41012393539165, -3.87712474993904, 0.0], [-60.40991111845534, -3.876961492905732, 0.0], [-60.40972683523012, -3.876809801408889, 0.0], [-60.40963361610643, -3.876775081394817, 0.0], [-60.40957254748957, -3.876815066322793, 0.0], [-60.40957808059637, -3.876874385662211, 0.0], [-60.4096824999391, -3.876983746274135, 0.0], [-60.40972823878718, -3.87697432190751, 0.0], [-60.40975633546225, -3.877129359525179, 0.0], [-60.40965531158124, -3.877155830831408, 0.0], [-60.40943714469489, -3.877034959395274, 0.0]]]}}, {"id": "14", "type": "Feature", "properties": {"id": "ID_00014", "Name": "15", "descriptio": "<html xmlns:fo=\"http://www.w3.org/1999/XSL/Format\" xmlns:msxsl=\"urn:schemas-microsoft-com:xslt\">\n\n<head>\n\n<META http-equiv=\"Content-Type\" content=\"text/html\">\n\n<meta http-equiv=\"content-type\" content=\"text/html; charset=UTF-8\">\n\n</head>\n\n<body style=\"mar", "timestamp": null, "begin": null, "end": null, "altitudeMo": null, "tessellate": -1, "extrude": 0, "visibility": -1, "drawOrder": null, "icon": null, "snippet": null}, "geometry": {"type": "Polygon", "coordinates": [[[-60.41222634339452, -3.878037373983085, 0.0], [-60.41190242949949, -3.878271305473779, 0.0], [-60.41169800768255, -3.878165463709807, 0.0], [-60.41175096585625, -3.877974328148749, 0.0], [-60.4122810869085, -3.877449885598773, 0.0], [-60.41266747664697, -3.877216731155013, 0.0], [-60.4129293559597, -3.877217534837907, 0.0], [-60.41314449364415, -3.876931247406652, 0.0], [-60.41309706831846, -3.876868929912094, 0.0], [-60.41332153962874, -3.876644842963834, 0.0], [-60.41301278778388, -3.876399990263957, 0.0], [-60.4121727233708, -3.877071738887963, 0.0], [-60.41200177724664, -3.876918175558759, 0.0], [-60.41194439261273, -3.876999301153633, 0.0], [-60.41150699537651, -3.876782747911285, 0.0], [-60.41124058794474, -3.876705410724509, 0.0], [-60.41125370778001, -3.877088047249194, 0.0], [-60.41143475878504, -3.877050343542436, 0.0], [-60.41150466651152, -3.877547933393386, 0.0], [-60.41141396625351, -3.877624174132056, 0.0], [-60.41136100809239, -3.877815309637065, 0.0], [-60.41137006508745, -3.877968375959873, 0.0], [-60.41204438486175, -3.878563471186316, 0.0], [-60.41214926770704, -3.878520751154078, 0.0], [-60.41224502066559, -3.87834887673919, 0.0], [-60.41222634339452, -3.878037373983085, 0.0]]]}}, {"id": "15", "type": "Feature", "properties": {"id": "ID_00015", "Name": "16", "descriptio": "<html xmlns:fo=\"http://www.w3.org/1999/XSL/Format\" xmlns:msxsl=\"urn:schemas-microsoft-com:xslt\">\n\n<head>\n\n<META http-equiv=\"Content-Type\" content=\"text/html\">\n\n<meta http-equiv=\"content-type\" content=\"text/html; charset=UTF-8\">\n\n</head>\n\n<body style=\"mar", "timestamp": null, "begin": null, "end": null, "altitudeMo": null, "tessellate": -1, "extrude": 0, "visibility": -1, "drawOrder": null, "icon": null, "snippet": null}, "geometry": {"type": "Polygon", "coordinates": [[[-60.42204855077241, -3.886078219728876, 0.0], [-60.42196294858723, -3.88623983345651, 0.0], [-60.42191137297192, -3.886289413290061, 0.0], [-60.42183316186134, -3.886329346486553, 0.0], [-60.42180085904267, -3.886304378510152, 0.0], [-60.42183713383725, -3.88627579475213, 0.0], [-60.42184490340672, -3.88622608065141, 0.0], [-60.42156896160151, -3.886150627924462, 0.0], [-60.42150411766278, -3.886179124087684, 0.0], [-60.42152493466983, -3.886223186819005, 0.0], [-60.42147137304971, -3.886299542468018, 0.0], [-60.42150733973443, -3.886372346589841, 0.0], [-60.42168233138432, -3.886449402911869, 0.0], [-60.42180951597055, -3.886589441559237, 0.0], [-60.42184363620964, -3.886643110065503, 0.0], [-60.42184340368164, -3.886719629223524, 0.0], [-60.42187938784268, -3.886786694424974, 0.0], [-60.42191940794732, -3.886779165122895, 0.0], [-60.42197068133213, -3.886829060224322, 0.0], [-60.42202592671322, -3.886825403585585, 0.0], [-60.42206429797632, -3.886733697350159, 0.0], [-60.42212341651783, -3.88670900960408, 0.0], [-60.42217693747022, -3.886646044748543, 0.0], [-60.42220767281611, -3.886560054077167, 0.0], [-60.4221564459114, -3.88649485515606, 0.0], [-60.42223873361831, -3.88636693654491, 0.0], [-60.42210753047397, -3.886295753519287, 0.0], [-60.42213637861341, -3.886204018070383, 0.0], [-60.42220496785978, -3.886196576294548, 0.0], [-60.42225057973094, -3.886229237038956, 0.0], [-60.42229628459093, -3.886231290108762, 0.0], [-60.42234237299937, -3.886107086514198, 0.0], [-60.42225086449622, -3.886135501039023, 0.0], [-60.42214457822416, -3.886012743476518, 0.0], [-60.42204855077241, -3.886078219728876, 0.0]]]}}, {"id": "16", "type": "Feature", "properties": {"id": "ID_00016", "Name": "17", "descriptio": "<html xmlns:fo=\"http://www.w3.org/1999/XSL/Format\" xmlns:msxsl=\"urn:schemas-microsoft-com:xslt\">\n\n<head>\n\n<META http-equiv=\"Content-Type\" content=\"text/html\">\n\n<meta http-equiv=\"content-type\" content=\"text/html; charset=UTF-8\">\n\n</head>\n\n<body style=\"mar", "timestamp": null, "begin": null, "end": null, "altitudeMo": null, "tessellate": -1, "extrude": 0, "visibility": -1, "drawOrder": null, "icon": null, "snippet": null}, "geometry": {"type": "Polygon", "coordinates": [[[-60.43351244963457, -3.892573806950542, 0.0], [-60.43350539265503, -3.892516906962075, 0.0], [-60.43351531430859, -3.892385417570699, 0.0], [-60.43304157091984, -3.892372013280677, 0.0], [-60.43301992633405, -3.892443685118031, 0.0], [-60.4327794074058, -3.892462080001767, 0.0], [-60.43271304932567, -3.892361443964246, 0.0], [-60.43259877088435, -3.892361094599073, 0.0], [-60.43260553644729, -3.892485461106312, 0.0], [-60.43267193074399, -3.892574140931092, 0.0], [-60.43283839120106, -3.892639214021043, 0.0], [-60.43292378122875, -3.892744690788361, 0.0], [-60.43300199263302, -3.892862101947701, 0.0], [-60.43308530624508, -3.892867139176492, 0.0], [-60.43312832736432, -3.892812271555748, 0.0], [-60.43326169581472, -3.892798331640642, 0.0], [-60.43340518159061, -3.892588338705902, 0.0], [-60.43345050378434, -3.892559782019619, 0.0], [-60.43351244963457, -3.892573806950542, 0.0]]]}}, {"id": "17", "type": "Feature", "properties": {"id": "ID_00017", "Name": "18", "descriptio": "<html xmlns:fo=\"http://www.w3.org/1999/XSL/Format\" xmlns:msxsl=\"urn:schemas-microsoft-com:xslt\">\n\n<head>\n\n<META http-equiv=\"Content-Type\" content=\"text/html\">\n\n<meta http-equiv=\"content-type\" content=\"text/html; charset=UTF-8\">\n\n</head>\n\n<body style=\"mar", "timestamp": null, "begin": null, "end": null, "altitudeMo": null, "tessellate": -1, "extrude": 0, "visibility": -1, "drawOrder": null, "icon": null, "snippet": null}, "geometry": {"type": "Polygon", "coordinates": [[[-60.45417002924609, -3.910051390506992, 0.0], [-60.45423346541259, -3.910046383853252, 0.0], [-60.45426706239322, -3.910020302616233, 0.0], [-60.45434341446457, -3.910018664854561, 0.0], [-60.45439568897513, -3.90997393794882, 0.0], [-60.45443133434463, -3.909886144579306, 0.0], [-60.45444254650636, -3.909873086944325, 0.0], [-60.45447230636261, -3.909884399073952, 0.0], [-60.45454518258277, -3.90980045955153, 0.0], [-60.45462336289114, -3.909810048838303, 0.0], [-60.45465324128412, -3.90978208599709, 0.0], [-60.4546997714063, -3.909789708666247, 0.0], [-60.45462758945172, -3.909643609139136, 0.0], [-60.45462777570896, -3.909581891338672, 0.0], [-60.45460747313877, -3.909521981418876, 0.0], [-60.45441287190603, -3.909216537701182, 0.0], [-60.45432207458715, -3.909068511289555, 0.0], [-60.45428864134335, -3.9090403557139, 0.0], [-60.45429220751981, -3.909092733656855, 0.0], [-60.45432362062235, -3.909173250171813, 0.0], [-60.45431416334132, -3.90922184796204, 0.0], [-60.45426379051981, -3.909253488909251, 0.0], [-60.45418371431118, -3.909255115370506, 0.0], [-60.45412963420922, -3.90928113425934, 0.0], [-60.45402326836524, -3.909355620515775, 0.0], [-60.45396356242134, -3.909394714024925, 0.0], [-60.45392615093738, -3.90945070768583, 0.0], [-60.45393902196128, -3.909504984202544, 0.0], [-60.4539927689985, -3.909589309231346, 0.0], [-60.45405591690502, -3.909643738845698, 0.0], [-60.45413010761797, -3.909741217900637, 0.0], [-60.45412628178524, -3.909774870802015, 0.0], [-60.45410577037898, -3.90978415960817, 0.0], [-60.45406669435788, -3.909774689355208, 0.0], [-60.45404060227651, -3.909782090912906, 0.0], [-60.45403675950189, -3.909821354517905, 0.0], [-60.45417002924609, -3.910051390506992, 0.0]]]}}, {"id": "18", "type": "Feature", "properties": {"id": "ID_00018", "Name": "19", "descriptio": "<html xmlns:fo=\"http://www.w3.org/1999/XSL/Format\" xmlns:msxsl=\"urn:schemas-microsoft-com:xslt\">\n\n<head>\n\n<META http-equiv=\"Content-Type\" content=\"text/html\">\n\n<meta http-equiv=\"content-type\" content=\"text/html; charset=UTF-8\">\n\n</head>\n\n<body style=\"mar", "timestamp": null, "begin": null, "end": null, "altitudeMo": null, "tessellate": -1, "extrude": 0, "visibility": -1, "drawOrder": null, "icon": null, "snippet": null}, "geometry": {"type": "Polygon", "coordinates": [[[-60.45451900835774, -3.913463138095863, 0.0], [-60.45468882972745, -3.913363502870118, 0.0], [-60.45469209478551, -3.913267860581795, 0.0], [-60.45476354890042, -3.913259110904538, 0.0], [-60.45481398956139, -3.913310079849148, 0.0], [-60.4548587127166, -3.913283313920922, 0.0], [-60.45491825330561, -3.913277517064365, 0.0], [-60.45495425572175, -3.91318197449804, 0.0], [-60.45505008757323, -3.912984983664601, 0.0], [-60.45516641826094, -3.912898653173089, 0.0], [-60.45518752193113, -3.912809043450856, 0.0], [-60.45524143517672, -3.912695620592554, 0.0], [-60.45503101485463, -3.912402044580348, 0.0], [-60.45487308171897, -3.912467324430061, 0.0], [-60.45481378491212, -3.912392415479086, 0.0], [-60.45473645084246, -3.912377234236156, 0.0], [-60.45446305379107, -3.912241890404812, 0.0], [-60.45437073081905, -3.912262533057925, 0.0], [-60.45424623928039, -3.912094762405462, 0.0], [-60.45418373171407, -3.912097561094658, 0.0], [-60.45407094609357, -3.911995587002216, 0.0], [-60.45393389108294, -3.91204598463414, 0.0], [-60.4538625725529, -3.912009897756398, 0.0], [-60.45370459441471, -3.91209012288779, 0.0], [-60.45369818164664, -3.91224254898539, 0.0], [-60.45365325990161, -3.912335075120045, 0.0], [-60.45372735588103, -3.91243693135721, 0.0], [-60.4536974050277, -3.912499611813196, 0.0], [-60.45389026594416, -3.912694493050648, 0.0], [-60.45391975625126, -3.912784256843449, 0.0], [-60.45402372187959, -3.912850334561648, 0.0], [-60.45411517799396, -3.913116645938924, 0.0], [-60.45431108748726, -3.913287623470725, 0.0], [-60.45447462991114, -3.913335947963027, 0.0], [-60.45451900835774, -3.913463138095863, 0.0]]]}}, {"id": "19", "type": "Feature", "properties": {"id": "ID_00019", "Name": "20", "descriptio": "<html xmlns:fo=\"http://www.w3.org/1999/XSL/Format\" xmlns:msxsl=\"urn:schemas-microsoft-com:xslt\">\n\n<head>\n\n<META http-equiv=\"Content-Type\" content=\"text/html\">\n\n<meta http-equiv=\"content-type\" content=\"text/html; charset=UTF-8\">\n\n</head>\n\n<body style=\"mar", "timestamp": null, "begin": null, "end": null, "altitudeMo": null, "tessellate": -1, "extrude": 0, "visibility": -1, "drawOrder": null, "icon": null, "snippet": null}, "geometry": {"type": "Polygon", "coordinates": [[[-60.47489048032917, -3.928270951426955, 0.0], [-60.47488615638434, -3.928280643551889, 0.0], [-60.47486868529204, -3.928389635752922, 0.0], [-60.47476683248596, -3.928529937601632, 0.0], [-60.47479671198658, -3.928570202826609, 0.0], [-60.47488095556741, -3.928584806529945, 0.0], [-60.47494653685458, -3.928629484511806, 0.0], [-60.47522614759867, -3.928760900289931, 0.0], [-60.47526630779992, -3.928707934330062, 0.0], [-60.47526370525792, -3.928623272886275, 0.0], [-60.47528816822539, -3.928564520068268, 0.0], [-60.47534255819811, -3.928530249747207, 0.0], [-60.47541416460304, -3.92847163994986, 0.0], [-60.47541004281977, -3.928417104814964, 0.0], [-60.475375812778, -3.92839834848786, 0.0], [-60.47540309406362, -3.928352517461521, 0.0], [-60.47537456543421, -3.928338082851043, 0.0], [-60.47532448713889, -3.928363757428539, 0.0], [-60.47519202971137, -3.928229918615445, 0.0], [-60.47517193021127, -3.928262858167558, 0.0], [-60.47518896107101, -3.928300214790172, 0.0], [-60.47511889116844, -3.928322959086239, 0.0], [-60.47498222571664, -3.928163280997072, 0.0], [-60.47489048032917, -3.928270951426955, 0.0]]]}}, {"id": "20", "type": "Feature", "properties": {"id": "ID_00020", "Name": "21", "descriptio": "<html xmlns:fo=\"http://www.w3.org/1999/XSL/Format\" xmlns:msxsl=\"urn:schemas-microsoft-com:xslt\">\n\n<head>\n\n<META http-equiv=\"Content-Type\" content=\"text/html\">\n\n<meta http-equiv=\"content-type\" content=\"text/html; charset=UTF-8\">\n\n</head>\n\n<body style=\"mar", "timestamp": null, "begin": null, "end": null, "altitudeMo": null, "tessellate": -1, "extrude": 0, "visibility": -1, "drawOrder": null, "icon": null, "snippet": null}, "geometry": {"type": "Polygon", "coordinates": [[[-60.50494206831878, -3.949682623722525, 0.0], [-60.50502381481568, -3.949692782362923, 0.0], [-60.50514111742109, -3.949482693036308, 0.0], [-60.505136598185, -3.949401371928154, 0.0], [-60.50520123791209, -3.949284388305215, 0.0], [-60.50536370259556, -3.949100740350223, 0.0], [-60.50529022442447, -3.948988123264778, 0.0], [-60.50530228707925, -3.948935548881257, 0.0], [-60.5053547711949, -3.948902227477056, 0.0], [-60.50538616835934, -3.948754055462943, 0.0], [-60.50527441407462, -3.948701107986229, 0.0], [-60.50511065438917, -3.948521259766745, 0.0], [-60.50491768578507, -3.948554157812817, 0.0], [-60.50465264127542, -3.948802064199485, 0.0], [-60.5046286588315, -3.94885938541223, 0.0], [-60.50443519705306, -3.94905728808158, 0.0], [-60.50444429259687, -3.949200799226619, 0.0], [-60.50441077144044, -3.949262874450591, 0.0], [-60.50478127172386, -3.949582047004911, 0.0], [-60.50494206831878, -3.949682623722525, 0.0]]]}}, {"id": "21", "type": "Feature", "properties": {"id": "ID_00021", "Name": "22", "descriptio": "<html xmlns:fo=\"http://www.w3.org/1999/XSL/Format\" xmlns:msxsl=\"urn:schemas-microsoft-com:xslt\">\n\n<head>\n\n<META http-equiv=\"Content-Type\" content=\"text/html\">\n\n<meta http-equiv=\"content-type\" content=\"text/html; charset=UTF-8\">\n\n</head>\n\n<body style=\"mar", "timestamp": null, "begin": null, "end": null, "altitudeMo": null, "tessellate": -1, "extrude": 0, "visibility": -1, "drawOrder": null, "icon": null, "snippet": null}, "geometry": {"type": "Polygon", "coordinates": [[[-60.51850694630271, -3.96172107908715, 0.0], [-60.5186048479809, -3.961778396575809, 0.0], [-60.51874342432745, -3.961733665278326, 0.0], [-60.51878409896095, -3.961631616486887, 0.0], [-60.51890247942115, -3.961459790099584, 0.0], [-60.51894567167022, -3.961348718871778, 0.0], [-60.51904961543255, -3.961227068864057, 0.0], [-60.51907493828175, -3.961119531025887, 0.0], [-60.51907896969443, -3.960965296467282, 0.0], [-60.5191149008097, -3.960893661826976, 0.0], [-60.51900830473586, -3.960706810565025, 0.0], [-60.51892278631141, -3.960638398015393, 0.0], [-60.51891227422659, -3.960570210918072, 0.0], [-60.51876269987856, -3.960422688944707, 0.0], [-60.51861653695857, -3.960328984193531, 0.0], [-60.51844886888278, -3.96026032470432, 0.0], [-60.51825549310934, -3.960428338484375, 0.0], [-60.51817980250016, -3.960657687218475, 0.0], [-60.51815366687249, -3.961037844366274, 0.0], [-60.51821786176366, -3.961070321565456, 0.0], [-60.51821032261721, -3.9612030226929, 0.0], [-60.51814240626394, -3.961220754108733, 0.0], [-60.5182774796675, -3.961439975204304, 0.0], [-60.51839158259162, -3.961504886664444, 0.0], [-60.51838774349483, -3.961594553372811, 0.0], [-60.51841966450199, -3.961669979097185, 0.0], [-60.51850694630271, -3.96172107908715, 0.0]]]}}, {"id": "22", "type": "Feature", "properties": {"id": "ID_00022", "Name": "23", "descriptio": "<html xmlns:fo=\"http://www.w3.org/1999/XSL/Format\" xmlns:msxsl=\"urn:schemas-microsoft-com:xslt\">\n\n<head>\n\n<META http-equiv=\"Content-Type\" content=\"text/html\">\n\n<meta http-equiv=\"content-type\" content=\"text/html; charset=UTF-8\">\n\n</head>\n\n<body style=\"mar", "timestamp": null, "begin": null, "end": null, "altitudeMo": null, "tessellate": -1, "extrude": 0, "visibility": -1, "drawOrder": null, "icon": null, "snippet": null}, "geometry": {"type": "Polygon", "coordinates": [[[-60.64187644829241, -4.049145203165867, 0.0], [-60.64186845309075, -4.049016326500611, 0.0], [-60.64184367454844, -4.048937330259417, 0.0], [-60.64155430702375, -4.048936485270795, 0.0], [-60.64137229970306, -4.048871379665443, 0.0], [-60.64100047529899, -4.048970742198474, 0.0], [-60.64044306091791, -4.049008575696329, 0.0], [-60.64022541262966, -4.048914666179352, 0.0], [-60.64016162855091, -4.048735107546339, 0.0], [-60.63978637751286, -4.048784235238129, 0.0], [-60.63948592925021, -4.048908917676534, 0.0], [-60.6393465211911, -4.048937209740682, 0.0], [-60.63917145121099, -4.048943872870588, 0.0], [-60.63901437861093, -4.048903951827053, 0.0], [-60.63901416020603, -4.048979287474631, 0.0], [-60.63924611870794, -4.049066064194369, 0.0], [-60.63928149985202, -4.049184553236302, 0.0], [-60.63929163475843, -4.049385479664998, 0.0], [-60.63935203334216, -4.049500454410432, 0.0], [-60.63963747460127, -4.049623261916804, 0.0], [-60.63975538580018, -4.049616431694536, 0.0], [-60.63991959311392, -4.049659960992657, 0.0], [-60.64008411238361, -4.049595867832367, 0.0], [-60.6402589330981, -4.049675302541421, 0.0], [-60.64027285896469, -4.049800903826804, 0.0], [-60.64016885274299, -4.049940510219648, 0.0], [-60.64008629151433, -4.050076591815643, 0.0], [-60.63992466859002, -4.050373877274232, 0.0], [-60.63994584323365, -4.050463625286899, 0.0], [-60.64077662102379, -4.05101852032263, 0.0], [-60.64064084098828, -4.049794804281373, 0.0], [-60.6407161532765, -4.049694575841684, 0.0], [-60.64074500304686, -4.049601386525425, 0.0], [-60.64092421742527, -4.049397425648087, 0.0], [-60.64094951549278, -4.049297051033903, 0.0], [-60.64091768572041, -4.049185747189514, 0.0], [-60.64089644855187, -4.049117523656413, 0.0], [-60.64094308768744, -4.049049498403781, 0.0], [-60.64107519512682, -4.049074996429661, 0.0], [-60.64102484846194, -4.049189647681005, 0.0], [-60.64104964768779, -4.049261469070731, 0.0], [-60.64112809584776, -4.049311922492988, 0.0], [-60.64121740681929, -4.049312183374268, 0.0], [-60.64158207616663, -4.049216387369972, 0.0], [-60.64173595079467, -4.049127150511801, 0.0], [-60.64187644829241, -4.049145203165867, 0.0]]]}}, {"id": "23", "type": "Feature", "properties": {"id": "ID_00023", "Name": "24", "descriptio": "<html xmlns:fo=\"http://www.w3.org/1999/XSL/Format\" xmlns:msxsl=\"urn:schemas-microsoft-com:xslt\">\n\n<head>\n\n<META http-equiv=\"Content-Type\" content=\"text/html\">\n\n<meta http-equiv=\"content-type\" content=\"text/html; charset=UTF-8\">\n\n</head>\n\n<body style=\"mar", "timestamp": null, "begin": null, "end": null, "altitudeMo": null, "tessellate": -1, "extrude": 0, "visibility": -1, "drawOrder": null, "icon": null, "snippet": null}, "geometry": {"type": "Polygon", "coordinates": [[[-60.64044517843985, -4.051067700419904, 0.0], [-60.64018946498566, -4.050860617137211, 0.0], [-60.63993041525806, -4.050670921057455, 0.0], [-60.63981149335984, -4.050615565897186, 0.0], [-60.63979945347523, -4.050660971655, 0.0], [-60.6398231171998, -4.050713656688043, 0.0], [-60.63982288143621, -4.050794971399262, 0.0], [-60.63974619085343, -4.050959769590091, 0.0], [-60.63974119874564, -4.051038678759338, 0.0], [-60.63954980150863, -4.051337072697511, 0.0], [-60.63936390266122, -4.05138196995718, 0.0], [-60.63926327766115, -4.05158735569092, 0.0], [-60.63915095951427, -4.051718566700463, 0.0], [-60.63915292486547, -4.051862070143271, 0.0], [-60.63924325335688, -4.05192212509246, 0.0], [-60.63949332455184, -4.051922856588813, 0.0], [-60.63983158550701, -4.051899929636591, 0.0], [-60.63992919077277, -4.051914564860618, 0.0], [-60.63998655799714, -4.051842983736605, 0.0], [-60.64024257836782, -4.051434763636122, 0.0], [-60.64029750148381, -4.051384699979521, 0.0], [-60.64030039621214, -4.051207727806477, 0.0], [-60.64044517843985, -4.051067700419904, 0.0]]]}}, {"id": "24", "type": "Feature", "properties": {"id": "ID_00024", "Name": "25", "descriptio": "<html xmlns:fo=\"http://www.w3.org/1999/XSL/Format\" xmlns:msxsl=\"urn:schemas-microsoft-com:xslt\">\n\n<head>\n\n<META http-equiv=\"Content-Type\" content=\"text/html\">\n\n<meta http-equiv=\"content-type\" content=\"text/html; charset=UTF-8\">\n\n</head>\n\n<body style=\"mar", "timestamp": null, "begin": null, "end": null, "altitudeMo": null, "tessellate": -1, "extrude": 0, "visibility": -1, "drawOrder": null, "icon": null, "snippet": null}, "geometry": {"type": "Polygon", "coordinates": [[[-60.64090518177159, -4.051167848807059, 0.0], [-60.64133310219471, -4.051528833299368, 0.0], [-60.64149240822472, -4.051620180870321, 0.0], [-60.64158028608443, -4.051704144804893, 0.0], [-60.64166127549026, -4.051699598207114, 0.0], [-60.64183262145975, -4.051745539911, 0.0], [-60.64188244173982, -4.051812651204101, 0.0], [-60.64203233226669, -4.051865705093065, 0.0], [-60.64210865545436, -4.051827661958447, 0.0], [-60.64210406541759, -4.051767857715564, 0.0], [-60.64218281873138, -4.05171308023245, 0.0], [-60.64217578469032, -4.051674793547821, 0.0], [-60.64238834599745, -4.051469734010669, 0.0], [-60.64237202095062, -4.051350104635521, 0.0], [-60.64227451945101, -4.05129959552058, 0.0], [-60.64213166301153, -4.05128482840975, 0.0], [-60.64199579905795, -4.051322697633357, 0.0], [-60.64189577739614, -4.051320013784578, 0.0], [-60.641800713029, -4.051250378689382, 0.0], [-60.64176046780045, -4.051166553960368, 0.0], [-60.6416558145716, -4.051118415543182, 0.0], [-60.64144870269207, -4.051086719171252, 0.0], [-60.6411819530511, -4.051088331323824, 0.0], [-60.64090518177159, -4.051167848807059, 0.0]]]}}, {"id": "25", "type": "Feature", "properties": {"id": "ID_00025", "Name": "26", "descriptio": "<html xmlns:fo=\"http://www.w3.org/1999/XSL/Format\" xmlns:msxsl=\"urn:schemas-microsoft-com:xslt\">\n\n<head>\n\n<META http-equiv=\"Content-Type\" content=\"text/html\">\n\n<meta http-equiv=\"content-type\" content=\"text/html; charset=UTF-8\">\n\n</head>\n\n<body style=\"mar", "timestamp": null, "begin": null, "end": null, "altitudeMo": null, "tessellate": -1, "extrude": 0, "visibility": -1, "drawOrder": null, "icon": null, "snippet": null}, "geometry": {"type": "Polygon", "coordinates": [[[-60.68042381306606, -4.080919254256815, 0.0], [-60.68021725085935, -4.08104914720049, 0.0], [-60.68010832828878, -4.0811578932187, 0.0], [-60.68016923059196, -4.08118294318525, 0.0], [-60.6801843531619, -4.081225080826364, 0.0], [-60.68010802063139, -4.081265040327086, 0.0], [-60.68008120178052, -4.081314709962562, 0.0], [-60.68001251842731, -4.081345124808595, 0.0], [-60.67996836938612, -4.081457885034354, 0.0], [-60.67988232285717, -4.081562870497973, 0.0], [-60.67988208657448, -4.081645144156423, 0.0], [-60.67991055811935, -4.081683493741695, 0.0], [-60.67991033831784, -4.081760027378827, 0.0], [-60.67996546940112, -4.081804194239047, 0.0], [-60.68000933275778, -4.08179092776065, 0.0], [-60.68004549197156, -4.081806339325213, 0.0], [-60.68010042525606, -4.081919386464488, 0.0], [-60.68013847342456, -4.081940543570495, 0.0], [-60.68022441011442, -4.081873824911025, 0.0], [-60.68025342562555, -4.081722753700481, 0.0], [-60.68029535058622, -4.081720961732738, 0.0], [-60.68028943101035, -4.08179173881523, 0.0], [-60.68041708936449, -4.081794021788814, 0.0], [-60.68045371556627, -4.081646799297909, 0.0], [-60.68035863633549, -4.081579556515234, 0.0], [-60.68046389094815, -4.081421052560874, 0.0], [-60.68057427404921, -4.081467292693103, 0.0], [-60.68069093921724, -4.081316475138128, 0.0], [-60.68074451095414, -4.081240095885627, 0.0], [-60.68081891608598, -4.081207784158619, 0.0], [-60.68079248721755, -4.081121606551293, 0.0], [-60.68042381306606, -4.080919254256815, 0.0]]]}}, {"id": "26", "type": "Feature", "properties": {"id": "ID_00026", "Name": "27", "descriptio": "<html xmlns:fo=\"http://www.w3.org/1999/XSL/Format\" xmlns:msxsl=\"urn:schemas-microsoft-com:xslt\">\n\n<head>\n\n<META http-equiv=\"Content-Type\" content=\"text/html\">\n\n<meta http-equiv=\"content-type\" content=\"text/html; charset=UTF-8\">\n\n</head>\n\n<body style=\"mar", "timestamp": null, "begin": null, "end": null, "altitudeMo": null, "tessellate": -1, "extrude": 0, "visibility": -1, "drawOrder": null, "icon": null, "snippet": null}, "geometry": {"type": "Polygon", "coordinates": [[[-60.72579568320952, -4.114399759700753, 0.0], [-60.72581842820307, -4.114368351190707, 0.0], [-60.72584418188608, -4.114358379434241, 0.0], [-60.72587420273828, -4.11435559519794, 0.0], [-60.72591129210543, -4.1143800973743, 0.0], [-60.72592833635274, -4.114417457767051, 0.0], [-60.72595542148701, -4.114441931322066, 0.0], [-60.72599528777522, -4.114495142698052, 0.0], [-60.72601385485979, -4.114499501004958, 0.0], [-60.72600677412645, -4.114476519743051, 0.0], [-60.72598828441011, -4.114444895465, 0.0], [-60.72596839402177, -4.114403221740934, 0.0], [-60.72594702559429, -4.114378764541703, 0.0], [-60.72593851975773, -4.114354344141081, 0.0], [-60.72597581679464, -4.114305658708599, 0.0], [-60.72602592348289, -4.114275665732927, 0.0], [-60.7260546169498, -4.114237001119485, 0.0], [-60.72605760966599, -4.114189652606521, 0.0], [-60.72603482834666, -4.114159451118278, 0.0], [-60.72599775526561, -4.114129208746665, 0.0], [-60.72595353223494, -4.114100380983829, 0.0], [-60.72593373956742, -4.114024266038269, 0.0], [-60.72586385652562, -4.113972403867894, 0.0], [-60.72582948708423, -4.113996701610822, 0.0], [-60.72578664845491, -4.113983663495009, 0.0], [-60.72576943726642, -4.114005140195345, 0.0], [-60.725754966341, -4.114068241548425, 0.0], [-60.72573489679701, -4.114089710068994, 0.0], [-60.72570191987448, -4.114126927347868, 0.0], [-60.72567894310858, -4.114165608297426, 0.0], [-60.72568022975549, -4.114215839165308, 0.0], [-60.72569010367499, -4.114261789415152, 0.0], [-60.72574290989627, -4.114287771624336, 0.0], [-60.7257827435846, -4.114352463406478, 0.0], [-60.72579568320952, -4.114399759700753, 0.0]]]}}, {"id": "27", "type": "Feature", "properties": {"id": "ID_00027", "Name": "28", "descriptio": "<html xmlns:fo=\"http://www.w3.org/1999/XSL/Format\" xmlns:msxsl=\"urn:schemas-microsoft-com:xslt\">\n\n<head>\n\n<META http-equiv=\"Content-Type\" content=\"text/html\">\n\n<meta http-equiv=\"content-type\" content=\"text/html; charset=UTF-8\">\n\n</head>\n\n<body style=\"mar", "timestamp": null, "begin": null, "end": null, "altitudeMo": null, "tessellate": -1, "extrude": 0, "visibility": -1, "drawOrder": null, "icon": null, "snippet": null}, "geometry": {"type": "Polygon", "coordinates": [[[-60.72854766021749, -4.116245524460571, 0.0], [-60.72852745895074, -4.116096362311286, 0.0], [-60.72841396847201, -4.115804284249252, 0.0], [-60.72832832513291, -4.115770559490626, 0.0], [-60.72828090975321, -4.11569389840692, 0.0], [-60.72819774298888, -4.115626700806751, 0.0], [-60.72817879854244, -4.115588383884037, 0.0], [-60.72798634187798, -4.115427608350021, 0.0], [-60.72802233059417, -4.115334445769723, 0.0], [-60.72794374402775, -4.115331829669998, 0.0], [-60.72787250575698, -4.11525749190847, 0.0], [-60.72779611093762, -4.115321841881185, 0.0], [-60.72779582610405, -4.115422280790793, 0.0], [-60.72771481723333, -4.115434006269288, 0.0], [-60.72766731376691, -4.115388433423134, 0.0], [-60.72757441038959, -4.115395342033286, 0.0], [-60.72751023562574, -4.115349721511427, 0.0], [-60.72748850264367, -4.115454881909529, 0.0], [-60.72741010601982, -4.115385306496342, 0.0], [-60.72736948289025, -4.115433018749766, 0.0], [-60.727376424243, -4.11550478123993, 0.0], [-60.72778290069618, -4.115780957128854, 0.0], [-60.72784012734229, -4.115757206548057, 0.0], [-60.72808734087982, -4.115925312977095, 0.0], [-60.72837257229941, -4.116124616578082, 0.0], [-60.72854766021749, -4.116245524460571, 0.0]]]}}, {"id": "28", "type": "Feature", "properties": {"id": "ID_00028", "Name": "29", "descriptio": "<html xmlns:fo=\"http://www.w3.org/1999/XSL/Format\" xmlns:msxsl=\"urn:schemas-microsoft-com:xslt\">\n\n<head>\n\n<META http-equiv=\"Content-Type\" content=\"text/html\">\n\n<meta http-equiv=\"content-type\" content=\"text/html; charset=UTF-8\">\n\n</head>\n\n<body style=\"mar", "timestamp": null, "begin": null, "end": null, "altitudeMo": null, "tessellate": -1, "extrude": 0, "visibility": -1, "drawOrder": null, "icon": null, "snippet": null}, "geometry": {"type": "Polygon", "coordinates": [[[-60.74280965178019, -4.126965575392767, 0.0], [-60.74289481340976, -4.126913287502814, 0.0], [-60.74296539461488, -4.126945622216051, 0.0], [-60.74298023258245, -4.126885413802767, 0.0], [-60.74296366191914, -4.126614908036463, 0.0], [-60.74291589659259, -4.126530421068373, 0.0], [-60.74288918255132, -4.126546411835652, 0.0], [-60.74288109118578, -4.12657852248254, 0.0], [-60.7427721165568, -4.126448338469358, 0.0], [-60.74274405773986, -4.126468342112682, 0.0], [-60.74270685022117, -4.126422713421854, 0.0], [-60.74266318734572, -4.126302087746877, 0.0], [-60.74258589744495, -4.12628446187564, 0.0], [-60.7426559982365, -4.126486835962515, 0.0], [-60.74262529146375, -4.126500137539958, 0.0], [-60.74258933417389, -4.126483968284168, 0.0], [-60.7425666279966, -4.126497292646218, 0.0], [-60.74268905037842, -4.12658734786755, 0.0], [-60.74268616791652, -4.126663657161549, 0.0], [-60.74274072897833, -4.12670264076689, 0.0], [-60.74271105302922, -4.126823057567204, 0.0], [-60.74261523119311, -4.126757178360152, 0.0], [-60.74252722083532, -4.126758266571986, 0.0], [-60.74240474172598, -4.12668829470971, 0.0], [-60.74242995211149, -4.126732550333713, 0.0], [-60.74251514050002, -4.126786349132883, 0.0], [-60.74251906892504, -4.126811799487935, 0.0], [-60.74266943668493, -4.12692201789309, 0.0], [-60.74269479839677, -4.126912717808574, 0.0], [-60.74275468942096, -4.12695305550772, 0.0], [-60.74280965178019, -4.126965575392767, 0.0]]]}}, {"id": "29", "type": "Feature", "properties": {"id": "ID_00029", "Name": "30", "descriptio": "<html xmlns:fo=\"http://www.w3.org/1999/XSL/Format\" xmlns:msxsl=\"urn:schemas-microsoft-com:xslt\">\n\n<head>\n\n<META http-equiv=\"Content-Type\" content=\"text/html\">\n\n<meta http-equiv=\"content-type\" content=\"text/html; charset=UTF-8\">\n\n</head>\n\n<body style=\"mar", "timestamp": null, "begin": null, "end": null, "altitudeMo": null, "tessellate": -1, "extrude": 0, "visibility": -1, "drawOrder": null, "icon": null, "snippet": null}, "geometry": {"type": "Polygon", "coordinates": [[[-60.75147821115944, -4.133450731829054, 0.0], [-60.75149640938025, -4.133419431832986, 0.0], [-60.75149905028411, -4.133350642950869, 0.0], [-60.75158501021451, -4.133239093079641, 0.0], [-60.75158018893378, -4.133213280733641, 0.0], [-60.75159614633851, -4.133194898470908, 0.0], [-60.75163899299265, -4.133186420666234, 0.0], [-60.75166111289286, -4.133152085319372, 0.0], [-60.75169663587042, -4.133137444165657, 0.0], [-60.75175310717395, -4.133070036721408, 0.0], [-60.75172133778132, -4.133055204374178, 0.0], [-60.75150704222182, -4.133119706360865, 0.0], [-60.75135786903058, -4.133086112789179, 0.0], [-60.75130391741914, -4.133127728704969, 0.0], [-60.75123905128687, -4.133134915408976, 0.0], [-60.75118753973759, -4.133178995259262, 0.0], [-60.75114721973603, -4.133159224565552, 0.0], [-60.75108230165997, -4.133184838705366, 0.0], [-60.75121783974544, -4.133281047423296, 0.0], [-60.7513387720806, -4.133350187478935, 0.0], [-60.75138996160337, -4.133420357839224, 0.0], [-60.75147821115944, -4.133450731829054, 0.0]]]}}, {"id": "30", "type": "Feature", "properties": {"id": "ID_00030", "Name": "31", "descriptio": "<html xmlns:fo=\"http://www.w3.org/1999/XSL/Format\" xmlns:msxsl=\"urn:schemas-microsoft-com:xslt\">\n\n<head>\n\n<META http-equiv=\"Content-Type\" content=\"text/html\">\n\n<meta http-equiv=\"content-type\" content=\"text/html; charset=UTF-8\">\n\n</head>\n\n<body style=\"mar", "timestamp": null, "begin": null, "end": null, "altitudeMo": null, "tessellate": -1, "extrude": 0, "visibility": -1, "drawOrder": null, "icon": null, "snippet": null}, "geometry": {"type": "Polygon", "coordinates": [[[-60.77218627337759, -4.148777923998826, 0.0], [-60.7722851348201, -4.148869193368583, 0.0], [-60.77239259908913, -4.14896844266538, 0.0], [-60.77245812510415, -4.149029314478082, 0.0], [-60.77253922222047, -4.149160151871805, 0.0], [-60.77253504749103, -4.149243254408135, 0.0], [-60.77256122610595, -4.149278948812031, 0.0], [-60.77262157041764, -4.14931342048482, 0.0], [-60.77265176476232, -4.149322740731868, 0.0], [-60.77272012573685, -4.149309741143446, 0.0], [-60.7727622748054, -4.149272920529712, 0.0], [-60.77287809229476, -4.149204645443837, 0.0], [-60.77292479313098, -4.14895015722063, 0.0], [-60.77290790807371, -4.148880187918809, 0.0], [-60.77277687074552, -4.148753167284003, 0.0], [-60.7726901629751, -4.148748964490685, 0.0], [-60.77264011192711, -4.148792359164493, 0.0], [-60.77255624275507, -4.148712965690516, 0.0], [-60.77249190864881, -4.148695633341525, 0.0], [-60.77245524455155, -4.148650674394813, 0.0], [-60.77237774905444, -4.148641220502919, 0.0], [-60.77231461056107, -4.148666108321233, 0.0], [-60.77221199155389, -4.148713312240565, 0.0], [-60.77218431044923, -4.148744896613458, 0.0], [-60.77218627337759, -4.148777923998826, 0.0]]]}}, {"id": "31", "type": "Feature", "properties": {"id": "ID_00031", "Name": "32", "descriptio": "<html xmlns:fo=\"http://www.w3.org/1999/XSL/Format\" xmlns:msxsl=\"urn:schemas-microsoft-com:xslt\">\n\n<head>\n\n<META http-equiv=\"Content-Type\" content=\"text/html\">\n\n<meta http-equiv=\"content-type\" content=\"text/html; charset=UTF-8\">\n\n</head>\n\n<body style=\"mar", "timestamp": null, "begin": null, "end": null, "altitudeMo": null, "tessellate": -1, "extrude": 0, "visibility": -1, "drawOrder": null, "icon": null, "snippet": null}, "geometry": {"type": "Polygon", "coordinates": [[[-60.79614865360663, -4.166906617229696, 0.0], [-60.79647415011896, -4.167164645170477, 0.0], [-60.79661700426266, -4.167193748804426, 0.0], [-60.79686104634425, -4.167158077211682, 0.0], [-60.79716174535872, -4.167308174760402, 0.0], [-60.79743591795637, -4.16740270608612, 0.0], [-60.79749697246081, -4.167378001819634, 0.0], [-60.79756349931756, -4.167441334267642, 0.0], [-60.7977177724112, -4.16747621031627, 0.0], [-60.79799180675952, -4.167620492345438, 0.0], [-60.79803433059772, -4.167406298699501, 0.0], [-60.79817776539358, -4.167226831279649, 0.0], [-60.79772832392598, -4.167108846358236, 0.0], [-60.79745056344337, -4.166933937773928, 0.0], [-60.79726542501674, -4.167032920651134, 0.0], [-60.79687280606071, -4.167041386288637, 0.0], [-60.79683487677472, -4.166974307082449, 0.0], [-60.79662336101701, -4.166964145839299, 0.0], [-60.79657013750938, -4.166914245262314, 0.0], [-60.79645400705931, -4.166869908614728, 0.0], [-60.79635135567815, -4.166775858630045, 0.0], [-60.79627488442935, -4.166861751734472, 0.0], [-60.79614865360663, -4.166906617229696, 0.0]]]}}, {"id": "32", "type": "Feature", "properties": {"id": "ID_00032", "Name": "33", "descriptio": "<html xmlns:fo=\"http://www.w3.org/1999/XSL/Format\" xmlns:msxsl=\"urn:schemas-microsoft-com:xslt\">\n\n<head>\n\n<META http-equiv=\"Content-Type\" content=\"text/html\">\n\n<meta http-equiv=\"content-type\" content=\"text/html; charset=UTF-8\">\n\n</head>\n\n<body style=\"mar", "timestamp": null, "begin": null, "end": null, "altitudeMo": null, "tessellate": -1, "extrude": 0, "visibility": -1, "drawOrder": null, "icon": null, "snippet": null}, "geometry": {"type": "Polygon", "coordinates": [[[-60.79761734710269, -4.168293988228193, 0.0], [-60.79727605929571, -4.168005012337248, 0.0], [-60.79697605622089, -4.168289282761869, 0.0], [-60.79691532138003, -4.168199177414418, 0.0], [-60.79659277911112, -4.168364746887229, 0.0], [-60.79657184206542, -4.168355120561964, 0.0], [-60.79640360478724, -4.168544085259615, 0.0], [-60.79636325800107, -4.168660695836477, 0.0], [-60.7964085705126, -4.168813903608779, 0.0], [-60.7968035011092, -4.1686600186386, 0.0], [-60.79686459303285, -4.168621920040032, 0.0], [-60.79695232872776, -4.168597290791979, 0.0], [-60.79698863469542, -4.168562949599673, 0.0], [-60.79704589370851, -4.168532494245704, 0.0], [-60.79708995605888, -4.16845033713901, 0.0], [-60.79718903057131, -4.168460182816946, 0.0], [-60.79742361877572, -4.168397695594821, 0.0], [-60.79761734710269, -4.168293988228193, 0.0]]]}}, {"id": "33", "type": "Feature", "properties": {"id": "ID_00033", "Name": "34", "descriptio": "<html xmlns:fo=\"http://www.w3.org/1999/XSL/Format\" xmlns:msxsl=\"urn:schemas-microsoft-com:xslt\">\n\n<head>\n\n<META http-equiv=\"Content-Type\" content=\"text/html\">\n\n<meta http-equiv=\"content-type\" content=\"text/html; charset=UTF-8\">\n\n</head>\n\n<body style=\"mar", "timestamp": null, "begin": null, "end": null, "altitudeMo": null, "tessellate": -1, "extrude": 0, "visibility": -1, "drawOrder": null, "icon": null, "snippet": null}, "geometry": {"type": "Polygon", "coordinates": [[[-60.80024646298756, -4.17019463023803, 0.0], [-60.80026227662, -4.17031184866937, 0.0], [-60.80021226933588, -4.170304532747878, 0.0], [-60.80019079714476, -4.170315953591341, 0.0], [-60.8002034896017, -4.170377699926346, 0.0], [-60.80026059173407, -4.170403692484566, 0.0], [-60.8002790295456, -4.170455409001874, 0.0], [-60.80030613130174, -4.170475576883171, 0.0], [-60.80029874498013, -4.17056166417551, 0.0], [-60.8002414152357, -4.170617473580069, 0.0], [-60.80019280134695, -4.170623077755967, 0.0], [-60.8001255939239, -4.170632935173032, 0.0], [-60.80013691292277, -4.170674585789401, 0.0], [-60.80014544909312, -4.170688961067111, 0.0], [-60.80020119775838, -4.170687682309549, 0.0], [-60.80024258902937, -4.170709325411439, 0.0], [-60.8003155218521, -4.170696613778873, 0.0], [-60.80037241637747, -4.170797232704878, 0.0], [-60.80044247453991, -4.170790253535226, 0.0], [-60.8004365814494, -4.170853382885108, 0.0], [-60.80054232947948, -4.170862290281189, 0.0], [-60.80055952561394, -4.170846552039375, 0.0], [-60.80057974414655, -4.170771981790026, 0.0], [-60.8006671781012, -4.170684683834838, 0.0], [-60.80066164035077, -4.170620087282813, 0.0], [-60.80073186218448, -4.170554268046991, 0.0], [-60.80069625616138, -4.170508243915712, 0.0], [-60.80056072335469, -4.170416015280345, 0.0], [-60.80043657747854, -4.170341040175401, 0.0], [-60.80024646298756, -4.17019463023803, 0.0]]]}}, {"id": "34", "type": "Feature", "properties": {"id": "ID_00034", "Name": "35", "descriptio": "<html xmlns:fo=\"http://www.w3.org/1999/XSL/Format\" xmlns:msxsl=\"urn:schemas-microsoft-com:xslt\">\n\n<head>\n\n<META http-equiv=\"Content-Type\" content=\"text/html\">\n\n<meta http-equiv=\"content-type\" content=\"text/html; charset=UTF-8\">\n\n</head>\n\n<body style=\"mar", "timestamp": null, "begin": null, "end": null, "altitudeMo": null, "tessellate": -1, "extrude": 0, "visibility": -1, "drawOrder": null, "icon": null, "snippet": null}, "geometry": {"type": "Polygon", "coordinates": [[[-60.80216370589567, -4.172584872318322, 0.0], [-60.8022374288218, -4.172689470409671, 0.0], [-60.80229371239369, -4.172681155089411, 0.0], [-60.80234146270789, -4.172706708327414, 0.0], [-60.80242267055775, -4.17283968157611, 0.0], [-60.80242810018962, -4.172910306149135, 0.0], [-60.80261620999903, -4.173040754736087, 0.0], [-60.80267507883541, -4.173114353507139, 0.0], [-60.8027256657586, -4.173131441570283, 0.0], [-60.80284047265894, -4.173320996520448, 0.0], [-60.80287707312368, -4.173309801624738, 0.0], [-60.80299771028621, -4.173425939176933, 0.0], [-60.80315235485465, -4.173451792045124, 0.0], [-60.80310759023483, -4.173364110932551, 0.0], [-60.80302078763072, -4.173219824484438, 0.0], [-60.80286950588135, -4.172996274804092, 0.0], [-60.80221659786286, -4.172087820416319, 0.0], [-60.80212358827464, -4.172152520263633, 0.0], [-60.80217960475188, -4.172240232885594, 0.0], [-60.8021681956655, -4.172296688371652, 0.0], [-60.80219603503105, -4.172401268244064, 0.0], [-60.80216370589567, -4.172584872318322, 0.0]]]}}, {"id": "35", "type": "Feature", "properties": {"id": "ID_00035", "Name": "36", "descriptio": "<html xmlns:fo=\"http://www.w3.org/1999/XSL/Format\" xmlns:msxsl=\"urn:schemas-microsoft-com:xslt\">\n\n<head>\n\n<META http-equiv=\"Content-Type\" content=\"text/html\">\n\n<meta http-equiv=\"content-type\" content=\"text/html; charset=UTF-8\">\n\n</head>\n\n<body style=\"mar", "timestamp": null, "begin": null, "end": null, "altitudeMo": null, "tessellate": -1, "extrude": 0, "visibility": -1, "drawOrder": null, "icon": null, "snippet": null}, "geometry": {"type": "Polygon", "coordinates": [[[-60.80459999780062, -4.175830070676156, 0.0], [-60.8047380559728, -4.175926081793973, 0.0], [-60.80478292188576, -4.175760606553348, 0.0], [-60.80451175655094, -4.175180243218289, 0.0], [-60.80440488854078, -4.174829634024286, 0.0], [-60.80413951826051, -4.174446734349296, 0.0], [-60.80386100054113, -4.174229398758638, 0.0], [-60.80374677979921, -4.174241817156246, 0.0], [-60.80428015173685, -4.17520188655119, 0.0], [-60.80443813180705, -4.175422069038353, 0.0], [-60.80442218416204, -4.17545387067702, 0.0], [-60.80459999780062, -4.175830070676156, 0.0]]]}}, {"id": "36", "type": "Feature", "properties": {"id": "ID_00036", "Name": "37", "descriptio": "<html xmlns:fo=\"http://www.w3.org/1999/XSL/Format\" xmlns:msxsl=\"urn:schemas-microsoft-com:xslt\">\n\n<head>\n\n<META http-equiv=\"Content-Type\" content=\"text/html\">\n\n<meta http-equiv=\"content-type\" content=\"text/html; charset=UTF-8\">\n\n</head>\n\n<body style=\"mar", "timestamp": null, "begin": null, "end": null, "altitudeMo": null, "tessellate": -1, "extrude": 0, "visibility": -1, "drawOrder": null, "icon": null, "snippet": null}, "geometry": {"type": "Polygon", "coordinates": [[[-60.80400098446962, -4.175665777202876, 0.0], [-60.80396383634456, -4.175715978885583, 0.0], [-60.80397879203058, -4.175746221662495, 0.0], [-60.80396828427183, -4.175806593899656, 0.0], [-60.80399462207987, -4.175800061303836, 0.0], [-60.80400209992354, -4.175815182692521, 0.0], [-60.8039916630305, -4.175850073163295, 0.0], [-60.80404882857579, -4.175912522681738, 0.0], [-60.8041127104723, -4.175925914647491, 0.0], [-60.80409752118538, -4.175979667329539, 0.0], [-60.80411724239519, -4.175986329054505, 0.0], [-60.80411434371445, -4.176014634225662, 0.0], [-60.80410210035007, -4.176023093890003, 0.0], [-60.80410949158045, -4.176069359664424, 0.0], [-60.80416390282272, -4.176108207049914, 0.0], [-60.80423724228496, -4.176100862442849, 0.0], [-60.80426743713628, -4.176059420917604, 0.0], [-60.80424134602259, -4.175977239204017, 0.0], [-60.80426300230999, -4.175964087040297, 0.0], [-60.80425843625688, -4.175915941629557, 0.0], [-60.80421717161323, -4.175881849992312, 0.0], [-60.80421631561633, -4.175851646739701, 0.0], [-60.80415919466947, -4.175773153151162, 0.0], [-60.80406071724724, -4.175693599850599, 0.0], [-60.80400098446962, -4.175665777202876, 0.0]]]}}, {"id": "37", "type": "Feature", "properties": {"id": "ID_00037", "Name": "38", "descriptio": "<html xmlns:fo=\"http://www.w3.org/1999/XSL/Format\" xmlns:msxsl=\"urn:schemas-microsoft-com:xslt\">\n\n<head>\n\n<META http-equiv=\"Content-Type\" content=\"text/html\">\n\n<meta http-equiv=\"content-type\" content=\"text/html; charset=UTF-8\">\n\n</head>\n\n<body style=\"mar", "timestamp": null, "begin": null, "end": null, "altitudeMo": null, "tessellate": -1, "extrude": 0, "visibility": -1, "drawOrder": null, "icon": null, "snippet": null}, "geometry": {"type": "Polygon", "coordinates": [[[-60.80564696343657, -4.178368981305959, 0.0], [-60.80546670422495, -4.178463801325925, 0.0], [-60.80552870528549, -4.178555652683728, 0.0], [-60.80543926860728, -4.178628326898278, 0.0], [-60.80533916596971, -4.178805150699656, 0.0], [-60.80509151516129, -4.179056569667464, 0.0], [-60.80523009079598, -4.179223644817847, 0.0], [-60.80545807972658, -4.179326378871783, 0.0], [-60.80549514888196, -4.179428578728431, 0.0], [-60.80556164835133, -4.179395427919178, 0.0], [-60.80565503844922, -4.179393605892685, 0.0], [-60.80571903420605, -4.179514633056368, 0.0], [-60.80582048762533, -4.179598261013418, 0.0], [-60.80610723106383, -4.179467799062181, 0.0], [-60.80608065339942, -4.179323957896819, 0.0], [-60.80593450727168, -4.178894330171718, 0.0], [-60.80567778949836, -4.178674834438611, 0.0], [-60.80570905083199, -4.178626999498946, 0.0], [-60.80571554303781, -4.178531173137645, 0.0], [-60.80567399885592, -4.178545642330064, 0.0], [-60.80563676692321, -4.178501782393894, 0.0], [-60.80567021900537, -4.178412281863835, 0.0], [-60.80564696343657, -4.178368981305959, 0.0]]]}}]}