{"type": "FeatureCollection", "features": [{"id": "0", "type": "Feature", "properties": {"id": null, "Name": "\u00c1rea 62", "descriptio": "DISCRIMINA\u00c7\u00c3O E CLASSIFICA\u00c7\u00c3O DO PROBLEMA\nSC \u2013 Sem cobertura\n\nLOCALIZA\u00c7\u00c3O\nDist\u00e2ncia do eixo (m) 0\n\nDIMENS\u00d5ES (m)\nComprimento 40\nLargura 20\nAltura 0\n\nSOLU\u00c7\u00c3O\nCercamento da \u00e1rea, prote\u00e7\u00e3o vegetal (PVE) com mudas, biomanta e leguminosas. Impl", "timestamp": null, "begin": null, "end": null, "altitudeMo": null, "tessellate": -1, "extrude": 0, "visibility": -1, "drawOrder": null, "icon": null}, "geometry": {"type": "Point", "coordinates": [-61.30281129379027, -4.736329837648116, 0.0]}}, {"id": "1", "type": "Feature", "properties": {"id": null, "Name": "\u00c1rea 63", "descriptio": "DISCRIMINA\u00c7\u00c3O E CLASSIFICA\u00c7\u00c3O DO PROBLEMA\nSC \u2013 Sem cobertura\n\nLOCALIZA\u00c7\u00c3O\nDist\u00e2ncia do eixo (m) 0\n\nDIMENS\u00d5ES (m)\nComprimento 40\nLargura 20\nAltura 0\n\nSOLU\u00c7\u00c3O\nCercamento da \u00e1rea, prote\u00e7\u00e3o vegetal (PVE) com mudas, biomanta e leguminosas. Impl", "timestamp": null, "begin": null, "end": null, "altitudeMo": null, "tessellate": -1, "extrude": 0, "visibility": -1, "drawOrder": null, "icon": null}, "geometry": {"type": "Point", "coordinates": [-61.350601672151, -4.792189196233005, 0.0]}}, {"id": "2", "type": "Feature", "properties": {"id": null, "Name": "\u00c1rea 64", "descriptio": "DISCRIMINA\u00c7\u00c3O E CLASSIFICA\u00c7\u00c3O DO PROBLEMA\nER (33) - Eros\u00e3o (Ravinamento), SC \u2013 Sem cobertura\n\nLOCALIZA\u00c7\u00c3O\nDist\u00e2ncia do eixo (m) 2,0\n\nDIMENS\u00d5ES (m)\nComprimento 17,20\nLargura 23,82\nAltura 2,0\n\nSOLU\u00c7\u00c3O\nDescompacta\u00e7\u00e3o, aduba\u00e7\u00e3o e corre\u00e7\u00e3o", "timestamp": null, "begin": null, "end": null, "altitudeMo": null, "tessellate": -1, "extrude": 0, "visibility": -1, "drawOrder": null, "icon": null}, "geometry": {"type": "Point", "coordinates": [-61.40997361187089, -4.845723063544593, 0.0]}}, {"id": "3", "type": "Feature", "properties": {"id": null, "Name": "\u00c1rea 65", "descriptio": "DISCRIMINA\u00c7\u00c3O E CLASSIFICA\u00c7\u00c3O DO PROBLEMA\nSC \u2013 Sem cobertura\n\nLOCALIZA\u00c7\u00c3O\nDist\u00e2ncia do eixo (m) 0\n\nDIMENS\u00d5ES (m)\nComprimento 30\nLargura 10\n\nSOLU\u00c7\u00c3O\nCercamento da \u00e1rea, prote\u00e7\u00e3o vegetal (PVE) com mudas, biomanta e\nleguminosas. Implanta\u00e7\u00e3o", "timestamp": null, "begin": null, "end": null, "altitudeMo": null, "tessellate": -1, "extrude": 0, "visibility": -1, "drawOrder": null, "icon": null}, "geometry": {"type": "Point", "coordinates": [-61.40288935814391, -4.839266505171516, 0.0]}}, {"id": "4", "type": "Feature", "properties": {"id": null, "Name": "\u00c1rea 66", "descriptio": "DISCRIMINA\u00c7\u00c3O E CLASSIFICA\u00c7\u00c3O DO PROBLEMA\nER (33) - Eros\u00e3o (Ravinamento), SC \u2013 Sem cobertura\n\nLOCALIZA\u00c7\u00c3O\nDist\u00e2ncia do eixo (m) 10,4\n\nDIMENS\u00d5ES (m)\nComprimento 51\nLargura 55\nAltura 3,0\n\nSOLU\u00c7\u00c3O\nDescompacta\u00e7\u00e3o, aduba\u00e7\u00e3o e corre\u00e7\u00e3o de so", "timestamp": null, "begin": null, "end": null, "altitudeMo": null, "tessellate": -1, "extrude": 0, "visibility": -1, "drawOrder": null, "icon": null}, "geometry": {"type": "Point", "coordinates": [-61.41327501261513, -4.848264671452075, 0.0]}}, {"id": "5", "type": "Feature", "properties": {"id": null, "Name": "\u00c1rea 67", "descriptio": "DISCRIMINA\u00c7\u00c3O E CLASSIFICA\u00c7\u00c3O DO PROBLEMA\nER (33) - Eros\u00e3o (Ravinamento), SC \u2013 Sem cobertura\n\nLOCALIZA\u00c7\u00c3O\nDist\u00e2ncia do eixo (m) 16,0\n\nDIMENS\u00d5ES (m)\nComprimento 34,20\nLargura 46,52\nAltura 3,0\n\nSOLU\u00c7\u00c3O\nDescompacta\u00e7\u00e3o, aduba\u00e7\u00e3o e corre\u00e7\u00e3o", "timestamp": null, "begin": null, "end": null, "altitudeMo": null, "tessellate": -1, "extrude": 0, "visibility": -1, "drawOrder": null, "icon": null}, "geometry": {"type": "Point", "coordinates": [-61.41304681891619, -4.848546348941842, 0.0]}}, {"id": "6", "type": "Feature", "properties": {"id": null, "Name": "\u00c1rea 68", "descriptio": "DISCRIMINA\u00c7\u00c3O E CLASSIFICA\u00c7\u00c3O DO PROBLEMA\nER (33) - Eros\u00e3o (Ravinamento), SC \u2013 Sem cobertura\n\nLOCALIZA\u00c7\u00c3O\nDist\u00e2ncia do eixo (m) 42,0\n\nDIMENS\u00d5ES (m)\nComprimento 104,0\nLargura 141,2\nAltura 2,5\n\nSOLU\u00c7\u00c3O\nDescompacta\u00e7\u00e3o, aduba\u00e7\u00e3o e corre\u00e7\u00e3o", "timestamp": null, "begin": null, "end": null, "altitudeMo": null, "tessellate": -1, "extrude": 0, "visibility": -1, "drawOrder": null, "icon": null}, "geometry": {"type": "Point", "coordinates": [-61.41756475494353, -4.852478536591043, 0.0]}}, {"id": "7", "type": "Feature", "properties": {"id": null, "Name": "\u00c1rea 69", "descriptio": null, "timestamp": null, "begin": null, "end": null, "altitudeMo": null, "tessellate": -1, "extrude": 0, "visibility": -1, "drawOrder": null, "icon": null}, "geometry": {"type": "Point", "coordinates": [-61.41860695356987, -4.852168027271509, 0.0]}}, {"id": "8", "type": "Feature", "properties": {"id": null, "Name": "\u00c1rea 70", "descriptio": "DISCRIMINA\u00c7\u00c3O E CLASSIFICA\u00c7\u00c3O DO PROBLEMA\nER (33) - Eros\u00e3o (Ravinamento), SC \u2013 Sem cobertura\n\nLOCALIZA\u00c7\u00c3O\nDist\u00e2ncia do eixo (m) 17,80\n\nDIMENS\u00d5ES (m)\nComprimento 125,9\nLargura 82,87\nAltura 2,0\n\nSOLU\u00c7\u00c3O\nDescompacta\u00e7\u00e3o, aduba\u00e7\u00e3o e corre\u00e7\u00e3", "timestamp": null, "begin": null, "end": null, "altitudeMo": null, "tessellate": -1, "extrude": 0, "visibility": -1, "drawOrder": null, "icon": null}, "geometry": {"type": "Point", "coordinates": [-61.41898884685259, -4.854239837230501, 0.0]}}, {"id": "9", "type": "Feature", "properties": {"id": null, "Name": "\u00c1rea 71", "descriptio": "DISCRIMINA\u00c7\u00c3O E CLASSIFICA\u00c7\u00c3O DO PROBLEMA\nER (33) - Eros\u00e3o (Ravinamento), SC \u2013 Sem cobertura\n\nLOCALIZA\u00c7\u00c3O\nDist\u00e2ncia do eixo (m) 0\n\nDIMENS\u00d5ES (m)\nComprimento 100\nLargura 30\n\nSOLU\u00c7\u00c3O\nCercamento da \u00e1rea, prote\u00e7\u00e3o vegetal (PVE) com mudas, bio", "timestamp": null, "begin": null, "end": null, "altitudeMo": null, "tessellate": -1, "extrude": 0, "visibility": -1, "drawOrder": null, "icon": null}, "geometry": {"type": "Point", "coordinates": [-61.41439741044135, -4.849731439995843, 0.0]}}, {"id": "10", "type": "Feature", "properties": {"id": null, "Name": "\u00c1rea 72", "descriptio": "DISCRIMINA\u00c7\u00c3O E CLASSIFICA\u00c7\u00c3O DO PROBLEMA\nER (33) - Eros\u00e3o (Ravinamento), SC \u2013 Sem cobertura\n\nLOCALIZA\u00c7\u00c3O\nDist\u00e2ncia do eixo (m) 5,35\n\nDIMENS\u00d5ES (m)\nComprimento 55,37\nLargura 43,96\nAltura 2,0\n\nSOLU\u00c7\u00c3O\nDescompacta\u00e7\u00e3o, aduba\u00e7\u00e3o e corre\u00e7\u00e3o", "timestamp": null, "begin": null, "end": null, "altitudeMo": null, "tessellate": -1, "extrude": 0, "visibility": -1, "drawOrder": null, "icon": null}, "geometry": {"type": "Point", "coordinates": [-61.42757295163408, -4.866290325631083, 0.0]}}, {"id": "11", "type": "Feature", "properties": {"id": null, "Name": "\u00c1rea 73", "descriptio": "DISCRIMINA\u00c7\u00c3O E CLASSIFICA\u00c7\u00c3O DO PROBLEMA\nSC \u2013 Sem cobertura\n\nLOCALIZA\u00c7\u00c3O\nDist\u00e2ncia do eixo (m) 0\n\nDIMENS\u00d5ES (m)\nComprimento 50\nLargura 10\n\nSOLU\u00c7\u00c3O\nCercamento da \u00e1rea, prote\u00e7\u00e3o vegetal (PVE) com mudas, biomanta e\nleguminosas. Implanta\u00e7\u00e3o", "timestamp": null, "begin": null, "end": null, "altitudeMo": null, "tessellate": -1, "extrude": 0, "visibility": -1, "drawOrder": null, "icon": null}, "geometry": {"type": "Point", "coordinates": [-61.43260720429422, -4.874409447170317, 0.0]}}, {"id": "12", "type": "Feature", "properties": {"id": null, "Name": "\u00c1rea 74", "descriptio": "DISCRIMINA\u00c7\u00c3O E CLASSIFICA\u00c7\u00c3O DO PROBLEMA\nSC \u2013 Sem cobertura\n\nLOCALIZA\u00c7\u00c3O\nDist\u00e2ncia do eixo (m) 0\n\nDIMENS\u00d5ES (m)\nComprimento 60\nLargura 20\n\nSOLU\u00c7\u00c3O\nCercamento da \u00e1rea, prote\u00e7\u00e3o vegetal (PVE) com mudas, biomanta e leguminosas. Implanta\u00e7\u00e3o", "timestamp": null, "begin": null, "end": null, "altitudeMo": null, "tessellate": -1, "extrude": 0, "visibility": -1, "drawOrder": null, "icon": null}, "geometry": {"type": "Point", "coordinates": [-61.43367732481737, -4.876217487240964, 0.0]}}, {"id": "13", "type": "Feature", "properties": {"id": null, "Name": "\u00c1rea 75", "descriptio": "DISCRIMINA\u00c7\u00c3O E CLASSIFICA\u00c7\u00c3O DO PROBLEMA\nER (33) - Eros\u00e3o (Ravinamento), SC \u2013 Sem cobertura\n\nLOCALIZA\u00c7\u00c3O\nDist\u00e2ncia do eixo (m) 2,0\n\nDIMENS\u00d5ES (m)\nComprimento 66,93\nLargura 174,23\nAltura 5,5\n\nSOLU\u00c7\u00c3O\nDescompacta\u00e7\u00e3o, aduba\u00e7\u00e3o e corre\u00e7\u00e3o", "timestamp": null, "begin": null, "end": null, "altitudeMo": null, "tessellate": -1, "extrude": 0, "visibility": -1, "drawOrder": null, "icon": null}, "geometry": {"type": "Point", "coordinates": [-61.46185402555902, -4.901772400675235, 0.0]}}, {"id": "14", "type": "Feature", "properties": {"id": null, "Name": "\u00c1rea 76", "descriptio": "DISCRIMINA\u00c7\u00c3O E CLASSIFICA\u00c7\u00c3O DO PROBLEMA\nER (33) - Eros\u00e3o (Ravinamento), SC \u2013 Sem cobertura\n\nLOCALIZA\u00c7\u00c3O\nDist\u00e2ncia do eixo (m) 6,8\n\nDIMENS\u00d5ES (m)\nComprimento 35,24\nLargura 73,74\nAltura 2,5\n\nSOLU\u00c7\u00c3O\nDescompacta\u00e7\u00e3o, aduba\u00e7\u00e3o e corre\u00e7\u00e3o", "timestamp": null, "begin": null, "end": null, "altitudeMo": null, "tessellate": -1, "extrude": 0, "visibility": -1, "drawOrder": null, "icon": null}, "geometry": {"type": "Point", "coordinates": [-61.46187267639422, -4.902037087440675, 0.0]}}, {"id": "15", "type": "Feature", "properties": {"id": null, "Name": "\u00c1rea 77", "descriptio": "DISCRIMINA\u00c7\u00c3O E CLASSIFICA\u00c7\u00c3O DO PROBLEMA\nER (33) - Eros\u00e3o (Ravinamento), SC \u2013 Sem cobertura\n\nLOCALIZA\u00c7\u00c3O\nDist\u00e2ncia do eixo (m) 8,0\n\nDIMENS\u00d5ES (m)\nComprimento 128,2\nLargura 98,9\nAltura 4,0\n\nSOLU\u00c7\u00c3O\nDescompacta\u00e7\u00e3o, aduba\u00e7\u00e3o e corre\u00e7\u00e3o d", "timestamp": null, "begin": null, "end": null, "altitudeMo": null, "tessellate": -1, "extrude": 0, "visibility": -1, "drawOrder": null, "icon": null}, "geometry": {"type": "Point", "coordinates": [-61.4695237775569, -4.905837622399231, 0.0]}}, {"id": "16", "type": "Feature", "properties": {"id": null, "Name": "\u00c1rea 78", "descriptio": "DISCRIMINA\u00c7\u00c3O E CLASSIFICA\u00c7\u00c3O DO PROBLEMA\nSC \u2013 Sem cobertura\n\nLOCALIZA\u00c7\u00c3O\nDist\u00e2ncia do eixo (m) 0\n\nDIMENS\u00d5ES (m)\nComprimento 110\nLargura 20\n\nSOLU\u00c7\u00c3O\nCercamento da \u00e1rea, prote\u00e7\u00e3o vegetal (PVE) com mudas, biomanta e leguminosas. Implanta\u00e7\u00e3", "timestamp": null, "begin": null, "end": null, "altitudeMo": null, "tessellate": -1, "extrude": 0, "visibility": -1, "drawOrder": null, "icon": null}, "geometry": {"type": "Point", "coordinates": [-61.46698594413287, -4.904290363533508, 0.0]}}, {"id": "17", "type": "Feature", "properties": {"id": null, "Name": "\u00c1rea 79", "descriptio": "DISCRIMINA\u00c7\u00c3O E CLASSIFICA\u00c7\u00c3O DO PROBLEMA\nER (33) - Eros\u00e3o (Ravinamento), SC \u2013 Sem cobertura\n\nLOCALIZA\u00c7\u00c3O\nDist\u00e2ncia do eixo (m) 28,38\n\nDIMENS\u00d5ES (m)\nComprimento 82,60\nLargura 88,41\nAltura 2,5\n\nSOLU\u00c7\u00c3O\nDescompacta\u00e7\u00e3o, aduba\u00e7\u00e3o e corre\u00e7\u00e3", "timestamp": null, "begin": null, "end": null, "altitudeMo": null, "tessellate": -1, "extrude": 0, "visibility": -1, "drawOrder": null, "icon": null}, "geometry": {"type": "Point", "coordinates": [-61.50329354573732, -4.925406692798613, 0.0]}}, {"id": "18", "type": "Feature", "properties": {"id": null, "Name": "\u00c1rea 80", "descriptio": "DISCRIMINA\u00c7\u00c3O E CLASSIFICA\u00c7\u00c3O DO PROBLEMA\nSC \u2013 Sem cobertura\n\nLOCALIZA\u00c7\u00c3O\nDist\u00e2ncia do eixo (m) 0\n\nDIMENS\u00d5ES (m)\nComprimento 50\nLargura 15\n\nSOLU\u00c7\u00c3O\nCercamento da \u00e1rea e prote\u00e7\u00e3o vegetal (PVE) com mudas e leguminosas. Implanta\u00e7\u00e3o placa.\n\n", "timestamp": null, "begin": null, "end": null, "altitudeMo": null, "tessellate": -1, "extrude": 0, "visibility": -1, "drawOrder": null, "icon": null}, "geometry": {"type": "Point", "coordinates": [-61.5050364026078, -4.926976543417909, 0.0]}}, {"id": "19", "type": "Feature", "properties": {"id": null, "Name": "\u00c1rea 81", "descriptio": "DISCRIMINA\u00c7\u00c3O E CLASSIFICA\u00c7\u00c3O DO PROBLEMA\nER (33) - Eros\u00e3o (Ravinamento), SC \u2013 Sem cobertura\n\nLOCALIZA\u00c7\u00c3O\nDist\u00e2ncia do eixo (m) 13,51\n\nDIMENS\u00d5ES (m)\nComprimento 79,51\nLargura 60,46\nAltura 2,0\n\nSOLU\u00c7\u00c3O\nDescompacta\u00e7\u00e3o, aduba\u00e7\u00e3o e corre\u00e7\u00e3", "timestamp": null, "begin": null, "end": null, "altitudeMo": null, "tessellate": -1, "extrude": 0, "visibility": -1, "drawOrder": null, "icon": null}, "geometry": {"type": "Point", "coordinates": [-61.52370573419202, -4.941627758226571, 0.0]}}, {"id": "20", "type": "Feature", "properties": {"id": null, "Name": "\u00c1rea 82", "descriptio": "DISCRIMINA\u00c7\u00c3O E CLASSIFICA\u00c7\u00c3O DO PROBLEMA\nER (33) - Eros\u00e3o (Ravinamento), SC \u2013 Sem cobertura\n\nLOCALIZA\u00c7\u00c3O\nDist\u00e2ncia do eixo (m) 0\n\nDIMENS\u00d5ES (m)\nComprimento 150\nLargura 35\n\nSOLU\u00c7\u00c3O\nCercamento da \u00e1rea, prote\u00e7\u00e3o vegetal (PVE) com mudas, bio", "timestamp": null, "begin": null, "end": null, "altitudeMo": null, "tessellate": -1, "extrude": 0, "visibility": -1, "drawOrder": null, "icon": null}, "geometry": {"type": "Point", "coordinates": [-61.52633521030535, -4.943302259863597, 0.0]}}, {"id": "21", "type": "Feature", "properties": {"id": null, "Name": "\u00c1rea 83", "descriptio": "DISCRIMINA\u00c7\u00c3O E CLASSIFICA\u00c7\u00c3O DO PROBLEMA\nER (33) - Eros\u00e3o (Ravinamento), SC \u2013 Sem cobertura\n\nLOCALIZA\u00c7\u00c3O\nDist\u00e2ncia do eixo (m) 2,0\n\nDIMENS\u00d5ES (m)\nComprimento 198,7\nLargura 132,95\nAltura 3,5\n\nSOLU\u00c7\u00c3O\nDescompacta\u00e7\u00e3o, aduba\u00e7\u00e3o e corre\u00e7\u00e3o", "timestamp": null, "begin": null, "end": null, "altitudeMo": null, "tessellate": -1, "extrude": 0, "visibility": -1, "drawOrder": null, "icon": null}, "geometry": {"type": "Point", "coordinates": [-61.53576977013491, -4.950550883859695, 0.0]}}, {"id": "22", "type": "Feature", "properties": {"id": null, "Name": "\u00c1rea 84", "descriptio": "DISCRIMINA\u00c7\u00c3O E CLASSIFICA\u00c7\u00c3O DO PROBLEMA\nSC \u2013 Sem cobertura\n\nLOCALIZA\u00c7\u00c3O\nDist\u00e2ncia do eixo (m) 0\n\nDIMENS\u00d5ES (m)\nComprimento 60\nLargura 20\n\nSOLU\u00c7\u00c3O\nCercamento da \u00e1rea, prote\u00e7\u00e3o vegetal (PVE) com mudas, biomanta e leguminosas. Implanta\u00e7\u00e3o", "timestamp": null, "begin": null, "end": null, "altitudeMo": null, "tessellate": -1, "extrude": 0, "visibility": -1, "drawOrder": null, "icon": null}, "geometry": {"type": "Point", "coordinates": [-61.54384375342773, -4.956459268345464, 0.0]}}, {"id": "23", "type": "Feature", "properties": {"id": null, "Name": "\u00c1rea 85", "descriptio": "DISCRIMINA\u00c7\u00c3O E CLASSIFICA\u00c7\u00c3O DO PROBLEMA\nSC \u2013 Sem cobertura\n\nLOCALIZA\u00c7\u00c3O\nDist\u00e2ncia do eixo (m) 0\n\nDIMENS\u00d5ES (m)\nComprimento 100\nLargura 40\n\nSOLU\u00c7\u00c3O\nCercamento da \u00e1rea, prote\u00e7\u00e3o vegetal (PVE) com mudas, biomanta e\nleguminosas. Implanta\u00e7\u00e3", "timestamp": null, "begin": null, "end": null, "altitudeMo": null, "tessellate": -1, "extrude": 0, "visibility": -1, "drawOrder": null, "icon": null}, "geometry": {"type": "Point", "coordinates": [-61.55030354866041, -4.961254050222093, 0.0]}}, {"id": "24", "type": "Feature", "properties": {"id": null, "Name": "\u00c1rea 86", "descriptio": "DISCRIMINA\u00c7\u00c3O E CLASSIFICA\u00c7\u00c3O DO PROBLEMA\nSC \u2013 Sem cobertura\n\nLOCALIZA\u00c7\u00c3O\nDist\u00e2ncia do eixo (m) 0\n\nDIMENS\u00d5ES (m)\nComprimento 90\nLargura 15\n\nSOLU\u00c7\u00c3O\nCercamento da \u00e1rea, prote\u00e7\u00e3o vegetal (PVE) com mudas, biomanta e\nleguminosas. Implanta\u00e7\u00e3o", "timestamp": null, "begin": null, "end": null, "altitudeMo": null, "tessellate": -1, "extrude": 0, "visibility": -1, "drawOrder": null, "icon": null}, "geometry": {"type": "Point", "coordinates": [-61.55328890851186, -4.963616545468248, 0.0]}}, {"id": "25", "type": "Feature", "properties": {"id": null, "Name": "\u00c1rea 87", "descriptio": "DISCRIMINA\u00c7\u00c3O E CLASSIFICA\u00c7\u00c3O DO PROBLEMA\nER (33) - Eros\u00e3o (Ravinamento), SC \u2013 Sem cobertura\n\nLOCALIZA\u00c7\u00c3O\nDist\u00e2ncia do eixo (m) 74,0\n\nDIMENS\u00d5ES (m)\nComprimento 304,0\nLargura 154,2\nAltura 4,0\n\nSOLU\u00c7\u00c3O\nDescompacta\u00e7\u00e3o, aduba\u00e7\u00e3o e corre\u00e7\u00e3o", "timestamp": null, "begin": null, "end": null, "altitudeMo": null, "tessellate": -1, "extrude": 0, "visibility": -1, "drawOrder": null, "icon": null}, "geometry": {"type": "Point", "coordinates": [-61.56568020817921, -4.972846244726702, 0.0]}}, {"id": "26", "type": "Feature", "properties": {"id": null, "Name": "\u00c1rea 88", "descriptio": "DISCRIMINA\u00c7\u00c3O E CLASSIFICA\u00c7\u00c3O DO PROBLEMA\nER (33) - Eros\u00e3o (Ravinamento), SC \u2013 Sem cobertura\n\nLOCALIZA\u00c7\u00c3O\nDist\u00e2ncia do eixo (m) 5,8\n\nDIMENS\u00d5ES (m)\nComprimento 69,60\nLargura 45,77\nAltura 3,5\n\nSOLU\u00c7\u00c3O\nDescompacta\u00e7\u00e3o, aduba\u00e7\u00e3o e corre\u00e7\u00e3o", "timestamp": null, "begin": null, "end": null, "altitudeMo": null, "tessellate": -1, "extrude": 0, "visibility": -1, "drawOrder": null, "icon": null}, "geometry": {"type": "Point", "coordinates": [-61.58619442126239, -4.992856716735973, 0.0]}}, {"id": "27", "type": "Feature", "properties": {"id": null, "Name": "\u00c1rea 89", "descriptio": "DISCRIMINA\u00c7\u00c3O E CLASSIFICA\u00c7\u00c3O DO PROBLEMA\nER (33) - Eros\u00e3o (Ravinamento), SC \u2013 Sem cobertura\n\nLOCALIZA\u00c7\u00c3O\nDist\u00e2ncia do eixo (m) 3,0\n\nDIMENS\u00d5ES (m)\nComprimento 114,2\nLargura 41,50\nAltura 4,0\n\nSOLU\u00c7\u00c3O\nDescompacta\u00e7\u00e3o, aduba\u00e7\u00e3o e corre\u00e7\u00e3o", "timestamp": null, "begin": null, "end": null, "altitudeMo": null, "tessellate": -1, "extrude": 0, "visibility": -1, "drawOrder": null, "icon": null}, "geometry": {"type": "Point", "coordinates": [-61.59267335176018, -4.998834803113327, 0.0]}}, {"id": "28", "type": "Feature", "properties": {"id": null, "Name": "\u00c1rea 90", "descriptio": "DISCRIMINA\u00c7\u00c3O E CLASSIFICA\u00c7\u00c3O DO PROBLEMA\nSC \u2013 Sem cobertura\n\nLOCALIZA\u00c7\u00c3O\nDist\u00e2ncia do eixo (m) 0\n\nDIMENS\u00d5ES (m)\nComprimento 45\nLargura 10\n\nSOLU\u00c7\u00c3O\nCercamento da \u00e1rea, prote\u00e7\u00e3o vegetal (PVE) com mudas, biomanta e\nleguminosas. Implanta\u00e7\u00e3o", "timestamp": null, "begin": null, "end": null, "altitudeMo": null, "tessellate": -1, "extrude": 0, "visibility": -1, "drawOrder": null, "icon": null}, "geometry": {"type": "Point", "coordinates": [-61.58611111111113, -4.9925, 0.0]}}, {"id": "29", "type": "Feature", "properties": {"id": null, "Name": "\u00c1rea 91", "descriptio": "DISCRIMINA\u00c7\u00c3O E CLASSIFICA\u00c7\u00c3O DO PROBLEMA\nER (33) - Eros\u00e3o (Ravinamento), SC \u2013 Sem cobertura\n\nLOCALIZA\u00c7\u00c3O\nDist\u00e2ncia do eixo (m) 0\n\nDIMENS\u00d5ES (m)\nComprimento 60\nLargura 90\n\nSOLU\u00c7\u00c3O\nCercamento da \u00e1rea, prote\u00e7\u00e3o vegetal (PVE) com mudas, biom", "timestamp": null, "begin": null, "end": null, "altitudeMo": null, "tessellate": -1, "extrude": 0, "visibility": -1, "drawOrder": null, "icon": null}, "geometry": {"type": "Point", "coordinates": [-61.64586245549757, -5.047395367686396, 0.0]}}, {"id": "30", "type": "Feature", "properties": {"id": null, "Name": "\u00c1rea 92", "descriptio": "DISCRIMINA\u00c7\u00c3O E CLASSIFICA\u00c7\u00c3O DO PROBLEMA\nSC \u2013 Sem cobertura\n\nLOCALIZA\u00c7\u00c3O\nDist\u00e2ncia do eixo (m) 0\n\nDIMENS\u00d5ES (m)\nComprimento 40\nLargura 15\n\nSOLU\u00c7\u00c3O\nCercamento da \u00e1rea, prote\u00e7\u00e3o vegetal (PVE) com mudas, biomanta e\nleguminosas. Implanta\u00e7\u00e3o", "timestamp": null, "begin": null, "end": null, "altitudeMo": null, "tessellate": -1, "extrude": 0, "visibility": -1, "drawOrder": null, "icon": null}, "geometry": {"type": "Point", "coordinates": [-61.68740336082555, -5.085344775836392, 0.0]}}, {"id": "31", "type": "Feature", "properties": {"id": null, "Name": "\u00c1rea 93", "descriptio": "DISCRIMINA\u00c7\u00c3O E CLASSIFICA\u00c7\u00c3O DO PROBLEMA\nSC \u2013 Sem cobertura\n\nLOCALIZA\u00c7\u00c3O\nDist\u00e2ncia do eixo (m) 0\n\nDIMENS\u00d5ES (m)\nComprimento 120\nLargura 10\n\nSOLU\u00c7\u00c3O\nCercamento da \u00e1rea, prote\u00e7\u00e3o vegetal (PVE) com mudas, biomanta e\nleguminosas. Implanta\u00e7\u00e3", "timestamp": null, "begin": null, "end": null, "altitudeMo": null, "tessellate": -1, "extrude": 0, "visibility": -1, "drawOrder": null, "icon": null}, "geometry": {"type": "Point", "coordinates": [-61.70342122493378, -5.099774460251219, 0.0]}}, {"id": "32", "type": "Feature", "properties": {"id": null, "Name": "\u00c1rea 94", "descriptio": "DISCRIMINA\u00c7\u00c3O E CLASSIFICA\u00c7\u00c3O DO PROBLEMA\nER (33) - Eros\u00e3o (Ravinamento), SC \u2013 Sem cobertura\n\nLOCALIZA\u00c7\u00c3O\nDist\u00e2ncia do eixo (m) 39,0\n\nDIMENS\u00d5ES (m)\nComprimento 160,46\nLargura 116,0\nAltura 1,0\n\nSOLU\u00c7\u00c3O\nDescompacta\u00e7\u00e3o, aduba\u00e7\u00e3o e corre\u00e7\u00e3", "timestamp": null, "begin": null, "end": null, "altitudeMo": null, "tessellate": -1, "extrude": 0, "visibility": -1, "drawOrder": null, "icon": null}, "geometry": {"type": "Point", "coordinates": [-61.71946610121584, -5.113259441950026, 0.0]}}, {"id": "33", "type": "Feature", "properties": {"id": null, "Name": "\u00c1rea 95", "descriptio": "DISCRIMINA\u00c7\u00c3O E CLASSIFICA\u00c7\u00c3O DO PROBLEMA\nSC \u2013 Sem cobertura\n\nLOCALIZA\u00c7\u00c3O\nDist\u00e2ncia do eixo (m) 0\n\nDIMENS\u00d5ES (m)\nComprimento 50\nLargura 20\n\nSOLU\u00c7\u00c3O\nCercamento da \u00e1rea, prote\u00e7\u00e3o vegetal (PVE) com mudas, biomanta e\nleguminosas. Implanta\u00e7\u00e3o", "timestamp": null, "begin": null, "end": null, "altitudeMo": null, "tessellate": -1, "extrude": 0, "visibility": -1, "drawOrder": null, "icon": null}, "geometry": {"type": "Point", "coordinates": [-61.71152414600361, -5.107081783307054, 0.0]}}, {"id": "34", "type": "Feature", "properties": {"id": null, "Name": "\u00c1rea 96", "descriptio": "DISCRIMINA\u00c7\u00c3O E CLASSIFICA\u00c7\u00c3O DO PROBLEMA\nER (33) - Eros\u00e3o (Ravinamento), SC \u2013 Sem cobertura\n\nLOCALIZA\u00c7\u00c3O\nDist\u00e2ncia do eixo (m) 0\n\nDIMENS\u00d5ES (m)\nComprimento 60\nLargura 20\n\nSOLU\u00c7\u00c3O\nCercamento da \u00e1rea, prote\u00e7\u00e3o vegetal (PVE) com mudas, biom", "timestamp": null, "begin": null, "end": null, "altitudeMo": null, "tessellate": -1, "extrude": 0, "visibility": -1, "drawOrder": null, "icon": null}, "geometry": {"type": "Point", "coordinates": [-61.71922298126673, -5.113579007968016, 0.0]}}, {"id": "35", "type": "Feature", "properties": {"id": null, "Name": "\u00c1rea 97", "descriptio": "DISCRIMINA\u00c7\u00c3O E CLASSIFICA\u00c7\u00c3O DO PROBLEMA\nSC \u2013 Sem cobertura\n\nLOCALIZA\u00c7\u00c3O\nDist\u00e2ncia do eixo (m) 0\n\nDIMENS\u00d5ES (m)\nComprimento 60\nLargura 15\n\nSOLU\u00c7\u00c3O\nCercamento da \u00e1rea, prote\u00e7\u00e3o vegetal (PVE) com mudas, biomanta e leguminosas. Implanta\u00e7\u00e3o", "timestamp": null, "begin": null, "end": null, "altitudeMo": null, "tessellate": -1, "extrude": 0, "visibility": -1, "drawOrder": null, "icon": null}, "geometry": {"type": "Point", "coordinates": [-61.74578466773243, -5.135792142995991, 0.0]}}, {"id": "36", "type": "Feature", "properties": {"id": null, "Name": "\u00c1rea 98", "descriptio": "DISCRIMINA\u00c7\u00c3O E CLASSIFICA\u00c7\u00c3O DO PROBLEMA\nSC \u2013 Sem cobertura\n\nLOCALIZA\u00c7\u00c3O\nDist\u00e2ncia do eixo (m) 0\n\nDIMENS\u00d5ES (m)\nComprimento 60\nLargura 15\n\nSOLU\u00c7\u00c3O\nCercamento da \u00e1rea, prote\u00e7\u00e3o vegetal (PVE) com mudas, biomanta e\nleguminosas. Implanta\u00e7\u00e3o", "timestamp": null, "begin": null, "end": null, "altitudeMo": null, "tessellate": -1, "extrude": 0, "visibility": -1, "drawOrder": null, "icon": null}, "geometry": {"type": "Point", "coordinates": [-61.75903669252071, -5.147034152334801, 0.0]}}, {"id": "37", "type": "Feature", "properties": {"id": null, "Name": "\u00c1rea 99", "descriptio": "DISCRIMINA\u00c7\u00c3O E CLASSIFICA\u00c7\u00c3O DO PROBLEMA\nER (33) - Eros\u00e3o (Ravinamento), SC \u2013 Sem cobertura\n\nLOCALIZA\u00c7\u00c3O\nDist\u00e2ncia do eixo (m) 17,50\n\nDIMENS\u00d5ES (m)\nComprimento 30\nLargura 16\nAltura 3,0\n\nSOLU\u00c7\u00c3O\nProte\u00e7\u00e3o vegetal (PVE) com mudas e leguminos", "timestamp": null, "begin": null, "end": null, "altitudeMo": null, "tessellate": -1, "extrude": 0, "visibility": -1, "drawOrder": null, "icon": null}, "geometry": {"type": "Point", "coordinates": [-61.76908419011128, -5.155501451369666, 0.0]}}, {"id": "38", "type": "Feature", "properties": {"id": null, "Name": "\u00c1rea 100", "descriptio": "DISCRIMINA\u00c7\u00c3O E CLASSIFICA\u00c7\u00c3O DO PROBLEMA\nER (33) - Eros\u00e3o (Ravinamento), SC \u2013 Sem cobertura\n\nLOCALIZA\u00c7\u00c3O\nDist\u00e2ncia do eixo (m) 1,0\n\nDIMENS\u00d5ES (m)\nComprimento 37,90\nLargura 58,10\nAltura 3,0\n\nSOLU\u00c7\u00c3O\nDescompacta\u00e7\u00e3o, aduba\u00e7\u00e3o e corre\u00e7\u00e3o", "timestamp": null, "begin": null, "end": null, "altitudeMo": null, "tessellate": -1, "extrude": 0, "visibility": -1, "drawOrder": null, "icon": null}, "geometry": {"type": "Point", "coordinates": [-61.77822318531512, -5.163024223094509, 0.0]}}]}