{"type": "FeatureCollection", "features": [{"id": "0", "type": "Feature", "properties": {"id": null, "Name": "\u00c1rea 01", "descriptio": "DISCRIMINA\u00c7\u00c3O E CLASSIFICA\u00c7\u00c3O DO PROBLEMA\nER (33) - Eros\u00e3o (Ravinamento), SC \u2013 Sem cobertura\n\nLOCALIZA\u00c7\u00c3O\nDist\u00e2ncia do eixo (m) - 47\n\nDIMENS\u00d5ES (m)\nComprimento 110\nLargura 70\nAltura 2,0\n\nSOLU\u00c7\u00c3O\nProte\u00e7\u00e3o vegetal (PVE) com mudas e leguminos", "timestamp": null, "begin": null, "end": null, "altitudeMo": null, "tessellate": -1, "extrude": 0, "visibility": -1, "drawOrder": null, "icon": null}, "geometry": {"type": "Point", "coordinates": [-59.87805985423899, -3.36420299510082, 0.0]}}, {"id": "1", "type": "Feature", "properties": {"id": null, "Name": "\u00c1rea 02", "descriptio": "DISCRIMINA\u00c7\u00c3O E CLASSIFICA\u00c7\u00c3O DO PROBLEMA\nER (33) - Eros\u00e3o (Ravinamento), SC \u2013 Sem cobertura\n\nLOCALIZA\u00c7\u00c3O\nDist\u00e2ncia do eixo (m) - 18,95\n\nDIMENS\u00d5ES (m)\nComprimento 226,58\nLargura 95,19\nAltura 2,0\n\n\nSOLU\u00c7\u00c3O\nCercamento da \u00e1rea e prote\u00e7\u00e3o veg", "timestamp": null, "begin": null, "end": null, "altitudeMo": null, "tessellate": -1, "extrude": 0, "visibility": -1, "drawOrder": null, "icon": null}, "geometry": {"type": "Point", "coordinates": [-60.26239336578832, -3.657284341424604, 0.0]}}, {"id": "2", "type": "Feature", "properties": {"id": null, "Name": "\u00c1rea 03", "descriptio": "DISCRIMINA\u00c7\u00c3O E CLASSIFICA\u00c7\u00c3O DO PROBLEMA\nER (33) - Eros\u00e3o (Ravinamento), SC \u2013 Sem cobertura\n\nLOCALIZA\u00c7\u00c3O\nDist\u00e2ncia do eixo (m) 15,9\n\nDIMENS\u00d5ES (m)\nComprimento 170\nLargura 160\nAltura 2,0\n\nSOLU\u00c7\u00c3O\nCercamento da \u00e1rea e prote\u00e7\u00e3o vegetal (PVE", "timestamp": null, "begin": null, "end": null, "altitudeMo": null, "tessellate": -1, "extrude": 0, "visibility": -1, "drawOrder": null, "icon": null}, "geometry": {"type": "Point", "coordinates": [-60.27339444444444, -3.6873, 0.0]}}, {"id": "3", "type": "Feature", "properties": {"id": null, "Name": "\u00c1rea 04", "descriptio": "DISCRIMINA\u00c7\u00c3O E CLASSIFICA\u00c7\u00c3O DO PROBLEMA\nER (33) - Eros\u00e3o (Ravinamento), SC \u2013 Sem cobertura\n\nLOCALIZA\u00c7\u00c3O\nDist\u00e2ncia do eixo (m) 17\n\nDIMENS\u00d5ES (m)\nComprimento 160\nLargura 150\nAltura 2,0\n\nSOLU\u00c7\u00c3O\nCercamento da \u00e1rea e prote\u00e7\u00e3o vegetal (PVE)", "timestamp": null, "begin": null, "end": null, "altitudeMo": null, "tessellate": -1, "extrude": 0, "visibility": -1, "drawOrder": null, "icon": null}, "geometry": {"type": "Point", "coordinates": [-60.27717695524546, -3.716995772833891, 0.0]}}, {"id": "4", "type": "Feature", "properties": {"id": null, "Name": "\u00c1rea 05", "descriptio": "DISCRIMINA\u00c7\u00c3O E CLASSIFICA\u00c7\u00c3O DO PROBLEMA\nER (33) - Eros\u00e3o (Ravinamento), SC \u2013 Sem cobertura\n\nLOCALIZA\u00c7\u00c3O\nDist\u00e2ncia do eixo (m) 31,30\n\nDIMENS\u00d5ES (m)\nComprimento 62,27\nLargura 90,91\nAltura 2,0\n\nSOLU\u00c7\u00c3O\nCercamento da \u00e1rea e prote\u00e7\u00e3o vegetal", "timestamp": null, "begin": null, "end": null, "altitudeMo": null, "tessellate": -1, "extrude": 0, "visibility": -1, "drawOrder": null, "icon": null}, "geometry": {"type": "Point", "coordinates": [-60.27658534163584, -3.716337667398767, 0.0]}}, {"id": "5", "type": "Feature", "properties": {"id": null, "Name": "\u00c1rea 06", "descriptio": "DISCRIMINA\u00c7\u00c3O E CLASSIFICA\u00c7\u00c3O DO PROBLEMA\nER (33) - Eros\u00e3o (Ravinamento), SC \u2013 Sem cobertura\n\nLOCALIZA\u00c7\u00c3O\nDist\u00e2ncia do eixo (m) 26,89\n\nDIMENS\u00d5ES (m)\nComprimento 183,08\nLargura 98,23\nAltura 2,0\n\nSOLU\u00c7\u00c3O\nCercamento da \u00e1rea e prote\u00e7\u00e3o vegeta", "timestamp": null, "begin": null, "end": null, "altitudeMo": null, "tessellate": -1, "extrude": 0, "visibility": -1, "drawOrder": null, "icon": null}, "geometry": {"type": "Point", "coordinates": [-60.27737434967135, -3.7193037720992, 0.0]}}, {"id": "6", "type": "Feature", "properties": {"id": null, "Name": "\u00c1rea 07", "descriptio": "DISCRIMINA\u00c7\u00c3O E CLASSIFICA\u00c7\u00c3O DO PROBLEMA\nER (33) - Eros\u00e3o (Ravinamento), SC \u2013 Sem cobertura\n\nLOCALIZA\u00c7\u00c3O\nDist\u00e2ncia do eixo (m) 34,01\n\nDIMENS\u00d5ES (m)\nComprimento 90\nLargura 35\nAltura 2,0\n\nSOLU\u00c7\u00c3O\nCercamento da \u00e1rea e prote\u00e7\u00e3o vegetal (PVE)", "timestamp": null, "begin": null, "end": null, "altitudeMo": null, "tessellate": -1, "extrude": 0, "visibility": -1, "drawOrder": null, "icon": null}, "geometry": {"type": "Point", "coordinates": [-60.27768613705447, -3.721092333463497, 0.0]}}, {"id": "7", "type": "Feature", "properties": {"id": null, "Name": "\u00c1rea 08", "descriptio": "DISCRIMINA\u00c7\u00c3O E CLASSIFICA\u00c7\u00c3O DO PROBLEMA\nER (33) - Eros\u00e3o (Ravinamento), SC \u2013 Sem cobertura\n\nLOCALIZA\u00c7\u00c3O\nDist\u00e2ncia do eixo (m) 18\n\nDIMENS\u00d5ES (m)\nComprimento 115\nLargura 52\nAltura 2,0\n\nSOLU\u00c7\u00c3O\nCercamento da \u00e1rea e prote\u00e7\u00e3o vegetal (PVE) c", "timestamp": null, "begin": null, "end": null, "altitudeMo": null, "tessellate": -1, "extrude": 0, "visibility": -1, "drawOrder": null, "icon": null}, "geometry": {"type": "Point", "coordinates": [-60.27723706342307, -3.723286802440847, 0.0]}}, {"id": "8", "type": "Feature", "properties": {"id": null, "Name": "\u00c1rea 09", "descriptio": "DISCRIMINA\u00c7\u00c3O E CLASSIFICA\u00c7\u00c3O DO PROBLEMA\nER (33) - Eros\u00e3o (Ravinamento), SC \u2013 Sem cobertura\n\nLOCALIZA\u00c7\u00c3O\nDist\u00e2ncia do eixo (m) 19,70\n\nDIMENS\u00d5ES (m)\nComprimento 41\nLargura 37\nAltura 2,0\n\nSOLU\u00c7\u00c3O\nCercamento da \u00e1rea e prote\u00e7\u00e3o vegetal (PVE)", "timestamp": null, "begin": null, "end": null, "altitudeMo": null, "tessellate": -1, "extrude": 0, "visibility": -1, "drawOrder": null, "icon": null}, "geometry": {"type": "Point", "coordinates": [-60.30432975137165, -3.770409651230102, 0.0]}}, {"id": "9", "type": "Feature", "properties": {"id": null, "Name": "\u00c1rea 10", "descriptio": "DISCRIMINA\u00c7\u00c3O E CLASSIFICA\u00c7\u00c3O DO PROBLEMA\nER (33) - Eros\u00e3o (Ravinamento), SC \u2013 Sem cobertura\n\nLOCALIZA\u00c7\u00c3O\nDist\u00e2ncia do eixo (m) 9,39\n\nDIMENS\u00d5ES (m)\nComprimento 268,47\nLargura 47,58\nAltura 2,0\n\nSOLU\u00c7\u00c3O\nCercamento da \u00e1rea e prote\u00e7\u00e3o vegetal", "timestamp": null, "begin": null, "end": null, "altitudeMo": null, "tessellate": -1, "extrude": 0, "visibility": -1, "drawOrder": null, "icon": null}, "geometry": {"type": "Point", "coordinates": [-60.30390277777776, -3.770572222222222, 0.0]}}, {"id": "10", "type": "Feature", "properties": {"id": null, "Name": "\u00c1rea 11", "descriptio": "DISCRIMINA\u00c7\u00c3O E CLASSIFICA\u00c7\u00c3O DO PROBLEMA\nER (33) - Eros\u00e3o (Ravinamento), SC \u2013 Sem cobertura\n\nLOCALIZA\u00c7\u00c3O\nDist\u00e2ncia do eixo (m) 11\n\nDIMENS\u00d5ES (m)\nComprimento 93,53\nLargura 62,35\nAltura 2,0\n\nSOLU\u00c7\u00c3O\nCercamento da \u00e1rea e prote\u00e7\u00e3o vegetal (P", "timestamp": null, "begin": null, "end": null, "altitudeMo": null, "tessellate": -1, "extrude": 0, "visibility": -1, "drawOrder": null, "icon": null}, "geometry": {"type": "Point", "coordinates": [-60.30741760688295, -3.776235900823871, 0.0]}}, {"id": "11", "type": "Feature", "properties": {"id": null, "Name": "\u00c1rea 12", "descriptio": "DISCRIMINA\u00c7\u00c3O E CLASSIFICA\u00c7\u00c3O DO PROBLEMA\nER (33) - Eros\u00e3o (Ravinamento), SC \u2013 Sem cobertura\n\nLOCALIZA\u00c7\u00c3O\nDist\u00e2ncia do eixo (m) 10\n\nDIMENS\u00d5ES (m)\nComprimento 123\nLargura 60\nAltura 2,0\n\nSOLU\u00c7\u00c3O\nCercamento da \u00e1rea e prote\u00e7\u00e3o vegetal (PVE) c", "timestamp": null, "begin": null, "end": null, "altitudeMo": null, "tessellate": -1, "extrude": 0, "visibility": -1, "drawOrder": null, "icon": null}, "geometry": {"type": "Point", "coordinates": [-60.3162493069269, -3.797862415120815, 0.0]}}, {"id": "12", "type": "Feature", "properties": {"id": null, "Name": "\u00c1rea 13", "descriptio": "DISCRIMINA\u00c7\u00c3O E CLASSIFICA\u00c7\u00c3O DO PROBLEMA\nER (33) - Eros\u00e3o (Ravinamento), SC \u2013 Sem cobertura\n\nLOCALIZA\u00c7\u00c3O\nDist\u00e2ncia do eixo (m) 6,30\n\nDIMENS\u00d5ES (m)\nComprimento 277,18\nLargura 265,84\nAltura 2,0\n\nSOLU\u00c7\u00c3O\nCercamento da \u00e1rea e prote\u00e7\u00e3o vegeta", "timestamp": null, "begin": null, "end": null, "altitudeMo": null, "tessellate": -1, "extrude": 0, "visibility": -1, "drawOrder": null, "icon": null}, "geometry": {"type": "Point", "coordinates": [-60.4089145362927, -3.875709249500356, 0.0]}}, {"id": "13", "type": "Feature", "properties": {"id": null, "Name": "\u00c1rea 14", "descriptio": "DISCRIMINA\u00c7\u00c3O E CLASSIFICA\u00c7\u00c3O DO PROBLEMA\nER (33) - Eros\u00e3o (Ravinamento), SC \u2013 Sem cobertura\n\nLOCALIZA\u00c7\u00c3O\nDist\u00e2ncia do eixo (m) 13,61\n\nDIMENS\u00d5ES (m)\nComprimento 85\nLargura 85\nAltura 2,0\n\nSOLU\u00c7\u00c3O\nCercamento da \u00e1rea e prote\u00e7\u00e3o vegetal (PVE)", "timestamp": null, "begin": null, "end": null, "altitudeMo": null, "tessellate": -1, "extrude": 0, "visibility": -1, "drawOrder": null, "icon": null}, "geometry": {"type": "Point", "coordinates": [-60.40965949535052, -3.8768346272627, 0.0]}}, {"id": "14", "type": "Feature", "properties": {"id": null, "Name": "\u00c1rea 15", "descriptio": "DISCRIMINA\u00c7\u00c3O E CLASSIFICA\u00c7\u00c3O DO PROBLEMA\nER (33) - Eros\u00e3o (Ravinamento), SC \u2013 Sem cobertura\n\nLOCALIZA\u00c7\u00c3O\nDist\u00e2ncia do eixo (m) 13,64\n\nDIMENS\u00d5ES (m)\nComprimento 205,10\nLargura 225,62\nAltura 2,0\n\nSOLU\u00c7\u00c3O\nCercamento da \u00e1rea e prote\u00e7\u00e3o veget", "timestamp": null, "begin": null, "end": null, "altitudeMo": null, "tessellate": -1, "extrude": 0, "visibility": -1, "drawOrder": null, "icon": null}, "geometry": {"type": "Point", "coordinates": [-60.41135664013101, -3.877890681759546, 0.0]}}, {"id": "15", "type": "Feature", "properties": {"id": null, "Name": "\u00c1rea 16", "descriptio": "DISCRIMINA\u00c7\u00c3O E CLASSIFICA\u00c7\u00c3O DO PROBLEMA\nER (33) - Eros\u00e3o (Ravinamento), SC \u2013 Sem cobertura\n\nLOCALIZA\u00c7\u00c3O\nDist\u00e2ncia do eixo (m) 12,79\n\nDIMENS\u00d5ES (m)\nComprimento 89,98\nLargura 79,67\nAltura 2,0\n\nSOLU\u00c7\u00c3O\nProte\u00e7\u00e3o vegetal (PVE) com mudas e leg", "timestamp": null, "begin": null, "end": null, "altitudeMo": null, "tessellate": -1, "extrude": 0, "visibility": -1, "drawOrder": null, "icon": null}, "geometry": {"type": "Point", "coordinates": [-60.42148347182766, -3.886319609067044, 0.0]}}, {"id": "16", "type": "Feature", "properties": {"id": null, "Name": "\u00c1rea 17", "descriptio": "DISCRIMINA\u00c7\u00c3O E CLASSIFICA\u00c7\u00c3O DO PROBLEMA\nER (33) - Eros\u00e3o (Ravinamento), SC \u2013 Sem cobertura\n\nLOCALIZA\u00c7\u00c3O\nDist\u00e2ncia do eixo (m) 13,60\n\nDIMENS\u00d5ES (m)\nComprimento 70\nLargura 59\nAltura 2,0\n\nSOLU\u00c7\u00c3O\nRemo\u00e7\u00e3o de res\u00edduos de pavimento, prote\u00e7\u00e3", "timestamp": null, "begin": null, "end": null, "altitudeMo": null, "tessellate": -1, "extrude": 0, "visibility": -1, "drawOrder": null, "icon": null}, "geometry": {"type": "Point", "coordinates": [-60.43259889133381, -3.89239455498193, 0.0]}}, {"id": "17", "type": "Feature", "properties": {"id": null, "Name": "\u00c1rea 18", "descriptio": "DISCRIMINA\u00c7\u00c3O E CLASSIFICA\u00c7\u00c3O DO PROBLEMA\nER (33) - Eros\u00e3o (Ravinamento), SC \u2013 Sem cobertura\n\nLOCALIZA\u00c7\u00c3O\nDist\u00e2ncia do eixo (m) 7,73\n\nDIMENS\u00d5ES (m)\nComprimento 126,66\nLargura 70,78\nAltura 2,0\n\nSOLU\u00c7\u00c3O\nCercamento da \u00e1rea e prote\u00e7\u00e3o vegetal", "timestamp": null, "begin": null, "end": null, "altitudeMo": null, "tessellate": -1, "extrude": 0, "visibility": -1, "drawOrder": null, "icon": null}, "geometry": {"type": "Point", "coordinates": [-60.45393055449479, -3.909517723499075, 0.0]}}, {"id": "18", "type": "Feature", "properties": {"id": null, "Name": "\u00c1rea 19", "descriptio": "DISCRIMINA\u00c7\u00c3O E CLASSIFICA\u00c7\u00c3O DO PROBLEMA\nER (33) - Eros\u00e3o (Ravinamento), SC \u2013 Sem cobertura\n\nLOCALIZA\u00c7\u00c3O\nDist\u00e2ncia do eixo (m) 18,71\n\nDIMENS\u00d5ES (m)\nComprimento 203\nLargura 146\nAltura 2,0\n\nSOLU\u00c7\u00c3O\nCercamento da \u00e1rea e prote\u00e7\u00e3o vegetal (PV", "timestamp": null, "begin": null, "end": null, "altitudeMo": null, "tessellate": -1, "extrude": 0, "visibility": -1, "drawOrder": null, "icon": null}, "geometry": {"type": "Point", "coordinates": [-60.45505969192623, -3.912468710202677, 0.0]}}, {"id": "19", "type": "Feature", "properties": {"id": null, "Name": "\u00c1rea 20", "descriptio": "DISCRIMINA\u00c7\u00c3O E CLASSIFICA\u00c7\u00c3O DO PROBLEMA\nER (33) - Eros\u00e3o (Ravinamento), SC \u2013 Sem cobertura\n\nLOCALIZA\u00c7\u00c3O\nDist\u00e2ncia do eixo (m) 10,5\n\nDIMENS\u00d5ES (m)\nComprimento 88,30\nLargura 95,80\nAltura 2,0\n\nSOLU\u00c7\u00c3O\nProte\u00e7\u00e3o vegetal (PVE) com mudas e legu", "timestamp": null, "begin": null, "end": null, "altitudeMo": null, "tessellate": -1, "extrude": 0, "visibility": -1, "drawOrder": null, "icon": null}, "geometry": {"type": "Point", "coordinates": [-60.47521098994712, -3.928240155183249, 0.0]}}, {"id": "20", "type": "Feature", "properties": {"id": null, "Name": "\u00c1rea 21", "descriptio": "DISCRIMINA\u00c7\u00c3O E CLASSIFICA\u00c7\u00c3O DO PROBLEMA\nER (33) - Eros\u00e3o (Ravinamento), SC \u2013 Sem cobertura\n\nLOCALIZA\u00c7\u00c3O\nDist\u00e2ncia do eixo (m) 23\n\nDIMENS\u00d5ES (m)\nComprimento 122\nLargura 150,5\nAltura 2,0\n\nSOLU\u00c7\u00c3O\nCercamento da \u00e1rea e prote\u00e7\u00e3o vegetal (PVE", "timestamp": null, "begin": null, "end": null, "altitudeMo": null, "tessellate": -1, "extrude": 0, "visibility": -1, "drawOrder": null, "icon": null}, "geometry": {"type": "Point", "coordinates": [-60.50450585467878, -3.949382276154034, 0.0]}}, {"id": "21", "type": "Feature", "properties": {"id": null, "Name": "\u00c1rea 22", "descriptio": "DISCRIMINA\u00c7\u00c3O E CLASSIFICA\u00c7\u00c3O DO PROBLEMA\nER (33) - Eros\u00e3o (Ravinamento), SC \u2013 Sem cobertura\n\nLOCALIZA\u00c7\u00c3O\nDist\u00e2ncia do eixo (m) 5\n\nDIMENS\u00d5ES (m)\nComprimento 131\nLargura 147\nAltura 2,0\n\nSOLU\u00c7\u00c3O\nProte\u00e7\u00e3o vegetal (PVE) com mudas e leguminosas", "timestamp": null, "begin": null, "end": null, "altitudeMo": null, "tessellate": -1, "extrude": 0, "visibility": -1, "drawOrder": null, "icon": null}, "geometry": {"type": "Point", "coordinates": [-60.51849870086403, -3.960395257009312, 0.0]}}, {"id": "22", "type": "Feature", "properties": {"id": null, "Name": "\u00c1rea 23", "descriptio": "DISCRIMINA\u00c7\u00c3O E CLASSIFICA\u00c7\u00c3O DO PROBLEMA\nER (33) - Eros\u00e3o (Ravinamento), SC \u2013 Sem cobertura\n\nLOCALIZA\u00c7\u00c3O\nDist\u00e2ncia do eixo (m) 6\n\nDIMENS\u00d5ES (m)\nComprimento 250\nLargura 257\nAltura 2,0\n\nSOLU\u00c7\u00c3O\nProte\u00e7\u00e3o vegetal (PVE) com mudas e leguminosas", "timestamp": null, "begin": null, "end": null, "altitudeMo": null, "tessellate": -1, "extrude": 0, "visibility": -1, "drawOrder": null, "icon": null}, "geometry": {"type": "Point", "coordinates": [-60.63994013594113, -4.050446622590544, 0.0]}}, {"id": "23", "type": "Feature", "properties": {"id": null, "Name": "\u00c1rea 24", "descriptio": "DISCRIMINA\u00c7\u00c3O E CLASSIFICA\u00c7\u00c3O DO PROBLEMA\nER (33) - Eros\u00e3o (Ravinamento), SC \u2013 Sem cobertura\n\nLOCALIZA\u00c7\u00c3O\nDist\u00e2ncia do eixo (m) 7\n\nDIMENS\u00d5ES (m)\nComprimento 65,18\nLargura 140,5\nAltura 2,0\n\nSOLU\u00c7\u00c3O\nProte\u00e7\u00e3o vegetal (PVE) com mudas e legumin", "timestamp": null, "begin": null, "end": null, "altitudeMo": null, "tessellate": -1, "extrude": 0, "visibility": -1, "drawOrder": null, "icon": null}, "geometry": {"type": "Point", "coordinates": [-60.63981456038901, -4.050675217167053, 0.0]}}, {"id": "24", "type": "Feature", "properties": {"id": null, "Name": "\u00c1rea 25", "descriptio": "DISCRIMINA\u00c7\u00c3O E CLASSIFICA\u00c7\u00c3O DO PROBLEMA\nER (33) - Eros\u00e3o (Ravinamento), SC \u2013 Sem cobertura\n\nLOCALIZA\u00c7\u00c3O\nDist\u00e2ncia do eixo (m) 5\n\nDIMENS\u00d5ES (m)\nComprimento 112\nLargura 74\nAltura 2,0\n\nSOLU\u00c7\u00c3O\nCercamento da \u00e1rea e prote\u00e7\u00e3o vegetal (PVE) co", "timestamp": null, "begin": null, "end": null, "altitudeMo": null, "tessellate": -1, "extrude": 0, "visibility": -1, "drawOrder": null, "icon": null}, "geometry": {"type": "Point", "coordinates": [-60.64092518091758, -4.051167934682968, 0.0]}}, {"id": "25", "type": "Feature", "properties": {"id": null, "Name": "\u00c1rea 26", "descriptio": "DISCRIMINA\u00c7\u00c3O E CLASSIFICA\u00c7\u00c3O DO PROBLEMA\nER (33) - Eros\u00e3o (Ravinamento), SC \u2013 Sem cobertura\n\nLOCALIZA\u00c7\u00c3O\nDist\u00e2ncia do eixo (m) 5,6\n\nDIMENS\u00d5ES (m)\nComprimento 122\nLargura 127\nAltura 2,0\n\nSOLU\u00c7\u00c3O\nProte\u00e7\u00e3o vegetal (PVE) com mudas e leguminos", "timestamp": null, "begin": null, "end": null, "altitudeMo": null, "tessellate": -1, "extrude": 0, "visibility": -1, "drawOrder": null, "icon": null}, "geometry": {"type": "Point", "coordinates": [-60.68043549968966, -4.080966621004441, 0.0]}}, {"id": "26", "type": "Feature", "properties": {"id": null, "Name": "\u00c1rea 27", "descriptio": "DISCRIMINA\u00c7\u00c3O E CLASSIFICA\u00c7\u00c3O DO PROBLEMA\nER (33) - Eros\u00e3o (Ravinamento), SC \u2013 Sem cobertura\n\nLOCALIZA\u00c7\u00c3O\nDist\u00e2ncia do eixo (m) 6\n\nDIMENS\u00d5ES (m)\nComprimento 150\nLargura 80\nAltura 2,0\n\nSOLU\u00c7\u00c3O\nReconforma\u00e7\u00e3o topogr\u00e1fica da \u00e1rea, prote\u00e7\u00e3o", "timestamp": null, "begin": null, "end": null, "altitudeMo": null, "tessellate": -1, "extrude": 0, "visibility": -1, "drawOrder": null, "icon": null}, "geometry": {"type": "Point", "coordinates": [-60.72568139889439, -4.114212847199387, 0.0]}}, {"id": "27", "type": "Feature", "properties": {"id": null, "Name": "\u00c1rea 28", "descriptio": "DISCRIMINA\u00c7\u00c3O E CLASSIFICA\u00c7\u00c3O DO PROBLEMA\nER (33) - Eros\u00e3o (Ravinamento), SC \u2013 Sem cobertura\n\nLOCALIZA\u00c7\u00c3O\nDist\u00e2ncia do eixo (m) 6\n\nDIMENS\u00d5ES (m)\nComprimento 119\nLargura 58\nAltura 3\n\nSOLU\u00c7\u00c3O\nProte\u00e7\u00e3o vegetal (PVE) com mudas e leguminosas. I", "timestamp": null, "begin": null, "end": null, "altitudeMo": null, "tessellate": -1, "extrude": 0, "visibility": -1, "drawOrder": null, "icon": null}, "geometry": {"type": "Point", "coordinates": [-60.72736499767019, -4.115442067276073, 0.0]}}, {"id": "28", "type": "Feature", "properties": {"id": null, "Name": "\u00c1rea 29", "descriptio": "DISCRIMINA\u00c7\u00c3O E CLASSIFICA\u00c7\u00c3O DO PROBLEMA\nER (33) - Eros\u00e3o (Ravinamento), SC \u2013 Sem cobertura\n\nLOCALIZA\u00c7\u00c3O\nDist\u00e2ncia do eixo (m) 5,5\n\nDIMENS\u00d5ES (m)\nComprimento 177\nLargura 86\nAltura 5\n\nSOLU\u00c7\u00c3O\nCercamento da \u00e1rea e prote\u00e7\u00e3o vegetal (PVE) co", "timestamp": null, "begin": null, "end": null, "altitudeMo": null, "tessellate": -1, "extrude": 0, "visibility": -1, "drawOrder": null, "icon": null}, "geometry": {"type": "Point", "coordinates": [-60.7424154053563, -4.126710990355382, 0.0]}}, {"id": "29", "type": "Feature", "properties": {"id": null, "Name": "\u00c1rea 30", "descriptio": "DISCRIMINA\u00c7\u00c3O E CLASSIFICA\u00c7\u00c3O DO PROBLEMA\nER (33) - Eros\u00e3o (Ravinamento), SC \u2013 Sem cobertura\n\nLOCALIZA\u00c7\u00c3O\nDist\u00e2ncia do eixo (m) 7\n\nDIMENS\u00d5ES (m)\nComprimento 50\nLargura 44\nAltura 2,0\n\nSOLU\u00c7\u00c3O\nCercamento da \u00e1rea e prote\u00e7\u00e3o vegetal (PVE) com", "timestamp": null, "begin": null, "end": null, "altitudeMo": null, "tessellate": -1, "extrude": 0, "visibility": -1, "drawOrder": null, "icon": null}, "geometry": {"type": "Point", "coordinates": [-60.75111583495409, -4.13319967968014, 0.0]}}, {"id": "30", "type": "Feature", "properties": {"id": null, "Name": "\u00c1rea 31", "descriptio": "DISCRIMINA\u00c7\u00c3O E CLASSIFICA\u00c7\u00c3O DO PROBLEMA\nER (33) - Eros\u00e3o (Ravinamento), SC \u2013 Sem cobertura\n\nLOCALIZA\u00c7\u00c3O\nDist\u00e2ncia do eixo (m) 7\n\nDIMENS\u00d5ES (m)\nComprimento 120\nLargura 85\nAltura 2,0\n\nSOLU\u00c7\u00c3O\nProte\u00e7\u00e3o vegetal (PVE) com mudas e leguminosas.", "timestamp": null, "begin": null, "end": null, "altitudeMo": null, "tessellate": -1, "extrude": 0, "visibility": -1, "drawOrder": null, "icon": null}, "geometry": {"type": "Point", "coordinates": [-60.77223112317834, -4.148784866663078, 0.0]}}, {"id": "31", "type": "Feature", "properties": {"id": null, "Name": "\u00c1rea 32", "descriptio": "DISCRIMINA\u00c7\u00c3O E CLASSIFICA\u00c7\u00c3O DO PROBLEMA\nER (33) - Eros\u00e3o (Ravinamento), SC \u2013 Sem cobertura\n\nLOCALIZA\u00c7\u00c3O\nDist\u00e2ncia do eixo (m) 7,5\n\nDIMENS\u00d5ES (m)\nComprimento 212,5\nLargura 60\nAltura 3,0\n\nSOLU\u00c7\u00c3O\nProte\u00e7\u00e3o vegetal (PVE) com mudas e legumino", "timestamp": null, "begin": null, "end": null, "altitudeMo": null, "tessellate": -1, "extrude": 0, "visibility": -1, "drawOrder": null, "icon": null}, "geometry": {"type": "Point", "coordinates": [-60.79753333333333, -4.167233333333334, 0.0]}}, {"id": "32", "type": "Feature", "properties": {"id": null, "Name": "\u00c1rea 33", "descriptio": "DISCRIMINA\u00c7\u00c3O E CLASSIFICA\u00c7\u00c3O DO PROBLEMA\nER (33) - Eros\u00e3o (Ravinamento), SC \u2013 Sem cobertura\n\nLOCALIZA\u00c7\u00c3O\nDist\u00e2ncia do eixo (m) 7\n\nDIMENS\u00d5ES (m)\nComprimento 120\nLargura 90\nAltura 5\n\nSOLU\u00c7\u00c3O\nRegulariza\u00e7\u00e3o da \u00e1rea, prote\u00e7\u00e3o vegetal (PVE)", "timestamp": null, "begin": null, "end": null, "altitudeMo": null, "tessellate": -1, "extrude": 0, "visibility": -1, "drawOrder": null, "icon": null}, "geometry": {"type": "Point", "coordinates": [-60.79743888888888, -4.16813888888889, 0.0]}}, {"id": "33", "type": "Feature", "properties": {"id": null, "Name": "\u00c1rea 34", "descriptio": "DISCRIMINA\u00c7\u00c3O E CLASSIFICA\u00c7\u00c3O DO PROBLEMA\nER (33) - Eros\u00e3o (Ravinamento), SC \u2013 Sem cobertura\n\nLOCALIZA\u00c7\u00c3O\nDist\u00e2ncia do eixo (m) 5\n\nDIMENS\u00d5ES (m)\nComprimento 80\nLargura 73,5\nAltura 2,0\n\nSOLU\u00c7\u00c3O\nCercamento da \u00e1rea e prote\u00e7\u00e3o vegetal (PVE) c", "timestamp": null, "begin": null, "end": null, "altitudeMo": null, "tessellate": -1, "extrude": 0, "visibility": -1, "drawOrder": null, "icon": null}, "geometry": {"type": "Point", "coordinates": [-60.80045555555555, -4.170433333333333, 0.0]}}, {"id": "34", "type": "Feature", "properties": {"id": null, "Name": "\u00c1rea 35", "descriptio": "DISCRIMINA\u00c7\u00c3O E CLASSIFICA\u00c7\u00c3O DO PROBLEMA\nER (33) - Eros\u00e3o (Ravinamento), SC \u2013 Sem cobertura\n\nLOCALIZA\u00c7\u00c3O\nDist\u00e2ncia do eixo (m) 5\n\nDIMENS\u00d5ES (m)\nComprimento 236\nLargura 105\nAltura 2,0\n\nSOLU\u00c7\u00c3O\nProte\u00e7\u00e3o vegetal (PVE) com mudas e leguminosas", "timestamp": null, "begin": null, "end": null, "altitudeMo": null, "tessellate": -1, "extrude": 0, "visibility": -1, "drawOrder": null, "icon": null}, "geometry": {"type": "Point", "coordinates": [-60.8022426624775, -4.172144503551805, 0.0]}}, {"id": "35", "type": "Feature", "properties": {"id": null, "Name": "\u00c1rea 36", "descriptio": "DISCRIMINA\u00c7\u00c3O E CLASSIFICA\u00c7\u00c3O DO PROBLEMA\nER (33) - Eros\u00e3o (Ravinamento), SC \u2013 Sem cobertura\n\nLOCALIZA\u00c7\u00c3O\nDist\u00e2ncia do eixo (m) 5\n\nDIMENS\u00d5ES (m)\nComprimento 125\nLargura 75,5\nAltura 2,0\n\nSOLU\u00c7\u00c3O\nProte\u00e7\u00e3o vegetal (PVE) com mudas e leguminosa", "timestamp": null, "begin": null, "end": null, "altitudeMo": null, "tessellate": -1, "extrude": 0, "visibility": -1, "drawOrder": null, "icon": null}, "geometry": {"type": "Point", "coordinates": [-60.80380477637038, -4.174273124086332, 0.0]}}, {"id": "36", "type": "Feature", "properties": {"id": null, "Name": "\u00c1rea 37", "descriptio": "DISCRIMINA\u00c7\u00c3O E CLASSIFICA\u00c7\u00c3O DO PROBLEMA\nER (33) - Eros\u00e3o (Ravinamento), SC \u2013 Sem cobertura\n\nLOCALIZA\u00c7\u00c3O\nDist\u00e2ncia do eixo (m) 8\n\nDIMENS\u00d5ES (m)\nComprimento 56,70\nLargura 50\nAltura 3\n\nSOLU\u00c7\u00c3O\nProte\u00e7\u00e3o vegetal (PVE) com mudas e leguminosas.", "timestamp": null, "begin": null, "end": null, "altitudeMo": null, "tessellate": -1, "extrude": 0, "visibility": -1, "drawOrder": null, "icon": null}, "geometry": {"type": "Point", "coordinates": [-60.80407807689397, -4.175743693353683, 0.0]}}, {"id": "37", "type": "Feature", "properties": {"id": null, "Name": "\u00c1rea 38", "descriptio": "DISCRIMINA\u00c7\u00c3O E CLASSIFICA\u00c7\u00c3O DO PROBLEMA\nER (33) - Eros\u00e3o (Ravinamento), SC \u2013 Sem cobertura\n\nLOCALIZA\u00c7\u00c3O\nDist\u00e2ncia do eixo (m) 8\n\nDIMENS\u00d5ES (m)\nComprimento 92\nLargura 65\nAltura 3\n\nSOLU\u00c7\u00c3O\nProte\u00e7\u00e3o vegetal (PVE) com mudas e leguminosas. Im", "timestamp": null, "begin": null, "end": null, "altitudeMo": null, "tessellate": -1, "extrude": 0, "visibility": -1, "drawOrder": null, "icon": null}, "geometry": {"type": "Point", "coordinates": [-60.80563685216139, -4.178404187119151, 0.0]}}]}