{"type": "FeatureCollection", "features": [{"id": "0", "type": "Feature", "properties": {"contrato": "SR-168-2020", "km": "417,46", "longitude": "-67,32556763", "latitude": "-8,783140862", "tipo": "BSTC", "dimensao": "0,80", "largura": "10", "exten_aoc": "17", "observacao": "Limpeza/desobstru\u00e7\u00e3o", "br_uf": "317/AM", "condicao": "Satisfat\u00f3ria"}, "geometry": {"type": "Point", "coordinates": [-67.32556763, -8.783140862]}}, {"id": "1", "type": "Feature", "properties": {"contrato": "SR-168-2020", "km": "417,5", "longitude": "-67,32461006", "latitude": "-8,783859928", "tipo": "BSTM", "dimensao": "1", "largura": "10", "exten_aoc": "18", "observacao": "Limpeza/desobstru\u00e7\u00e3o", "br_uf": "317/AM", "condicao": "Satisfat\u00f3ria"}, "geometry": {"type": "Point", "coordinates": [-67.32461006, -8.783859928]}}, {"id": "2", "type": "Feature", "properties": {"contrato": "SR-168-2020", "km": "419,6", "longitude": "-67,30937522", "latitude": "-8,794279967", "tipo": "BSTC", "dimensao": "0,8", "largura": "10", "exten_aoc": "17", "observacao": "Limpeza/desobstru\u00e7\u00e3o", "br_uf": "317/AM", "condicao": "Satisfat\u00f3ria"}, "geometry": {"type": "Point", "coordinates": [-67.30937522, -8.794279967]}}, {"id": "3", "type": "Feature", "properties": {"contrato": "SR-168-2020", "km": "421,26", "longitude": "-67,30914392", "latitude": "-8,80918821", "tipo": "BSTM", "dimensao": "0,8", "largura": "10", "exten_aoc": "15", "observacao": "Sem boca de alas lado LE/LD", "br_uf": "317/AM", "condicao": "Demolir e Recompor"}, "geometry": {"type": "Point", "coordinates": [-67.30914392, -8.80918821]}}, {"id": "4", "type": "Feature", "properties": {"contrato": "SR-168-2020", "km": "421,9\r\n", "longitude": "-67,30909257", "latitude": "-8,814486241", "tipo": "BSTM", "dimensao": "0,8", "largura": "10", "exten_aoc": "16", "observacao": "Limpeza/desobstru\u00e7\u00e3o", "br_uf": "317/AM", "condicao": "Satisfat\u00f3ria"}, "geometry": {"type": "Point", "coordinates": [-67.30909257, -8.814486241]}}, {"id": "5", "type": "Feature", "properties": {"contrato": "SR-168-2020", "km": "423,28\r\n", "longitude": "-67,30403084", "latitude": "-8,826172013", "tipo": "BSTM", "dimensao": "0,8", "largura": "10", "exten_aoc": "16", "observacao": "Limpeza/desobstru\u00e7\u00e3o", "br_uf": "317/AM", "condicao": "Satisfat\u00f3ria"}, "geometry": {"type": "Point", "coordinates": [-67.30403084, -8.826172013]}}, {"id": "6", "type": "Feature", "properties": {"contrato": "SR-168-2020", "km": "427,9", "longitude": "-67,28963163", "latitude": "-8,863772728", "tipo": "BSTC", "dimensao": "0,8", "largura": "10", "exten_aoc": "19", "observacao": "Limpeza/desobstru\u00e7\u00e3o", "br_uf": "317/AM", "condicao": "Satisfat\u00f3ria"}, "geometry": {"type": "Point", "coordinates": [-67.28963163, -8.863772728]}}, {"id": "7", "type": "Feature", "properties": {"contrato": "SR-168-2020", "km": "428,42", "longitude": "-67,28766099", "latitude": "-8,86725364", "tipo": "BSTM", "dimensao": "0,8", "largura": "10", "exten_aoc": "14", "observacao": "Limpeza/desobstru\u00e7\u00e3o", "br_uf": "317/AM", "condicao": "Satisfat\u00f3ria"}, "geometry": {"type": "Point", "coordinates": [-67.28766099, -8.86725364]}}, {"id": "8", "type": "Feature", "properties": {"contrato": "SR-168-2020", "km": "429,24", "longitude": "-67,28413015", "latitude": "-8,873900853", "tipo": "BSTM", "dimensao": "1", "largura": "10", "exten_aoc": "14", "observacao": "Limpeza/desobstru\u00e7\u00e3o", "br_uf": "317/AM", "condicao": "Satisfat\u00f3ria"}, "geometry": {"type": "Point", "coordinates": [-67.28413015, -8.873900853]}}, {"id": "9", "type": "Feature", "properties": {"contrato": "SR-168-2020", "km": "429,24", "longitude": "-67,28424808", "latitude": "-8,873955643", "tipo": "BSTM", "dimensao": "1", "largura": "10", "exten_aoc": "14", "observacao": "Limpeza/desobstru\u00e7\u00e3o", "br_uf": "317/AM", "condicao": "Satisfat\u00f3ria"}, "geometry": {"type": "Point", "coordinates": [-67.28424808, -8.873955643]}}, {"id": "10", "type": "Feature", "properties": {"contrato": "SR-168-2020", "km": "433,06", "longitude": "-67,26365306", "latitude": "-8,897982256", "tipo": "BSTC", "dimensao": "0,8", "largura": "10", "exten_aoc": "14", "observacao": "Limpeza/desobstru\u00e7\u00e3o", "br_uf": "317/AM", "condicao": "Satisfat\u00f3ria"}, "geometry": {"type": "Point", "coordinates": [-67.26365306, -8.897982256]}}, {"id": "11", "type": "Feature", "properties": {"contrato": "SR-168-2020", "km": "433,06", "longitude": "-67,26367086", "latitude": "-8,898063709", "tipo": "BSTC", "dimensao": "0,8", "largura": "10", "exten_aoc": "20", "observacao": "Limpeza/desobstru\u00e7\u00e3o", "br_uf": "317/AM", "condicao": "Satisfat\u00f3ria"}, "geometry": {"type": "Point", "coordinates": [-67.26367086, -8.898063709]}}, {"id": "12", "type": "Feature", "properties": {"contrato": "SR-168-2020", "km": "435,22", "longitude": "-67,25260189", "latitude": "-8,914358248", "tipo": "BSTM", "dimensao": "1", "largura": "10", "exten_aoc": "16", "observacao": "Limpeza/desobstru\u00e7\u00e3o", "br_uf": "317/AM", "condicao": "Satisfat\u00f3ria"}, "geometry": {"type": "Point", "coordinates": [-67.25260189, -8.914358248]}}, {"id": "13", "type": "Feature", "properties": {"contrato": "SR-168-2020", "km": "436,36", "longitude": "-67,25057635", "latitude": "-8,923498304", "tipo": "BSTM", "dimensao": "0,8", "largura": "10", "exten_aoc": "14", "observacao": "Bueiro com estado avan\u00e7ado de corros\u00e3o", "br_uf": "317/AM", "condicao": "Demolir e Recompor"}, "geometry": {"type": "Point", "coordinates": [-67.25057635, -8.923498304]}}, {"id": "14", "type": "Feature", "properties": {"contrato": "SR-168-2020", "km": "438,7", "longitude": "-67,24899051", "latitude": "-8,943345032", "tipo": "BSTM", "dimensao": "1", "largura": "10", "exten_aoc": "15", "observacao": "Limpeza/desobstru\u00e7\u00e3o", "br_uf": "317/AM", "condicao": "Satisfat\u00f3ria"}, "geometry": {"type": "Point", "coordinates": [-67.24899051, -8.943345032]}}, {"id": "15", "type": "Feature", "properties": {"contrato": "SR-168-2020", "km": "440,4", "longitude": "-67,2442432", "latitude": "-8,954931273", "tipo": "BSTC", "dimensao": "1,2", "largura": "10", "exten_aoc": "19", "observacao": "Eros\u00e3o LD", "br_uf": "317/AM", "condicao": "Demolir e Recompor"}, "geometry": {"type": "Point", "coordinates": [-67.2442432, -8.954931273]}}, {"id": "16", "type": "Feature", "properties": {"contrato": "SR-168-2020", "km": "440,72", "longitude": "-67,24169937", "latitude": "-8,956374802", "tipo": "BSTM", "dimensao": "2", "largura": "10", "exten_aoc": "23", "observacao": "Limpeza/desobstru\u00e7\u00e3o", "br_uf": "317/AM", "condicao": "Satisfat\u00f3ria"}, "geometry": {"type": "Point", "coordinates": [-67.24169937, -8.956374802]}}, {"id": "17", "type": "Feature", "properties": {"contrato": "SR-168-2020", "km": "441,2", "longitude": "-67,23775395", "latitude": "-8,958082866", "tipo": "BSTM", "dimensao": "0,8", "largura": "10", "exten_aoc": "13", "observacao": "Limpeza/desobstru\u00e7\u00e3o", "br_uf": "317/AM", "condicao": "Satisfat\u00f3ria"}, "geometry": {"type": "Point", "coordinates": [-67.23775395, -8.958082866]}}, {"id": "18", "type": "Feature", "properties": {"contrato": "SR-168-2020", "km": "441,58", "longitude": "-67,23449245", "latitude": "-8,95937826", "tipo": "BSTM", "dimensao": "0,8", "largura": "10", "exten_aoc": "15", "observacao": "Limpeza/desobstru\u00e7\u00e3o", "br_uf": "317/AM", "condicao": "Satisfat\u00f3ria"}, "geometry": {"type": "Point", "coordinates": [-67.23449245, -8.95937826]}}, {"id": "19", "type": "Feature", "properties": {"contrato": "SR-168-2020", "km": "443,32", "longitude": "-67,22136053", "latitude": "-8,967235208", "tipo": "BSTC", "dimensao": "0,8", "largura": "10", "exten_aoc": "14", "observacao": "Limpeza/desobstru\u00e7\u00e3o", "br_uf": "317/AM", "condicao": "Satisfat\u00f3ria"}, "geometry": {"type": "Point", "coordinates": [-67.22136053, -8.967235208]}}, {"id": "20", "type": "Feature", "properties": {"contrato": "SR-168-2020", "km": "444,6", "longitude": "-67,21863423", "latitude": "-8,97808926", "tipo": "BSTM", "dimensao": "0,8", "largura": "10", "exten_aoc": "16", "observacao": "Limpeza/desobstru\u00e7\u00e3o", "br_uf": "317/AM", "condicao": "Satisfat\u00f3ria"}, "geometry": {"type": "Point", "coordinates": [-67.21863423, -8.97808926]}}, {"id": "21", "type": "Feature", "properties": {"contrato": "SR-168-2020", "km": "445,5", "longitude": "-67,21862271", "latitude": "-8,982311311", "tipo": "BSTM", "dimensao": "0,8", "largura": "10", "exten_aoc": "17", "observacao": "Limpeza/desobstru\u00e7\u00e3o", "br_uf": "317/AM", "condicao": "Satisfat\u00f3ria"}, "geometry": {"type": "Point", "coordinates": [-67.21862271, -8.982311311]}}, {"id": "22", "type": "Feature", "properties": {"contrato": "SR-168-2020", "km": "445,58", "longitude": "-67,21662055", "latitude": "-8,986361005", "tipo": "BSTM", "dimensao": "1", "largura": "10", "exten_aoc": "18", "observacao": "Limpeza/desobstru\u00e7\u00e3o", "br_uf": "317/AM", "condicao": "Satisfat\u00f3ria"}, "geometry": {"type": "Point", "coordinates": [-67.21662055, -8.986361005]}}, {"id": "23", "type": "Feature", "properties": {"contrato": "SR-168-2020", "km": "445,6", "longitude": "-67,2164295", "latitude": "-8,986378163", "tipo": "BSTM", "dimensao": "1", "largura": "10", "exten_aoc": "18", "observacao": "Limpeza/desobstru\u00e7\u00e3o", "br_uf": "317/AM", "condicao": "Satisfat\u00f3ria"}, "geometry": {"type": "Point", "coordinates": [-67.2164295, -8.986378163]}}, {"id": "24", "type": "Feature", "properties": {"contrato": "SR-168-2020", "km": "446,58", "longitude": "-67,21059517", "latitude": "-8,993040148", "tipo": "BSTC", "dimensao": "1,2", "largura": "10", "exten_aoc": "18", "observacao": "Limpeza/desobstru\u00e7\u00e3o", "br_uf": "317/AM", "condicao": "Satisfat\u00f3ria"}, "geometry": {"type": "Point", "coordinates": [-67.21059517, -8.993040148]}}, {"id": "25", "type": "Feature", "properties": {"contrato": "SR-168-2020", "km": "447,48", "longitude": "-67,21040566", "latitude": "-9,00014535", "tipo": "BSTM", "dimensao": "0,8", "largura": "10", "exten_aoc": "18", "observacao": "Limpeza/desobstru\u00e7\u00e3o", "br_uf": "317/AM", "condicao": "Satisfat\u00f3ria"}, "geometry": {"type": "Point", "coordinates": [-67.21040566, -9.00014535]}}, {"id": "26", "type": "Feature", "properties": {"contrato": "SR-168-2020", "km": "448,24", "longitude": "-67,20980285", "latitude": "-9,008071256", "tipo": "BSTC", "dimensao": "1,2", "largura": "10", "exten_aoc": "19", "observacao": "Limpeza/desobstru\u00e7\u00e3o", "br_uf": "317/AM", "condicao": "Satisfat\u00f3ria"}, "geometry": {"type": "Point", "coordinates": [-67.20980285, -9.008071256]}}, {"id": "27", "type": "Feature", "properties": {"contrato": "SR-168-2020", "km": "450,36", "longitude": "-67,21233547", "latitude": "-9,025640935", "tipo": "BSTC", "dimensao": "1,2", "largura": "10", "exten_aoc": "18", "observacao": "Limpeza/desobstru\u00e7\u00e3o", "br_uf": "317/AM", "condicao": "Satisfat\u00f3ria"}, "geometry": {"type": "Point", "coordinates": [-67.21233547, -9.025640935]}}, {"id": "28", "type": "Feature", "properties": {"contrato": "SR-168-2020", "km": "453,24", "longitude": "-67,22399417", "latitude": "-9,042432232", "tipo": "BSTM", "dimensao": "2", "largura": "12", "exten_aoc": "22", "observacao": "Eros\u00e3o LD/LE", "br_uf": "317/AM", "condicao": "Demolir e Recompor"}, "geometry": {"type": "Point", "coordinates": [-67.22399417, -9.042432232]}}, {"id": "29", "type": "Feature", "properties": {"contrato": "SR-168-2020", "km": "453,26", "longitude": "-67,22407527", "latitude": "-9,04258632", "tipo": "BSTM", "dimensao": "2,5", "largura": "12", "exten_aoc": "22", "observacao": "Limpeza/desobstru\u00e7\u00e3o", "br_uf": "317/AM", "condicao": "Satisfat\u00f3ria"}, "geometry": {"type": "Point", "coordinates": [-67.22407527, -9.04258632]}}, {"id": "30", "type": "Feature", "properties": {"contrato": "SR-168-2020", "km": "453,5", "longitude": "-67,22621873", "latitude": "-9,046900176", "tipo": "BSTM", "dimensao": "2,5", "largura": "12", "exten_aoc": "23", "observacao": "Limpeza/desobstru\u00e7\u00e3o", "br_uf": "317/AM", "condicao": "Satisfat\u00f3ria"}, "geometry": {"type": "Point", "coordinates": [-67.22621873, -9.046900176]}}, {"id": "31", "type": "Feature", "properties": {"contrato": "SR-168-2020", "km": "459,86", "longitude": "-67,23966504", "latitude": "-9,062940427", "tipo": "BSTC", "dimensao": "1", "largura": "12", "exten_aoc": "21", "observacao": "Totalmente Afogado, assoreado, obstru\u00eddo com grau de corros\u00e3o avan\u00e7ada.", "br_uf": "317/AM", "condicao": "Demolir e Recompor"}, "geometry": {"type": "Point", "coordinates": [-67.23966504, -9.062940427]}}, {"id": "32", "type": "Feature", "properties": {"contrato": "SR-168-2020", "km": "460,2", "longitude": "-67,2484782", "latitude": "-9,098613344", "tipo": "BSTC", "dimensao": "0,8", "largura": "12", "exten_aoc": "19", "observacao": "Sem boca de alas lado LE/LD", "br_uf": "317/AM", "condicao": "Demolir e Recompor"}, "geometry": {"type": "Point", "coordinates": [-67.2484782, -9.098613344]}}, {"id": "33", "type": "Feature", "properties": {"contrato": "SR-168-2020", "km": "461,1", "longitude": "-67,24820806", "latitude": "-9,101785436", "tipo": "BSTM", "dimensao": "0,8", "largura": "12", "exten_aoc": "16", "observacao": "Totalmente Afogado, assoreado, obstru\u00eddo com grau de corros\u00e3o avan\u00e7ada.", "br_uf": "317/AM", "condicao": "Demolir e Recompor"}, "geometry": {"type": "Point", "coordinates": [-67.24820806, -9.101785436]}}, {"id": "34", "type": "Feature", "properties": {"contrato": "SR-168-2020", "km": "461,55", "longitude": "-67,24997304", "latitude": "-9,105473608", "tipo": "BSTC", "dimensao": "0,8", "largura": "12", "exten_aoc": "20", "observacao": "Limpeza/desobstru\u00e7\u00e3o", "br_uf": "317/AM", "condicao": "Satisfat\u00f3ria"}, "geometry": {"type": "Point", "coordinates": [-67.24997304, -9.105473608]}}, {"id": "35", "type": "Feature", "properties": {"contrato": "SR-168-2020", "km": "466,74", "longitude": "-67,28704193", "latitude": "-9,137926822", "tipo": "BSTC", "dimensao": "0,8", "largura": "10", "exten_aoc": "16", "observacao": "Limpeza/desobstru\u00e7\u00e3o", "br_uf": "317/AM", "condicao": "Satisfat\u00f3ria"}, "geometry": {"type": "Point", "coordinates": [-67.28704193, -9.137926822]}}, {"id": "36", "type": "Feature", "properties": {"contrato": "SR-168-2020", "km": "468,9", "longitude": "-67,29350711", "latitude": "-9,155786494", "tipo": "BSTM", "dimensao": "1", "largura": "10", "exten_aoc": "16", "observacao": "Limpeza/desobstru\u00e7\u00e3o", "br_uf": "317/AM", "condicao": "Satisfat\u00f3ria"}, "geometry": {"type": "Point", "coordinates": [-67.29350711, -9.155786494]}}, {"id": "37", "type": "Feature", "properties": {"contrato": "SR-168-2020", "km": "470,48", "longitude": "-67,29321365", "latitude": "-9,169609068", "tipo": "BSTM", "dimensao": "0,8", "largura": "10", "exten_aoc": "17", "observacao": "Totalmente Afogado, assoreado, obstru\u00eddo com grau de corros\u00e3o avan\u00e7ada.", "br_uf": "317/AM", "condicao": "Demolir e Recompor"}, "geometry": {"type": "Point", "coordinates": [-67.29321365, -9.169609068]}}, {"id": "38", "type": "Feature", "properties": {"contrato": "SR-168-2020", "km": "471,9", "longitude": "-67,28838039", "latitude": "-9,179513409", "tipo": "BSTC", "dimensao": "1", "largura": "10", "exten_aoc": "15", "observacao": "Limpeza/desobstru\u00e7\u00e3o", "br_uf": "317/AM", "condicao": "Satisfat\u00f3ria"}, "geometry": {"type": "Point", "coordinates": [-67.28838039, -9.179513409]}}, {"id": "39", "type": "Feature", "properties": {"contrato": "SR-168-2020", "km": "472,9", "longitude": "-67,28159872", "latitude": "-9,185837124", "tipo": "BSTC", "dimensao": "1", "largura": "10", "exten_aoc": "18", "observacao": "Limpeza/desobstru\u00e7\u00e3o", "br_uf": "317/AM", "condicao": "Satisfat\u00f3ria"}, "geometry": {"type": "Point", "coordinates": [-67.28159872, -9.185837124]}}, {"id": "40", "type": "Feature", "properties": {"contrato": "SR-168-2020", "km": "472,9", "longitude": "-67,28159811", "latitude": "-9,185963697", "tipo": "BSTM", "dimensao": "1", "largura": "10", "exten_aoc": "18", "observacao": "Limpeza/desobstru\u00e7\u00e3o", "br_uf": "317/AM", "condicao": "Satisfat\u00f3ria"}, "geometry": {"type": "Point", "coordinates": [-67.28159811, -9.185963697]}}, {"id": "41", "type": "Feature", "properties": {"contrato": "SR-168-2020", "km": "474,9", "longitude": "-67,28434003", "latitude": "-9,202304999", "tipo": "BSTM", "dimensao": "1", "largura": "10", "exten_aoc": "14", "observacao": "Limpeza/desobstru\u00e7\u00e3o", "br_uf": "317/AM", "condicao": "Satisfat\u00f3ria"}, "geometry": {"type": "Point", "coordinates": [-67.28434003, -9.202304999]}}, {"id": "42", "type": "Feature", "properties": {"contrato": "SR-168-2020", "km": "476,58", "longitude": "-67,29193609", "latitude": "-9,2178376", "tipo": "BSTM", "dimensao": "1", "largura": "10", "exten_aoc": "19", "observacao": "Limpeza/desobstru\u00e7\u00e3o", "br_uf": "317/AM", "condicao": "Satisfat\u00f3ria"}, "geometry": {"type": "Point", "coordinates": [-67.29193609, -9.2178376]}}, {"id": "43", "type": "Feature", "properties": {"contrato": "SR-168-2020", "km": "476,88", "longitude": "-67,29207887", "latitude": "-9,220315551", "tipo": "BSTM", "dimensao": "2,5", "largura": "10", "exten_aoc": "26", "observacao": "Limpeza/desobstru\u00e7\u00e3o", "br_uf": "317/AM", "condicao": "Satisfat\u00f3ria"}, "geometry": {"type": "Point", "coordinates": [-67.29193609, -9.2178376]}}, {"id": "44", "type": "Feature", "properties": {"contrato": "SR-168-2020", "km": "476,9", "longitude": "-67,292141", "latitude": "-9,220641327", "tipo": "BSTM", "dimensao": "2,5", "largura": "10", "exten_aoc": "26", "observacao": "Limpeza/desobstru\u00e7\u00e3o", "br_uf": "317/AM", "condicao": "Satisfat\u00f3ria"}, "geometry": {"type": "Point", "coordinates": [-67.29207887, -9.220315551]}}, {"id": "45", "type": "Feature", "properties": {"contrato": "SR-168-2020", "km": "477,8", "longitude": "-67,28765894", "latitude": "-9,227337577", "tipo": "BDTC", "dimensao": "1", "largura": "10", "exten_aoc": "20", "observacao": "Limpeza/desobstru\u00e7\u00e3o", "br_uf": "317/AM", "condicao": "Satisfat\u00f3ria"}, "geometry": {"type": "Point", "coordinates": [-67.292141, -9.220641327]}}, {"id": "46", "type": "Feature", "properties": {"contrato": "SR-168-2020", "km": "478,4", "longitude": "-67,28558039", "latitude": "-9,231884391", "tipo": "BSTM", "dimensao": "0,8", "largura": "10", "exten_aoc": "20", "observacao": "Limpeza/desobstru\u00e7\u00e3o", "br_uf": "317/AM", "condicao": "Satisfat\u00f3ria"}, "geometry": {"type": "Point", "coordinates": [-67.28765894, -9.227337577]}}, {"id": "47", "type": "Feature", "properties": {"contrato": "SR-168-2020", "km": "481,28", "longitude": "-67,29152482", "latitude": "-9,257860745", "tipo": "BSTC", "dimensao": "1", "largura": "12", "exten_aoc": "21", "observacao": "Totalmente Afogado, assoreado, obstru\u00eddo com grau de corros\u00e3o avan\u00e7ada.", "br_uf": "317/AM", "condicao": "Demolir e Recompor"}, "geometry": {"type": "Point", "coordinates": [-67.28558039, -9.231884391]}}, {"id": "48", "type": "Feature", "properties": {"contrato": "SR-168-2020", "km": "481,8", "longitude": "-67,2933239", "latitude": "-9,260337546", "tipo": "BSTM", "dimensao": "1", "largura": "11", "exten_aoc": "21", "observacao": "Totalmente Afogado, assoreado, obstru\u00eddo com grau de corros\u00e3o avan\u00e7ada.", "br_uf": "317/AM", "condicao": "Demolir e Recompor"}, "geometry": {"type": "Point", "coordinates": [-67.29152482, -9.257860745]}}, {"id": "49", "type": "Feature", "properties": {"contrato": "SR-168-2020", "km": "482,5", "longitude": "-67,29499167", "latitude": "-9,265517017", "tipo": "BSTM", "dimensao": "1", "largura": "13", "exten_aoc": "21", "observacao": "Ber\u00e7o quebrado LE", "br_uf": "317/AM", "condicao": "Demolir e Recompor"}, "geometry": {"type": "Point", "coordinates": [-67.2933239, -9.260337546]}}, {"id": "50", "type": "Feature", "properties": {"contrato": "SR-168-2020", "km": "482,7", "longitude": "-67,29616914", "latitude": "-9,266688928", "tipo": "BSTM", "dimensao": "1", "largura": "12", "exten_aoc": "20", "observacao": "Totalmente Afogado, assoreado, obstru\u00eddo com grau de corros\u00e3o avan\u00e7ada.", "br_uf": "317/AM", "condicao": "Demolir e Recompor"}, "geometry": {"type": "Point", "coordinates": [-67.29499167, -9.265517017]}}, {"id": "51", "type": "Feature", "properties": {"contrato": "SR-168-2020", "km": "483,2", "longitude": "-67,29750345", "latitude": "-9,271197766", "tipo": "BSTC", "dimensao": "1", "largura": "11", "exten_aoc": "20", "observacao": "Limpeza/desobstru\u00e7\u00e3o", "br_uf": "317/AM", "condicao": "Satisfat\u00f3ria"}, "geometry": {"type": "Point", "coordinates": [-67.29616914, -9.266688928]}}, {"id": "52", "type": "Feature", "properties": {"contrato": "SR-168-2020", "km": "485", "longitude": "-67,29647017", "latitude": "-9,287286072", "tipo": "BSTM", "dimensao": "1", "largura": "14", "exten_aoc": "22", "observacao": "Totalmente Afogado, assoreado, obstru\u00eddo com grau de corros\u00e3o avan\u00e7ada.", "br_uf": "317/AM", "condicao": "Demolir e Recompor"}, "geometry": {"type": "Point", "coordinates": [-67.29750345, -9.271197766]}}, {"id": "53", "type": "Feature", "properties": {"contrato": "SR-168-2020", "km": "485,3", "longitude": "-67,29776065", "latitude": "-9,289570589", "tipo": "BSTC", "dimensao": "1", "largura": "12", "exten_aoc": "22", "observacao": "Limpeza/desobstru\u00e7\u00e3o", "br_uf": "317/AM", "condicao": "Satisfat\u00f3ria"}, "geometry": {"type": "Point", "coordinates": [-67.29647017, -9.287286072]}}, {"id": "54", "type": "Feature", "properties": {"contrato": "SR-168-2020", "km": "486,06", "longitude": "-67,30166947", "latitude": "-9,294353883", "tipo": "BSTM", "dimensao": "1", "largura": "12", "exten_aoc": "20", "observacao": "Totalmente Afogado, assoreado, obstru\u00eddo com grau de corros\u00e3o avan\u00e7ada.", "br_uf": "317/AM", "condicao": "Demolir e Recompor"}, "geometry": {"type": "Point", "coordinates": [-67.29776065, -9.289570589]}}, {"id": "55", "type": "Feature", "properties": {"contrato": "SR-168-2020", "km": "486,26", "longitude": "-67,30330338", "latitude": "-9,295265768", "tipo": "BSTM", "dimensao": "1", "largura": "13", "exten_aoc": "23", "observacao": "Totalmente Afogado, assoreado, obstru\u00eddo com grau de corros\u00e3o avan\u00e7ada.", "br_uf": "317/AM", "condicao": "Demolir e Recompor"}, "geometry": {"type": "Point", "coordinates": [-67.30166947, -9.294353883]}}, {"id": "56", "type": "Feature", "properties": {"contrato": "SR-168-2020", "km": "487,14", "longitude": "-67,30762167", "latitude": "-9,301994819", "tipo": "BSTM", "dimensao": "1", "largura": "14", "exten_aoc": "22", "observacao": "Totalmente Afogado, assoreado, obstru\u00eddo com grau de corros\u00e3o avan\u00e7ada.", "br_uf": "317/AM", "condicao": "Demolir e Recompor"}, "geometry": {"type": "Point", "coordinates": [-67.30330338, -9.295265768]}}, {"id": "57", "type": "Feature", "properties": {"contrato": "SR-168-2020", "km": "488,1", "longitude": "-67,31358035", "latitude": "-9,308333795", "tipo": "BSTM", "dimensao": "1", "largura": "14", "exten_aoc": "21", "observacao": "Limpeza/desobstru\u00e7\u00e3o", "br_uf": "317/AM", "condicao": "Satisfat\u00f3ria"}, "geometry": {"type": "Point", "coordinates": [-67.30762167, -9.301994819]}}, {"id": "58", "type": "Feature", "properties": {"contrato": "SR-168-2020", "km": "490,16", "longitude": "-67,30508908", "latitude": "-9,319459359", "tipo": "BSTC", "dimensao": "1", "largura": "14", "exten_aoc": "20", "observacao": "Limpeza/desobstru\u00e7\u00e3o", "br_uf": "317/AM", "condicao": "Satisfat\u00f3ria"}, "geometry": {"type": "Point", "coordinates": [-67.30508908, -9.319459359]}}, {"id": "59", "type": "Feature", "properties": {"contrato": "SR-168-2020", "km": "492,16", "longitude": "-67,29620545", "latitude": "-9,330664111", "tipo": "BSTC", "dimensao": "1", "largura": "12", "exten_aoc": "19", "observacao": "Ala quebrada LE", "br_uf": "317/AM", "condicao": "Satisfat\u00f3ria"}, "geometry": {"type": "Point", "coordinates": [-67.29620545, -9.330664111]}}, {"id": "60", "type": "Feature", "properties": {"contrato": "SR-168-2020", "km": "492,9", "longitude": "-67,28628432", "latitude": "-9,332388498", "tipo": "BSTM", "dimensao": "1", "largura": "13", "exten_aoc": "20", "observacao": "Eros\u00e3o LD", "br_uf": "317/AM", "condicao": "Satisfat\u00f3ria"}, "geometry": {"type": "Point", "coordinates": [-67.28628432, -9.332388498]}}, {"id": "61", "type": "Feature", "properties": {"contrato": "SR-168-2020", "km": "494,9", "longitude": "-67,27705526", "latitude": "-9,339603845", "tipo": "BSTC", "dimensao": "1", "largura": "13", "exten_aoc": "26", "observacao": "Limpeza/desobstru\u00e7\u00e3o", "br_uf": "317/AM", "condicao": "Satisfat\u00f3ria"}, "geometry": {"type": "Point", "coordinates": [-67.27705526, -9.339603845]}}, {"id": "62", "type": "Feature", "properties": {"contrato": "SR-168-2020", "km": "496", "longitude": "-67,27468244", "latitude": "-9,351933308", "tipo": "BSTM", "dimensao": "1", "largura": "14", "exten_aoc": "22", "observacao": "Totalmente Afogado, assoreado, obstru\u00eddo com grau de corros\u00e3o avan\u00e7ada.", "br_uf": "317/AM", "condicao": "Demolir e Recompor"}, "geometry": {"type": "Point", "coordinates": [-67.27468244, -9.351933308]}}, {"id": "63", "type": "Feature", "properties": {"contrato": "SR-168-2020", "km": "508,78", "longitude": "-67,2950866", "latitude": "-9,447804015", "tipo": "BSTM", "dimensao": "2,5", "largura": "10", "exten_aoc": "25", "observacao": "Limpeza/desobstru\u00e7\u00e3o", "br_uf": "317/AM", "condicao": "Satisfat\u00f3ria"}, "geometry": {"type": "Point", "coordinates": [-67.2950866, -9.447804015]}}, {"id": "64", "type": "Feature", "properties": {"contrato": "SR-168-2020", "km": "512,5", "longitude": "-67,28616291", "latitude": "-9,477243329", "tipo": "BSTM", "dimensao": "0,8", "largura": "10", "exten_aoc": "18", "observacao": "Limpeza/desobstru\u00e7\u00e3o", "br_uf": "317/AM", "condicao": "Satisfat\u00f3ria"}, "geometry": {"type": "Point", "coordinates": [-67.28616291, -9.477243329]}}, {"id": "65", "type": "Feature", "properties": {"contrato": "SR-168-2020", "km": "514", "longitude": "-67,28565213", "latitude": "-9,490241778", "tipo": "BSTM", "dimensao": "1", "largura": "10", "exten_aoc": "15", "observacao": "Totalmente Afogado, assoreado, obstru\u00eddo com grau de corros\u00e3o avan\u00e7ada.", "br_uf": "317/AM", "condicao": "Demolir e Recompor"}, "geometry": {"type": "Point", "coordinates": [-67.28565213, -9.490241778]}}, {"id": "66", "type": "Feature", "properties": {"contrato": "SR-168-2020", "km": "515,3", "longitude": "-67,28356185", "latitude": "-9,500357426", "tipo": "BSTM", "dimensao": "0,8", "largura": "10", "exten_aoc": "18", "observacao": "Totalmente Afogado, assoreado, obstru\u00eddo com grau de corros\u00e3o avan\u00e7ada.", "br_uf": "317/AM", "condicao": "Demolir e Recompor"}, "geometry": {"type": "Point", "coordinates": [-67.28356185, -9.500357426]}}, {"id": "67", "type": "Feature", "properties": {"contrato": "SR-168-2020", "km": "516,26", "longitude": "-67,2870528", "latitude": "-9,516232443", "tipo": "BSTC", "dimensao": "1", "largura": "12", "exten_aoc": "20", "observacao": "Limpeza/desobstru\u00e7\u00e3o", "br_uf": "317/AM", "condicao": "Satisfat\u00f3ria"}, "geometry": {"type": "Point", "coordinates": [-67.2870528, -9.516232443]}}, {"id": "68", "type": "Feature", "properties": {"contrato": "SR-168-2020", "km": "518,12", "longitude": "-67,29580692", "latitude": "-9,532386396", "tipo": "BSTM", "dimensao": "0,8", "largura": "11", "exten_aoc": "15", "observacao": "Totalmente Afogado, assoreado, obstru\u00eddo com grau de corros\u00e3o avan\u00e7ada.", "br_uf": "317/AM", "condicao": "Demolir e Recompor"}, "geometry": {"type": "Point", "coordinates": [-67.29580692, -9.532386396]}}, {"id": "69", "type": "Feature", "properties": {"contrato": "SR-168-2020", "km": "520,14", "longitude": "-67,30009658", "latitude": "-9,548961478", "tipo": "BSTM", "dimensao": "0,8", "largura": "15", "exten_aoc": "17", "observacao": "Totalmente Afogado, assoreado, obstru\u00eddo com grau de corros\u00e3o avan\u00e7ada.", "br_uf": "317/AM", "condicao": "Demolir e Recompor"}, "geometry": {"type": "Point", "coordinates": [-67.30009658, -9.548961478]}}, {"id": "70", "type": "Feature", "properties": {"contrato": "SR-168-2020", "km": "523,42", "longitude": "-67,31523109", "latitude": "-9,575606866", "tipo": "BSTM", "dimensao": "0,8", "largura": "13", "exten_aoc": "15", "observacao": "Totalmente Afogado, assoreado, obstru\u00eddo com grau de corros\u00e3o avan\u00e7ada.", "br_uf": "317/AM", "condicao": "Demolir e Recompor"}, "geometry": {"type": "Point", "coordinates": [-67.31523109, -9.575606866]}}, {"id": "71", "type": "Feature", "properties": {"contrato": "SR-168-2020", "km": "524,64", "longitude": "-67,3208596", "latitude": "-9,585064025", "tipo": "BSTM", "dimensao": "0,8", "largura": "14", "exten_aoc": "15", "observacao": "Totalmente Afogado, assoreado, obstru\u00eddo com grau de corros\u00e3o avan\u00e7ada.", "br_uf": "317/AM", "condicao": "Demolir e Recompor"}, "geometry": {"type": "Point", "coordinates": [-67.3208596, -9.585064025]}}]}