{"type": "FeatureCollection", "features": [{"id": "0", "type": "Feature", "properties": {"Name": "Balsa do Igap\u00f3 A\u00e7u", "LOCAL": "IGAP\u00d3 A\u00c7U", "MAT_PONTE": "BALSA", "LONG": "061\u00b0 17.556' W", "LAT": "04\u00b0 42.719' S", "Campo": null}, "geometry": {"type": "Point", "coordinates": [-61.292598116999955, -4.71197699399994, 0.0]}}, {"id": "1", "type": "Feature", "properties": {"Name": "Caminho sem t\u00edtulo", "LOCAL": null, "MAT_PONTE": null, "LONG": "061\u00b0 54.071' W", "LAT": "05\u00b0 15.279' S", "Campo": null}, "geometry": {"type": "Point", "coordinates": [-61.90118915199997, -5.25465393099995, 0.0]}}, {"id": "2", "type": "Feature", "properties": {"Name": "Ponte de Madeira Sobre o Igarap\u00e9 Rio de Janeiro", "LOCAL": "IGARAP\u00c9 RIO DE JANEIRO", "MAT_PONTE": "PONTE DE MADEIRA", "LONG": "062\u00b0 1.403' W", "LAT": "05\u00b0 20.249' S", "Campo": null}, "geometry": {"type": "Point", "coordinates": [-62.02339086699993, -5.337487850999935, 0.0]}}, {"id": "3", "type": "Feature", "properties": {"Name": "Ponte de Madeira Sobre o Igarap\u00e9 Rio Novo", "LOCAL": "IGARAP\u00c9 RIO NOVO", "MAT_PONTE": "PONTE DE MADEIRA", "LONG": "062\u00b0 0.025' W", "LAT": "05\u00b0 19.049' S", "Campo": null}, "geometry": {"type": "Point", "coordinates": [-62.00042218599998, -5.317478284999936, 0.0]}}, {"id": "4", "type": "Feature", "properties": {"Name": "Ponte de Madeira Sobre o Rio  Acre", "LOCAL": "RIO ACRE", "MAT_PONTE": "PONTE DE MADEIRA", "LONG": "061\u00b0 54.186' W", "LAT": "05\u00b0 15.391' S", "Campo": null}, "geometry": {"type": "Point", "coordinates": [-61.90309296799995, -5.256513089999942, 0.0]}}, {"id": "5", "type": "Feature", "properties": {"Name": "Ponte de Madeira Sobre o Rio Acar\u00e1", "LOCAL": "RIO ACAR\u00c1", "MAT_PONTE": "PONTE DE MADEIRA", "LONG": "062\u00b0 58.259' W", "LAT": "06\u00b0 41.393' S", "Campo": null}, "geometry": {"type": "Point", "coordinates": [-62.97098352499995, -6.68988072999997, 0.0]}}, {"id": "6", "type": "Feature", "properties": {"Name": "Ponte de Madeira Sobre o Rio \u00c1guas Cristalinas", "LOCAL": "RIO \u00c1GUAS CRISTALINAS", "MAT_PONTE": "PONTE DE MADEIRA", "LONG": "061\u00b0 31.587' W", "LAT": "04\u00b0 56.596' S", "Campo": null}, "geometry": {"type": "Point", "coordinates": [-61.52644539099998, -4.9432670599999256, 0.0]}}, {"id": "7", "type": "Feature", "properties": {"Name": "Ponte de Madeira Sobre o Rio Arist\u00f3teles", "LOCAL": "RIO ARIST\u00d3TELES", "MAT_PONTE": "PONTE DE MADEIRA", "LONG": "061\u00b0 46.296' W", "LAT": "05\u00b0 9.451' S", "Campo": null}, "geometry": {"type": "Point", "coordinates": [-61.771593302999975, -5.157518256999936, 0.0]}}, {"id": "8", "type": "Feature", "properties": {"Name": "Ponte de Madeira Sobre o Rio Bandeir\u00e3o", "LOCAL": "RIO BANDEIR\u00c3O", "MAT_PONTE": "PONTE DE MADEIRA", "LONG": "061\u00b0 18.178' W", "LAT": "04\u00b0 44.199' S", "Campo": null}, "geometry": {"type": "Point", "coordinates": [-61.30296275899997, -4.73664965699993, 0.0]}}, {"id": "9", "type": "Feature", "properties": {"Name": "Ponte de Madeira Sobre o Rio Beija Flor", "LOCAL": "RIO BEIJA FLOR", "MAT_PONTE": "PONTE DE MADEIRA", "LONG": "061\u00b0 52.432' W", "LAT": "05\u00b0 13.674' S", "Campo": null}, "geometry": {"type": "Point", "coordinates": [-61.87386033499996, -5.227898031999928, 0.0]}}, {"id": "10", "type": "Feature", "properties": {"Name": "Ponte de Madeira Sobre o Rio Beleza", "LOCAL": "RIO BELEZA", "MAT_PONTE": "PONTE DE MADEIRA", "LONG": "061\u00b0 21.057' W", "LAT": "04\u00b0 47.543' S", "Campo": null}, "geometry": {"type": "Point", "coordinates": [-61.35094476199998, -4.792390930999943, 0.0]}}, {"id": "11", "type": "Feature", "properties": {"Name": "Ponte de Madeira Sobre o Rio Bondade", "LOCAL": "RIO BANDADE", "MAT_PONTE": "PONTE DE MADEIRA", "LONG": "061\u00b0 45.543' W", "LAT": "05\u00b0 8.818' S", "Campo": null}, "geometry": {"type": "Point", "coordinates": [-61.75904340799997, -5.1469673349999425, 0.0]}}, {"id": "12", "type": "Feature", "properties": {"Name": "Ponte de Madeira Sobre o Rio Broad", "LOCAL": "RIO BROAD", "MAT_PONTE": "PONTE DE MADEIRA", "LONG": "061\u00b0 30.301' W", "LAT": "04\u00b0 55.619' S", "Campo": null}, "geometry": {"type": "Point", "coordinates": [-61.50501368899995, -4.926976768999964, 0.0]}}, {"id": "13", "type": "Feature", "properties": {"Name": "Ponte de Madeira Sobre o Rio Castelo", "LOCAL": "RIO CASTELO", "MAT_PONTE": "PONTE DE MADEIRA", "LONG": "061\u00b0 33.201' W", "LAT": "04\u00b0 57.818' S", "Campo": null}, "geometry": {"type": "Point", "coordinates": [-61.55334432899997, -4.963629670999978, 0.0]}}, {"id": "14", "type": "Feature", "properties": {"Name": "Ponte de Madeira Sobre o Rio Cear\u00e1", "LOCAL": "RIO CEAR\u00c1", "MAT_PONTE": "PONTE DE MADEIRA", "LONG": "062\u00b0 7.444' W", "LAT": "05\u00b0 30.245' S", "Campo": null}, "geometry": {"type": "Point", "coordinates": [-62.124067158999935, -5.504087010999967, 0.0]}}, {"id": "15", "type": "Feature", "properties": {"Name": "Ponte de Madeira Sobre o Rio Cotia", "LOCAL": "RIO COTIA", "MAT_PONTE": "PONTE DE MADEIRA", "LONG": "062\u00b0 49.555' W", "LAT": "06\u00b0 23.238' S", "Campo": null}, "geometry": {"type": "Point", "coordinates": [-62.82592444799997, -6.387299704999975, 0.0]}}, {"id": "16", "type": "Feature", "properties": {"Name": "Ponte de Madeira Sobre o Rio Esp\u00edrito Santo", "LOCAL": "RIO ESP\u00cdRITO SANTO", "MAT_PONTE": "PONTE DE MADEIRA", "LONG": "062\u00b0 2.217' W", "LAT": "05\u00b0 21.354' S", "Campo": null}, "geometry": {"type": "Point", "coordinates": [-62.03695435499998, -5.355901231999951, 0.0]}}, {"id": "17", "type": "Feature", "properties": {"Name": "Ponte de Madeira Sobre o Rio Estrelas", "LOCAL": "RIO ESTRLAS", "MAT_PONTE": "PONTE DE MADEIRA", "LONG": "061\u00b0 42.201' W", "LAT": "05\u00b0 5.994' S", "Campo": null}, "geometry": {"type": "Point", "coordinates": [-61.703355761999944, -5.0998927209999465, 0.0]}}, {"id": "18", "type": "Feature", "properties": {"Name": "Ponte de Madeira Sobre o Rio Flores", "LOCAL": "RIO FLORES", "MAT_PONTE": "PONTE DE MADEIRA", "LONG": "061\u00b0 24.174' W", "LAT": "04\u00b0 50.354' S", "Campo": null}, "geometry": {"type": "Point", "coordinates": [-61.40290170499998, -4.839237332999971, 0.0]}}, {"id": "19", "type": "Feature", "properties": {"Name": "Ponte de Madeira Sobre o Rio Fortaleza", "LOCAL": "RIO FORTALEZA", "MAT_PONTE": "PONTE DE MADEIRA", "LONG": "063\u00b0 6.604' W", "LAT": "07\u00b0 5.093' S", "Campo": null}, "geometry": {"type": "Point", "coordinates": [-63.11006052499994, -7.084884006999971, 0.0]}}, {"id": "20", "type": "Feature", "properties": {"Name": "Ponte de Madeira Sobre o Rio Goiabal", "LOCAL": "RIO GOIABAL", "MAT_PONTE": "PONTE DE MADEIRA", "LONG": "062\u00b0 8.185' W", "LAT": "05\u00b0 31.296' S", "Campo": null}, "geometry": {"type": "Point", "coordinates": [-62.13641403799994, -5.5216035509999415, 0.0]}}, {"id": "21", "type": "Feature", "properties": {"Name": "Ponte de Madeira Sobre o Rio Itamar", "LOCAL": "RIO ITAMAR", "MAT_PONTE": "PONTE DE MADEIRA", "LONG": "061\u00b0 44.753' W", "LAT": "05\u00b0 8.155' S", "Campo": null}, "geometry": {"type": "Point", "coordinates": [-61.745888211999954, -5.135914130999936, 0.0]}}, {"id": "22", "type": "Feature", "properties": {"Name": "Ponte de Madeira Sobre o Rio Jacareatinga", "LOCAL": "RIO JACAREATINGA", "MAT_PONTE": "PONTE DE MADEIRA", "LONG": "061\u00b0 28.024' W", "LAT": "04\u00b0 54.259' S", "Campo": null}, "geometry": {"type": "Point", "coordinates": [-61.46706211999998, -4.904309477999959, 0.0]}}, {"id": "23", "type": "Feature", "properties": {"Name": "Ponte de Madeira Sobre o Rio Jord\u00e3o", "LOCAL": "RIO JORD\u00c3O", "MAT_PONTE": "PONTE DE MADEIRA", "LONG": "061\u00b0 15.847' W", "LAT": "04\u00b0 39.131' S", "Campo": null}, "geometry": {"type": "Point", "coordinates": [-61.26412405399998, -4.652189206999935, 0.0]}}, {"id": "24", "type": "Feature", "properties": {"Name": "Ponte de Madeira Sobre o Rio Juta\u00ed", "LOCAL": "RIO JUTA\u00cd", "MAT_PONTE": "PONTE DE MADEIRA", "LONG": "062\u00b0 6.109' W", "LAT": "05\u00b0 27.489' S", "Campo": null}, "geometry": {"type": "Point", "coordinates": [-62.10181401999995, -5.458152672999972, 0.0]}}, {"id": "25", "type": "Feature", "properties": {"Name": "Ponte de Madeira Sobre o Rio Lua", "LOCAL": "RIO LUA", "MAT_PONTE": "PONTE DE MADEIRA", "LONG": "061\u00b0 41.246' W", "LAT": "05\u00b0 5.123' S", "Campo": null}, "geometry": {"type": "Point", "coordinates": [-61.687429186999964, -5.085378908999928, 0.0]}}, {"id": "26", "type": "Feature", "properties": {"Name": "Ponte de Madeira Sobre o Rio Manezinho", "LOCAL": "RIO MANEZINHO", "MAT_PONTE": "PONTE DE MADEIRA", "LONG": "061\u00b0 24.854' W", "LAT": "04\u00b0 50.985' S", "Campo": null}, "geometry": {"type": "Point", "coordinates": [-61.414237775999936, -4.849756923999962, 0.0]}}, {"id": "27", "type": "Feature", "properties": {"Name": "Ponte de Madeira Sobre o Rio Manicor\u00e9", "LOCAL": "RIO MANICOR\u00c9", "MAT_PONTE": "PONTE DE MADEIRA", "LONG": "061\u00b0 49.859' W", "LAT": "05\u00b0 11.807' S", "Campo": null}, "geometry": {"type": "Point", "coordinates": [-61.830988711999964, -5.1967910899999765, 0.0]}}, {"id": "28", "type": "Feature", "properties": {"Name": "Ponte de Madeira Sobre o Rio Maranh\u00e3o", "LOCAL": "RIO MARANH\u00c3O", "MAT_PONTE": "PONTE DE MADEIRA", "LONG": "062\u00b0 5.095' W", "LAT": "05\u00b0 25.414' S", "Campo": null}, "geometry": {"type": "Point", "coordinates": [-62.084917367999935, -5.423570004999931, 0.0]}}, {"id": "29", "type": "Feature", "properties": {"Name": "Ponte de Madeira Sobre o Rio Mato Grosso", "LOCAL": "RIO MATO GROSSO", "MAT_PONTE": "PONTE DE MADEIRA", "LONG": "061\u00b0 55.756' W", "LAT": "05\u00b0 16.926' S", "Campo": null}, "geometry": {"type": "Point", "coordinates": [-61.929261086999986, -5.2821039629999404, 0.0]}}, {"id": "30", "type": "Feature", "properties": {"Name": "Ponte de Madeira Sobre o Rio Milagres", "LOCAL": "RIO MILAGRES", "MAT_PONTE": "PONTE DE MADEIRA", "LONG": "061\u00b0 46.917' W", "LAT": "05\u00b0 9.958' S", "Campo": null}, "geometry": {"type": "Point", "coordinates": [-61.78195517399996, -5.165959958999963, 0.0]}}, {"id": "31", "type": "Feature", "properties": {"Name": "Ponte de Madeira Sobre o Rio Minas Gerais", "LOCAL": "RIO MINAS GERAIS", "MAT_PONTE": "PONTE DE MADEIRA", "LONG": "061\u00b0 58.31' W", "LAT": "05\u00b0 18.387' S", "Campo": null}, "geometry": {"type": "Point", "coordinates": [-61.97182520299998, -5.306448104999959, 0.0]}}, {"id": "32", "type": "Feature", "properties": {"Name": "Ponte de Madeira Sobre o Rio Nazar\u00e9", "LOCAL": "RIO NAZAR\u00c9", "MAT_PONTE": "PONTE DE MADEIRA", "LONG": "063\u00b0 2.438' W", "LAT": "06\u00b0 49.815' S", "Campo": null}, "geometry": {"type": "Point", "coordinates": [-63.04063104099998, -6.830249799999933, 0.0]}}, {"id": "33", "type": "Feature", "properties": {"Name": "Ponte de Madeira Sobre o Rio Nova Floresta", "LOCAL": "RIO NOVA FLORESTA", "MAT_PONTE": "PONTE DE MADEIRA", "LONG": "061\u00b0 33.04' W", "LAT": "04\u00b0 57.694' S", "Campo": null}, "geometry": {"type": "Point", "coordinates": [-61.550667619999956, -4.961565356999927, 0.0]}}, {"id": "34", "type": "Feature", "properties": {"Name": "Ponte de Madeira Sobre o Rio Pernambuco", "LOCAL": "RIO PERNAMBUCO", "MAT_PONTE": "PONTE DE MADEIRA", "LONG": "062\u00b0 11.891' W", "LAT": "05\u00b0 36.659' S", "Campo": null}, "geometry": {"type": "Point", "coordinates": [-62.19819093999996, -5.6109889859999384, 0.0]}}, {"id": "35", "type": "Feature", "properties": {"Name": "Ponte de Madeira Sobre o Rio Piau\u00ed", "LOCAL": "RIO PIAU\u00cd", "MAT_PONTE": "PONTE DE MADEIRA", "LONG": "062\u00b0 5.271' W", "LAT": "05\u00b0 25.767' S", "Campo": null}, "geometry": {"type": "Point", "coordinates": [-62.087845655999956, -5.429446291999966, 0.0]}}, {"id": "36", "type": "Feature", "properties": {"Name": "Ponte de Madeira Sobre o Rio Pil\u00e3o", "LOCAL": "RIO PIL\u00c3O", "MAT_PONTE": "PONTE DE MADEIRA", "LONG": "062\u00b0 52.456' W", "LAT": "06\u00b0 26.67' S", "Campo": null}, "geometry": {"type": "Point", "coordinates": [-62.874268574999974, -6.444492731999958, 0.0]}}, {"id": "37", "type": "Feature", "properties": {"Name": "Ponte de Madeira Sobre o Rio Piqui\u00e1", "LOCAL": "RIO PIQUI\u00c1", "MAT_PONTE": "PONTE DE MADEIRA", "LONG": "062\u00b0 48.503' W", "LAT": "06\u00b0 22.257' S", "Campo": null}, "geometry": {"type": "Point", "coordinates": [-62.80838779199996, -6.370957966999981, 0.0]}}, {"id": "38", "type": "Feature", "properties": {"Name": "Ponte de Madeira Sobre o Rio Puruzinho", "LOCAL": "RIO PURUZINHO", "MAT_PONTE": "PONTE DE MADEIRA", "LONG": "062\u00b0 51.834' W", "LAT": "06\u00b0 25.806' S", "Campo": null}, "geometry": {"type": "Point", "coordinates": [-62.863899972999945, -6.4300946459999295, 0.0]}}, {"id": "39", "type": "Feature", "properties": {"Name": "Ponte de Madeira Sobre o Rio Realidade", "LOCAL": "RIO REALIDADE", "MAT_PONTE": "PONTE DE MADEIRA", "LONG": "063\u00b0 5.933' W", "LAT": "06\u00b0 59.165' S", "Campo": null}, "geometry": {"type": "Point", "coordinates": [-63.09887883299996, -6.986088714999937, 0.0]}}, {"id": "40", "type": "Feature", "properties": {"Name": "Ponte de Madeira Sobre o Rio Rond\u00f4nia", "LOCAL": "RIO ROND\u00d4NIA", "MAT_PONTE": "PONTE DE MADEIRA", "LONG": "061\u00b0 51.368' W", "LAT": "05\u00b0 12.757' S", "Campo": null}, "geometry": {"type": "Point", "coordinates": [-61.85613379799997, -5.212614716999951, 0.0]}}, {"id": "41", "type": "Feature", "properties": {"Name": "Ponte de Madeira Sobre o Rio Roraima", "LOCAL": "RIO RORAIMA", "MAT_PONTE": "PONTE DE MADEIRA", "LONG": "061\u00b0 52.18' W", "LAT": "05\u00b0 13.428' S", "Campo": null}, "geometry": {"type": "Point", "coordinates": [-61.86966143999996, -5.2238002009999605, 0.0]}}, {"id": "42", "type": "Feature", "properties": {"Name": "Ponte de Madeira Sobre o Rio Santo Ant\u00f4nio", "LOCAL": "RIO SANTO ANT\u00d4NIO", "MAT_PONTE": "PONTE DE MADEIRA", "LONG": "063\u00b0 3.53' W", "LAT": "06\u00b0 51.597' S", "Campo": null}, "geometry": {"type": "Point", "coordinates": [-63.058825025999965, -6.859949872999948, 0.0]}}, {"id": "43", "type": "Feature", "properties": {"Name": "Ponte de Madeira Sobre o Rio S\u00e3o Paulo", "LOCAL": "RIO S\u00c3O PAULO", "MAT_PONTE": "PONTE DE MADEIRA", "LONG": "062\u00b0 1.619' W", "LAT": "05\u00b0 20.543' S", "Campo": null}, "geometry": {"type": "Point", "coordinates": [-62.02697729499994, -5.342381338999928, 0.0]}}, {"id": "44", "type": "Feature", "properties": {"Name": "Ponte de Madeira Sobre o Rio Sol", "LOCAL": "RIO SOL", "MAT_PONTE": "PONTE DE MADEIRA", "LONG": "061\u00b0 38.753' W", "LAT": "05\u00b0 2.845' S", "Campo": null}, "geometry": {"type": "Point", "coordinates": [-61.64588053499995, -5.047410887999945, 0.0]}}, {"id": "45", "type": "Feature", "properties": {"Name": "Ponte de Madeira Sobre o Rio Terra Rica", "LOCAL": "RIO TERRA RICA", "MAT_PONTE": "PONTE DE MADEIRA", "LONG": "061\u00b0 35.168' W", "LAT": "04\u00b0 59.561' S", "Campo": null}, "geometry": {"type": "Point", "coordinates": [-61.586138769999934, -4.992678661999946, 0.0]}}, {"id": "46", "type": "Feature", "properties": {"Name": "Ponte de Madeira Sobre o Rio Tocantins", "LOCAL": "RIO TOCANTINS", "MAT_PONTE": "PONTE DE MADEIRA", "LONG": "061\u00b0 54.404' W", "LAT": "05\u00b0 15.605' S", "Campo": null}, "geometry": {"type": "Point", "coordinates": [-61.906739045999984, -5.260079987999973, 0.0]}}, {"id": "47", "type": "Feature", "properties": {"Name": "Ponte de Madeira Sobre o Rio Verdade", "LOCAL": "RIO VERDADE", "MAT_PONTE": "PONTE DE MADEIRA", "LONG": "061\u00b0 25.96' W", "LAT": "04\u00b0 52.47' S", "Campo": null}, "geometry": {"type": "Point", "coordinates": [-61.43266300299996, -4.874503130999926, 0.0]}}, {"id": "48", "type": "Feature", "properties": {"Name": "Ponte de Madeira Sobre o Rio Virtude", "LOCAL": "RIO VIRTUDE", "MAT_PONTE": "PONTE DE MADEIRA", "LONG": "061\u00b0 26.023' W", "LAT": "04\u00b0 52.578' S", "Campo": null}, "geometry": {"type": "Point", "coordinates": [-61.43372112199995, -4.876295152999944, 0.0]}}, {"id": "49", "type": "Feature", "properties": {"Name": "Ponte subst OAC10 - PFS9 PFS IBAMA 2", "LOCAL": "OAC 10", "MAT_PONTE": null, "LONG": "062\u00b0 56.608' W", "LAT": "06\u00b0 33.009' S", "Campo": null}, "geometry": {"type": "Point", "coordinates": [-62.94346863099997, -6.550148037999975, 0.0]}}, {"id": "50", "type": "Feature", "properties": {"Name": "Ponte subst OAC11 - PFS9 PFS IBAMA 3", "LOCAL": "OAC 11", "MAT_PONTE": null, "LONG": "062\u00b0 57.385' W", "LAT": "06\u00b0 37.082' S", "Campo": null}, "geometry": {"type": "Point", "coordinates": [-62.95641076099997, -6.618032457999959, 0.0]}}, {"id": "51", "type": "Feature", "properties": {"Name": "Ponte subst OAC9 - PFS9 PFS IBAMA 1", "LOCAL": "OAC 09", "MAT_PONTE": null, "LONG": "062\u00b0 56.28' W", "LAT": "06\u00b0 32.341' S", "Campo": null}, "geometry": {"type": "Point", "coordinates": [-62.938008269999955, -6.539009269999951, 0.0]}}, {"id": "52", "type": "Feature", "properties": {"Name": "Rio/Ponte n\u00e3o identificada (Igarap\u00e9 Sem Nome 2)", "LOCAL": null, "MAT_PONTE": null, "LONG": "061\u00b0 42.694' W", "LAT": "05\u00b0 6.427' S", "Campo": null}, "geometry": {"type": "Point", "coordinates": [-61.71156692399995, -5.107123442999978, 0.0]}}, {"id": "53", "type": "Feature", "properties": {"Name": "PONTE DO ATI\u00cd", "LOCAL": "RIO ATI\u00cd", "MAT_PONTE": "PONTE DE CONCRETO", "LONG": "061\u00b0 10.841' W", "LAT": "04\u00b0 33.481' S", "Campo": null}, "geometry": {"type": "Point", "coordinates": [-61.18068997599994, -4.5580124629999546, 0.0]}}, {"id": "54", "type": "Feature", "properties": {"Name": "PONTE DO CURU\u00c7\u00c1", "LOCAL": "RIO CURU\u00c7A", "MAT_PONTE": "PONTE DE CONCRETO", "LONG": "059\u00b0 51.299' W", "LAT": "03\u00b0 16.519' S", "Campo": null}, "geometry": {"type": "Point", "coordinates": [-59.85498963799995, -3.2753236979999656, 0.0]}}, {"id": "55", "type": "Feature", "properties": {"Name": "PONTE AUTAZ MIRIM", "LOCAL": "RIO AUTAZ MIRIM", "MAT_PONTE": "PONTE DE CONCRETO", "LONG": "059\u00b0 51.849' W", "LAT": "03\u00b0 17.074' S", "Campo": null}, "geometry": {"type": "Point", "coordinates": [-59.864146017999985, -3.284561245999953, 0.0]}}]}