{"type": "FeatureCollection", "features": [{"id": "0", "type": "Feature", "properties": {"Id": 0, "NOME": "IGARAP\u00c9 ABACAXI", "LOCAL": "IGARAP\u00c9 ABACAXI", "KM": "81,02", "MUNICIPIO": "APU\u00cd\r\n", "MAT_PONTE": "CONCRETO", "LAT": "-6,69809977", "LONG": "-58,86141546"}, "geometry": {"type": "Point", "coordinates": [-58.86141546000001, -6.69809977021889]}}, {"id": "1", "type": "Feature", "properties": {"Id": 0, "NOME": "IGARAP\u00c9 CAMAIU", "LOCAL": "IGARAP\u00c9 CAMAIU", "KM": "141,62", "MUNICIPIO": "APU\u00cd", "MAT_PONTE": "CONCRETO", "LAT": "-6,93379404", "LONG": "-59,3295083"}, "geometry": {"type": "Point", "coordinates": [-59.32950830000001, -6.933794040226447]}}, {"id": "2", "type": "Feature", "properties": {"Id": 0, "NOME": "IGARAP\u00c9 ANDORINHA", "LOCAL": "IGARAP\u00c9 ANDORINHA", "KM": "182,90", "MUNICIPIO": "APU\u00cd", "MAT_PONTE": "CONCRETO", "LAT": "-7,08777424", "LONG": "-59,6439746"}, "geometry": {"type": "Point", "coordinates": [-59.64397460000001, -7.087774240231371]}}, {"id": "3", "type": "Feature", "properties": {"Id": 0, "NOME": "IGARAP\u00c9 QUEIXADA", "LOCAL": "IGARAP\u00c9 QUEIXADA", "KM": "190,80", "MUNICIPIO": "APU\u00cd", "MAT_PONTE": "CONCRETO", "LAT": "-7,10470173", "LONG": "-59,7108682"}, "geometry": {"type": "Point", "coordinates": [-59.71086820000001, -7.104701730231917]}}, {"id": "4", "type": "Feature", "properties": {"Id": 0, "NOME": "RIO JUMA", "LOCAL": "RIO JUMA", "KM": "218,43", "MUNICIPIO": "APU\u00cd", "MAT_PONTE": "CONCRETO", "LAT": "-7,21232742", "LONG": "-59,92218779"}, "geometry": {"type": "Point", "coordinates": [-59.922187789999995, -7.212327420235354]}}, {"id": "5", "type": "Feature", "properties": {"Id": 0, "NOME": "RIO DOS POMBOS", "LOCAL": "RIO DOS POMBOS", "KM": "236,82", "MUNICIPIO": "APU\u00cd", "MAT_PONTE": "CONCRETO", "LAT": "-7,27868275", "LONG": "-60,05653846"}, "geometry": {"type": "Point", "coordinates": [-60.05653846, -7.2786827502374765]}}, {"id": "6", "type": "Feature", "properties": {"Id": 0, "NOME": "RIO JATUARANA", "LOCAL": "RIO JATUARANA", "KM": "293,00", "MUNICIPIO": "APU\u00cd", "MAT_PONTE": "CONCRETO", "LAT": "-7,46373542", "LONG": "-60,50490913"}, "geometry": {"type": "Point", "coordinates": [-60.50490913, -7.463735420243366]}}, {"id": "7", "type": "Feature", "properties": {"Id": 0, "NOME": "IGARAP\u00c9 PALUDO", "LOCAL": "IGARAP\u00c9 PALUDO", "KM": "406,52", "MUNICIPIO": "MANICOR\u00c9", "MAT_PONTE": "CONCRETO", "LAT": "-7,8687616", "LONG": "-61,39182818"}, "geometry": {"type": "Point", "coordinates": [-61.39182817999999, -7.86876160025624]}}, {"id": "8", "type": "Feature", "properties": {"Id": 0, "NOME": "RIO BRANCO", "LOCAL": "RIO BRANCO", "KM": "439,75", "MUNICIPIO": "MANICOR\u00c9", "MAT_PONTE": "CONCRETO", "LAT": "-7,97076736", "LONG": "-61,67027291"}, "geometry": {"type": "Point", "coordinates": [-61.67027291, -7.97076736025949]}}, {"id": "9", "type": "Feature", "properties": {"Id": 0, "NOME": "RIO DOS MARMELOS", "LOCAL": "RIO DOS MARMELOS", "KM": "485,98", "MUNICIPIO": "MANICOR\u00c9", "MAT_PONTE": "CONCRETO", "LAT": "-7,959529", "LONG": "-62,04972938"}, "geometry": {"type": "Point", "coordinates": [-62.04972938000001, -7.959529000259137]}}, {"id": "10", "type": "Feature", "properties": {"Id": 0, "NOME": "RIO AMAZ\u00d4NIA", "LOCAL": "RIO AMAZ\u00d4NIA", "KM": "516,30", "MUNICIPIO": "HUMAIT\u00c1", "MAT_PONTE": "CONCRETO", "LAT": "-7,83454012", "LONG": "-62,29641795"}, "geometry": {"type": "Point", "coordinates": [-62.29641795, -7.834540120255171]}}, {"id": "11", "type": "Feature", "properties": {"Id": 0, "NOME": "RIO MAICI", "LOCAL": "RIO MAICI", "KM": "522,52", "MUNICIPIO": "HUMAIT\u00c1", "MAT_PONTE": "CONCRETO", "LAT": "-7,80751832", "LONG": "-62,34428752"}, "geometry": {"type": "Point", "coordinates": [-62.344287519999995, -7.807518320254304]}}, {"id": "12", "type": "Feature", "properties": {"Id": 0, "NOME": "RIO 9 DE JANEIRO", "LOCAL": "RIO 9 DE JANEIRO", "KM": "541,14", "MUNICIPIO": "HUMAIT\u00c1", "MAT_PONTE": "CONCRETO", "LAT": "-7,73240405", "LONG": "-62,49433778"}, "geometry": {"type": "Point", "coordinates": [-62.494337779999995, -7.732404050251919]}}, {"id": "13", "type": "Feature", "properties": {"Id": 0, "NOME": "RIO MAICI MIRIM", "LOCAL": "RIO MAICI MIRIM", "KM": "562,74", "MUNICIPIO": "HUMAIT\u00c1", "MAT_PONTE": "CONCRETO", "LAT": "-7,63218284", "LONG": "-62,66263607"}, "geometry": {"type": "Point", "coordinates": [-62.66263607, -7.6321828402487295]}}, {"id": "14", "type": "Feature", "properties": {"Id": 0, "NOME": "IGARAP\u00c9 TRA\u00cdRA", "LOCAL": "IGARAP\u00c9 TRA\u00cdRA", "KM": "573,00", "MUNICIPIO": "HUMAIT\u00c1", "MAT_PONTE": "CONCRETO", "LAT": "-7,59256558", "LONG": "-62,74579846"}, "geometry": {"type": "Point", "coordinates": [-62.74579846, -7.592565580247463]}}, {"id": "15", "type": "Feature", "properties": {"Id": 0, "NOME": "RIO IPIXUNA", "LOCAL": "RIO IPIXUNA", "KM": "652,00", "MUNICIPIO": "HUMAIT\u00c1", "MAT_PONTE": "CONCRETO", "LAT": "-7,52249802", "LONG": "-63,3465149"}, "geometry": {"type": "Point", "coordinates": [-63.3465149, -7.522498020245256]}}, {"id": "16", "type": "Feature", "properties": {"Id": 0, "NOME": "RIO ASSU\u00c3", "LOCAL": "RIO ASSU\u00c3", "KM": "733,20", "MUNICIPIO": "CANUTAMA", "MAT_PONTE": "CONCRETO", "LAT": "-7,47601356", "LONG": "-64,06810192"}, "geometry": {"type": "Point", "coordinates": [-64.06810192, -7.476013560243774]}}, {"id": "17", "type": "Feature", "properties": {"Id": 0, "NOME": "RIO UMAR\u00cd", "LOCAL": "RIO UMAR\u00cd", "KM": "791,98", "MUNICIPIO": "L\u00c1BREA", "MAT_PONTE": "CONCRETO", "LAT": "-7,46274571", "LONG": "-64,59105682"}, "geometry": {"type": "Point", "coordinates": [-64.59105682, -7.46274571024334]}}, {"id": "18", "type": "Feature", "properties": {"Id": 0, "NOME": "RIO PASSI\u00c1", "LOCAL": "RIO PASSI\u00c1", "KM": "798,24", "MUNICIPIO": "L\u00c1BREA", "MAT_PONTE": "CONCRETO", "LAT": "-7,45313213", "LONG": "-64,64584894"}, "geometry": {"type": "Point", "coordinates": [-64.64584894, -7.4531321302430396]}}]}