{"type": "FeatureCollection", "features": [{"id": "0", "type": "Feature", "properties": {"Id": 0, "nome_OEA": "ponte sobre o igarap\u00e9 Balaio", "rodovia": "BR-307", "longitude": "0 \u00b023' 24\"", "latitude": "66\u00b0 38' 53\"", "km": "1429,60", "estrutura": "integralmente madeira", "compriment": "52m"}, "geometry": {"type": "Point", "coordinates": [-66.64805555555556, -0.39]}}, {"id": "1", "type": "Feature", "properties": {"Id": 0, "nome_OEA": "Ponte sobre o igarap\u00e9 Rodrigo Cibele", "rodovia": "BR-307", "longitude": "0\u00b0 21' 0\"", "latitude": "66\u00b0 38' 3\"", "km": "1424,00", "estrutura": "integralmente madeira", "compriment": "25m"}, "geometry": {"type": "Point", "coordinates": [-66.63416666666667, -0.35]}}, {"id": "2", "type": "Feature", "properties": {"Id": 0, "nome_OEA": "ponte sobre o Igarap\u00e9 Ya-Mirim", "rodovia": "BR-307", "longitude": "0 16' 20\"", "latitude": "66\u00b0 38' 21\"", "km": "1413,50", "estrutura": "integralmente madeira", "compriment": "42m"}, "geometry": {"type": "Point", "coordinates": [-66.63916666666667, -0.2722222222222222]}}, {"id": "3", "type": "Feature", "properties": {"Id": 0, "nome_OEA": "ponte sobre o Igarap\u00e9 Poranga", "rodovia": "BR-307", "longitude": "0\u00b0 14' 5\"", "latitude": "66\u00b0  44' 58\"", "km": "1395,30", "estrutura": "integralmente madeira", "compriment": "19m"}, "geometry": {"type": "Point", "coordinates": [-66.74944444444445, -0.23472222222222222]}}, {"id": "4", "type": "Feature", "properties": {"Id": 0, "nome_OEA": "ponte sobre o Miu\u00e1", "rodovia": "BR-307", "longitude": "0\u00b0 9' 22\"", "latitude": "66\u00b0 48' 4\"", "km": "1381,90", "estrutura": "integralmente madeira", "compriment": "34,5m"}, "geometry": {"type": "Point", "coordinates": [-66.80111111111111, -0.15611111111111112]}}, {"id": "5", "type": "Feature", "properties": {"Id": 0, "nome_OEA": "ponte sobre o Igarap\u00e9 Nabuo Oba", "rodovia": "BR-307", "longitude": "0\u00b0 0' 30\"", "latitude": "66\u00b0 55' 17\"", "km": "1355,80", "estrutura": "mista", "compriment": "34m"}, "geometry": {"type": "Point", "coordinates": [-66.9213888888889, -0.008333333333333333]}}]}