{"type": "FeatureCollection", "features": [{"id": "0", "type": "Feature", "properties": {"br_uf": "174/AM", "contrato": "SR-078-2020", "km": "196", "longitude": "060\u00b0 36' 12.6\" W", "latitude": "07\u00b0 29' 36.1\" S", "condicao": "Satisfat\u00f3ria", "tipo": "BSTM", "dimensao": "2", "largura": "9", "exten_oac": "35", "observacao": "Satisfat\u00f3ria"}, "geometry": {"type": "Point", "coordinates": [-60.6035, -7.49336]}}, {"id": "1", "type": "Feature", "properties": {"br_uf": "174/AM", "contrato": "SR-078-2020", "km": "196,3", "longitude": "060\u00b0 36' 12.83\" W", "latitude": "07\u00b0 29' 36.18\" S", "condicao": "Satisfat\u00f3ria", "tipo": "BSTM", "dimensao": "2", "largura": "9", "exten_oac": "20", "observacao": "Satisfat\u00f3ria"}, "geometry": {"type": "Point", "coordinates": [-60.6035645, -7.493384391]}}, {"id": "2", "type": "Feature", "properties": {"br_uf": "174/AM", "contrato": "SR-078-2020", "km": "197,1", "longitude": "060\u00b0 36' 26.2\" W", "latitude": "07\u00b0 28' 41.46\" S", "condicao": "Satisfat\u00f3ria", "tipo": "BSTM", "dimensao": "2", "largura": "9", "exten_oac": "20", "observacao": "Satisfat\u00f3ria"}, "geometry": {"type": "Point", "coordinates": [-60.60727885, -7.478184444]}}, {"id": "3", "type": "Feature", "properties": {"br_uf": "174/AM", "contrato": "SR-078-2020", "km": "197,2", "longitude": "060\u00b0 36' 27.0\" W", "latitude": "07\u00b0 28' 38.93\" S", "condicao": "Demolir e Recompor", "tipo": "BSTM", "dimensao": "2", "largura": "9", "exten_oac": "20", "observacao": "Demolir e Recompor ALAS"}, "geometry": {"type": "Point", "coordinates": [-60.60750001, -7.477480672]}}, {"id": "4", "type": "Feature", "properties": {"br_uf": "174/AM", "contrato": "SR-078-2020", "km": "199,1", "longitude": "060\u00b0 36' 32.25\" W", "latitude": "07\u00b0 28' 8.24\" S", "condicao": "Demolir e Recompor", "tipo": "BSTM", "dimensao": "2", "largura": "9", "exten_oac": "20", "observacao": "Demolir e Recompor"}, "geometry": {"type": "Point", "coordinates": [-60.60895908, -7.468956606]}}, {"id": "5", "type": "Feature", "properties": {"br_uf": "174/AM", "contrato": "SR-078-2020", "km": "199,2", "longitude": "060\u00b0 36' 33.48\" W", "latitude": "07\u00b0 28' 4.15\" S", "condicao": "Satisfat\u00f3ria", "tipo": "BSTM", "dimensao": "2", "largura": "9", "exten_oac": "15", "observacao": "Satisfat\u00f3ria"}, "geometry": {"type": "Point", "coordinates": [-60.60930031, -7.467819651]}}, {"id": "6", "type": "Feature", "properties": {"br_uf": "174/AM", "contrato": "SR-078-2020", "km": "199,6", "longitude": "060\u00b0 36' 35.9\" W", "latitude": "07\u00b0 27' 51.18\" S", "condicao": "Demolir e Recompor", "tipo": "BSTM", "dimensao": "1,5", "largura": "9", "exten_oac": "15", "observacao": "Demolir e Recompor"}, "geometry": {"type": "Point", "coordinates": [-60.60997188, -7.464217076]}}, {"id": "7", "type": "Feature", "properties": {"br_uf": "174/AM", "contrato": "SR-078-2020", "km": "199,8", "longitude": "060\u00b0 36' 36.74\" W", "latitude": "07\u00b0 27' 45.49\" S", "condicao": "Limpeza", "tipo": "BSTM", "dimensao": "2", "largura": "9", "exten_oac": "18", "observacao": "PARCIALMENTE Obstru\u00eddo"}, "geometry": {"type": "Point", "coordinates": [-60.61020685, -7.462636675]}}, {"id": "8", "type": "Feature", "properties": {"br_uf": "174/AM", "contrato": "SR-078-2020", "km": "201,1", "longitude": "060\u00b0 36' 44.67\" W", "latitude": "07\u00b0 27' 7.99\" S", "condicao": "Demolir e Recompor", "tipo": "BSTM", "dimensao": "1,5", "largura": "9", "exten_oac": "15", "observacao": "Demolir e Recompor"}, "geometry": {"type": "Point", "coordinates": [-60.61240945, -7.452218568]}}, {"id": "9", "type": "Feature", "properties": {"br_uf": "174/AM", "contrato": "SR-078-2020", "km": "203,2", "longitude": "060\u00b0 36' 28.93\" W", "latitude": "07\u00b0 26' 2.24\" S", "condicao": "Demolir e Recompor", "tipo": "BSTM", "dimensao": "1", "largura": "9", "exten_oac": "15", "observacao": "Demolir e Recompor"}, "geometry": {"type": "Point", "coordinates": [-60.60803523, -7.433956007]}}, {"id": "10", "type": "Feature", "properties": {"br_uf": "174/AM", "contrato": "SR-078-2020", "km": "203,5", "longitude": "060\u00b0 36' 26.58\" W", "latitude": "07\u00b0 25' 50.81\" S", "condicao": "Demolir e Recompor", "tipo": "BSTM", "dimensao": "1", "largura": "9", "exten_oac": "13", "observacao": "Demolir e Recompor"}, "geometry": {"type": "Point", "coordinates": [-60.60738238, -7.430780105]}}, {"id": "11", "type": "Feature", "properties": {"br_uf": "174/AM", "contrato": "SR-078-2020", "km": "204,1", "longitude": "060\u00b0 36' 22.44\" W", "latitude": "07\u00b0 25' 32.89\" S", "condicao": "Demolir e Recompor", "tipo": "BSTM", "dimensao": "2", "largura": "9", "exten_oac": "15", "observacao": "Demolir e Recompor"}, "geometry": {"type": "Point", "coordinates": [-60.60623222, -7.425802936]}}, {"id": "12", "type": "Feature", "properties": {"br_uf": "174/AM", "contrato": "SR-078-2020", "km": "204,6", "longitude": "060\u00b0 36' 19.53\" W", "latitude": "07\u00b0 25' 21.1\" S", "condicao": "Demolir e Recompor", "tipo": "BSTM", "dimensao": "1", "largura": "9", "exten_oac": "13", "observacao": "Demolir e Recompor"}, "geometry": {"type": "Point", "coordinates": [-60.60542599, -7.422526792]}}, {"id": "13", "type": "Feature", "properties": {"br_uf": "174/AM", "contrato": "SR-078-2020", "km": "204,8", "longitude": "060\u00b0 36' 20.78\" W", "latitude": "07\u00b0 25' 7.18\" S", "condicao": "Limpeza", "tipo": "BSTM", "dimensao": "2", "largura": "9", "exten_oac": "15", "observacao": "PARCIALMENTE Obstru\u00eddo"}, "geometry": {"type": "Point", "coordinates": [-60.60577287, -7.418660349]}}, {"id": "14", "type": "Feature", "properties": {"br_uf": "174/AM", "contrato": "SR-078-2020", "km": "205", "longitude": "060\u00b0 36' 19.39\" W", "latitude": "07\u00b0 25' 11.72\" S", "condicao": "Demolir e Recompor", "tipo": "BSTM", "dimensao": "2", "largura": "9", "exten_oac": "13", "observacao": "Demolir e Recompor"}, "geometry": {"type": "Point", "coordinates": [-60.60538575, -7.419923599]}}, {"id": "15", "type": "Feature", "properties": {"br_uf": "174/AM", "contrato": "SR-078-2020", "km": "205,2", "longitude": "060\u00b0 36' 22.67\" W", "latitude": "07\u00b0 24' 56.09\" S", "condicao": "Demolir e Recompor", "tipo": "BSTM", "dimensao": "1,5", "largura": "9", "exten_oac": "15", "observacao": "Demolir e Recompor"}, "geometry": {"type": "Point", "coordinates": [-60.60629656, -7.415581173]}}, {"id": "16", "type": "Feature", "properties": {"br_uf": "174/AM", "contrato": "SR-078-2020", "km": "205,8", "longitude": "060\u00b0 36' 26.78\" W", "latitude": "07\u00b0 24' 36.49\" S", "condicao": "Satisfat\u00f3ria", "tipo": "BSTM", "dimensao": "2", "largura": "9", "exten_oac": "17", "observacao": "Satisfat\u00f3ria"}, "geometry": {"type": "Point", "coordinates": [-60.60743964, -7.410137337]}}, {"id": "17", "type": "Feature", "properties": {"br_uf": "174/AM", "contrato": "SR-078-2020", "km": "206", "longitude": "060\u00b0 36' 28.09\" W", "latitude": "07\u00b0 24' 29.8\" S", "condicao": "Demolir e Recompor", "tipo": "BSTM", "dimensao": "2", "largura": "9", "exten_oac": "15", "observacao": "Demolir e Recompor"}, "geometry": {"type": "Point", "coordinates": [-60.6078028, -7.408277435]}}, {"id": "18", "type": "Feature", "properties": {"br_uf": "174/AM", "contrato": "SR-078-2020", "km": "218", "longitude": "060\u00b0 37' 7.83\" W", "latitude": "07\u00b0 18' 9.65\" S", "condicao": "Demolir e Recompor", "tipo": "BSTM", "dimensao": "2", "largura": "9", "exten_oac": "30", "observacao": "Demolir e Recompor"}, "geometry": {"type": "Point", "coordinates": [-60.61884172, -7.302679873]}}, {"id": "19", "type": "Feature", "properties": {"br_uf": "174/AM", "contrato": "SR-078-2020", "km": "218,2", "longitude": "060\u00b0 37' 9.1\" W", "latitude": "07\u00b0 18' 2.95\" S", "condicao": "Satisfat\u00f3ria", "tipo": "BSTC", "dimensao": "1,2", "largura": "9", "exten_oac": "30", "observacao": "Satisfat\u00f3ria"}, "geometry": {"type": "Point", "coordinates": [-60.61919555, -7.300819863]}}, {"id": "20", "type": "Feature", "properties": {"br_uf": "174/AM", "contrato": "SR-078-2020", "km": "218,7", "longitude": "060\u00b0 37' 10.84\" W", "latitude": "07\u00b0 17' 42.98\" S", "condicao": "Demolir e Recompor", "tipo": "BSTC", "dimensao": "1,2", "largura": "9", "exten_oac": "18", "observacao": "Demolir e Recompor"}, "geometry": {"type": "Point", "coordinates": [-60.61967749, -7.295272923]}}, {"id": "21", "type": "Feature", "properties": {"br_uf": "174/AM", "contrato": "SR-078-2020", "km": "219,4", "longitude": "060\u00b0 37' 13.12\" W", "latitude": "07\u00b0 17' 17.58\" S", "condicao": "Demolir e Recompor", "tipo": "BSTM", "dimensao": "3", "largura": "9", "exten_oac": "15", "observacao": "Demolir e Recompor"}, "geometry": {"type": "Point", "coordinates": [-60.62031219, -7.288217395]}}, {"id": "22", "type": "Feature", "properties": {"br_uf": "174/AM", "contrato": "SR-078-2020", "km": "219,5", "longitude": "060\u00b0 37' 13.12\" W", "latitude": "07\u00b0 17' 17.58\" S", "condicao": "Satisfat\u00f3ria", "tipo": "BSTM", "dimensao": "3", "largura": "9", "exten_oac": "14", "observacao": "Satisfat\u00f3ria"}, "geometry": {"type": "Point", "coordinates": [-60.62031219, -7.288217395]}}, {"id": "23", "type": "Feature", "properties": {"br_uf": "174/AM", "contrato": "SR-078-2020", "km": "221,2", "longitude": "060\u00b0 37' 23.8\" W", "latitude": "07\u00b0 16' 23.85\" S", "condicao": "Satisfat\u00f3ria", "tipo": "BSTC", "dimensao": "1", "largura": "9", "exten_oac": "18", "observacao": "Satisfat\u00f3ria"}, "geometry": {"type": "Point", "coordinates": [-60.62327836, -7.273292735]}}, {"id": "24", "type": "Feature", "properties": {"br_uf": "174/AM", "contrato": "SR-078-2020", "km": "222", "longitude": "060\u00b0 37' 31.25\" W", "latitude": "07\u00b0 15' 54.9\" S", "condicao": "Demolir e Recompor", "tipo": "BSTM", "dimensao": "2", "largura": "9", "exten_oac": "14", "observacao": "Demolir e Recompor"}, "geometry": {"type": "Point", "coordinates": [-60.62534817, -7.265250475]}}, {"id": "25", "type": "Feature", "properties": {"br_uf": "174/AM", "contrato": "SR-078-2020", "km": "222,2", "longitude": "060\u00b0 37' 26.98\" W", "latitude": "07\u00b0 15' 44.14\" S", "condicao": "Demolir e Recompor", "tipo": "BSTM", "dimensao": "3", "largura": "9", "exten_oac": "18", "observacao": "Demolir e Recompor"}, "geometry": {"type": "Point", "coordinates": [-60.62416003, -7.262261618]}}, {"id": "26", "type": "Feature", "properties": {"br_uf": "174/AM", "contrato": "SR-078-2020", "km": "222,6", "longitude": "060\u00b0 37' 36.28\" W", "latitude": "07\u00b0 15' 41.65\" S", "condicao": "Demolir e Recompor", "tipo": "BSTC", "dimensao": "1,2", "largura": "9", "exten_oac": "22", "observacao": "Demolir e Recompor"}, "geometry": {"type": "Point", "coordinates": [-60.6267433, -7.261570153]}}, {"id": "27", "type": "Feature", "properties": {"br_uf": "174/AM", "contrato": "SR-078-2020", "km": "223", "longitude": "060\u00b0 37' 43.92\" W", "latitude": "07\u00b0 15' 25.78\" S", "condicao": "Limpeza", "tipo": "BSTM", "dimensao": "2", "largura": "9", "exten_oac": "18", "observacao": "Limpeza"}, "geometry": {"type": "Point", "coordinates": [-60.62886631, -7.257161517]}}, {"id": "28", "type": "Feature", "properties": {"br_uf": "174/AM", "contrato": "SR-078-2020", "km": "223,5", "longitude": "060\u00b0 37' 48.99\" W", "latitude": "07\u00b0 15' 14.75\" S", "condicao": "Demolir e Recompor", "tipo": "BSTM", "dimensao": "2", "largura": "9", "exten_oac": "25", "observacao": "Demolir e Recompor"}, "geometry": {"type": "Point", "coordinates": [-60.63027626, -7.254095849]}}, {"id": "29", "type": "Feature", "properties": {"br_uf": "174/AM", "contrato": "SR-078-2020", "km": "223,7", "longitude": "060\u00b0 37' 52.32\" W", "latitude": "07\u00b0 15' 8.84\" S", "condicao": "Demolir e Recompor", "tipo": "BSTM", "dimensao": "2", "largura": "9", "exten_oac": "26", "observacao": "Demolir e Recompor"}, "geometry": {"type": "Point", "coordinates": [-60.63119901, -7.252455687]}}, {"id": "30", "type": "Feature", "properties": {"br_uf": "174/AM", "contrato": "SR-078-2020", "km": "223,8", "longitude": "060\u00b0 37' 54.33\" W", "latitude": "07\u00b0 15' 4.65\" S", "condicao": "Demolir e Recompor", "tipo": "BSTM", "dimensao": "2", "largura": "9", "exten_oac": "26", "observacao": "Demolir e Recompor"}, "geometry": {"type": "Point", "coordinates": [-60.63175721, -7.251292652]}}, {"id": "31", "type": "Feature", "properties": {"br_uf": "174/AM", "contrato": "SR-078-2020", "km": "224", "longitude": "060\u00b0 37' 56.56\" W", "latitude": "07\u00b0 15' 0.96\" S", "condicao": "Demolir e Recompor", "tipo": "BSTC", "dimensao": "2", "largura": "9", "exten_oac": "25", "observacao": "Demolir e Recompor"}, "geometry": {"type": "Point", "coordinates": [-60.63237806, -7.250265517]}}, {"id": "32", "type": "Feature", "properties": {"br_uf": "174/AM", "contrato": "SR-078-2020", "km": "224,2", "longitude": "060\u00b0 38' 0.61\" W", "latitude": "07\u00b0 14' 52.22\" S", "condicao": "Demolir e Recompor", "tipo": "BSTC", "dimensao": "2", "largura": "9", "exten_oac": "21", "observacao": "Demolir e Recompor"}, "geometry": {"type": "Point", "coordinates": [-60.63350402, -7.247840067]}}, {"id": "33", "type": "Feature", "properties": {"br_uf": "174/AM", "contrato": "SR-078-2020", "km": "224,4", "longitude": "060\u00b0 38' 2.66\" W", "latitude": "07\u00b0 14' 47.48\" S", "condicao": "Limpeza", "tipo": "BSTC", "dimensao": "1,2", "largura": "9", "exten_oac": "20", "observacao": "Limpeza"}, "geometry": {"type": "Point", "coordinates": [-60.63407206, -7.246523425]}}, {"id": "34", "type": "Feature", "properties": {"br_uf": "174/AM", "contrato": "SR-078-2020", "km": "221,6", "longitude": "060\u00b0 38' 6.31\" W", "latitude": "07\u00b0 14' 40.74\" S", "condicao": "Satisfat\u00f3ria", "tipo": "BSTC", "dimensao": "1,2", "largura": "9", "exten_oac": "22", "observacao": "Satisfat\u00f3ria"}, "geometry": {"type": "Point", "coordinates": [-60.63508651, -7.244648725]}}, {"id": "35", "type": "Feature", "properties": {"br_uf": "174/AM", "contrato": "SR-078-2020", "km": "224,8", "longitude": "060\u00b0 38' 10.4\" W", "latitude": "07\u00b0 14' 37.83\" S", "condicao": "Demolir e Recompor", "tipo": "BSTC", "dimensao": "1,2", "largura": "9", "exten_oac": "20", "observacao": "Demolir e Recompor"}, "geometry": {"type": "Point", "coordinates": [-60.63622211, -7.243841177]}}]}