{"type": "FeatureCollection", "features": [{"id": "0", "type": "Feature", "properties": {"Id": 0, "Areas": "A0", "Latitude": "01\u00b0 14' 17.0\" S", "Longitude": "060\u00b0 24' 59.0\" W", "Km": null, "Lado": "LE", "Area_m2": "1553,00", "Observacao": "Pouco solo exposto"}, "geometry": {"type": "Point", "coordinates": [-60.41638888888889, -1.2380555555555557]}}, {"id": "1", "type": "Feature", "properties": {"Id": 0, "Areas": "A01", "Latitude": "01\u00b0 14' 48.88\" S", "Longitude": "060\u00b0 24' 36.36\" W", "Km": "1093,7", "Lado": "LE", "Area_m2": "5822,00", "Observacao": "\u00c1rea destinada ao acesso do linh\u00e3o"}, "geometry": {"type": "Point", "coordinates": [-60.4101, -1.246911111111111]}}, {"id": "2", "type": "Feature", "properties": {"Id": 0, "Areas": "A02", "Latitude": "01\u00b0 14' 36.34\" S", "Longitude": "060\u00b0 24' 43.42\" W", "Km": "1094,1", "Lado": "LE", "Area_m2": "1851,00", "Observacao": "\u00c1rea com presen\u00e7a de vegeta\u00e7\u00e3o rasteira, mas com desenvolvimento regular de mudas"}, "geometry": {"type": "Point", "coordinates": [-60.41206111111111, -1.2434277777777778]}}, {"id": "3", "type": "Feature", "properties": {"Id": 0, "Areas": "A03", "Latitude": "01\u00b0 14' 28.82\" S", "Longitude": "060\u00b0 24' 48.6\" W", "Km": "1094,4", "Lado": "LD", "Area_m2": "3809,00", "Observacao": "\u00c1rea com presen\u00e7a de vegeta\u00e7\u00e3o rasteira, mas com desenvolvimento regular de mudas"}, "geometry": {"type": "Point", "coordinates": [-60.4135, -1.241338888888889]}}, {"id": "4", "type": "Feature", "properties": {"Id": 0, "Areas": "A04", "Latitude": "01\u00b0 14' 33.2\" S", "Longitude": "060\u00b0 24' 45.8\" W", "Km": "1094,2", "Lado": "LE", "Area_m2": "16724,00", "Observacao": "\u00c1rea destinada ao acesso do linh\u00e3o"}, "geometry": {"type": "Point", "coordinates": [-60.41272222222222, -1.2425555555555556]}}, {"id": "5", "type": "Feature", "properties": {"Id": 0, "Areas": "A05", "Latitude": "01\u00b0 14' 15.98\" S", "Longitude": "060\u00b0 24' 59.8\" W", "Km": "1094,9", "Lado": "LE", "Area_m2": "3136,00", "Observacao": "A \u00e1rea de PRAD encontra-se parcialmente situada no acesso, apresentando solo pouco exposto, aus\u00eancia de coroamento, alguns indiv\u00edduos bem desenvolvidos e ocorr\u00eancia de regenera\u00e7\u00e3o natura"}, "geometry": {"type": "Point", "coordinates": [-60.41661111111111, -1.2377722222222223]}}, {"id": "6", "type": "Feature", "properties": {"Id": 0, "Areas": "A06", "Latitude": "01\u00b0 13' 38.58\" S", "Longitude": "060\u00b0 25' 24.9\" W", "Km": "1096,3", "Lado": "LD", "Area_m2": "19876,00", "Observacao": "Solo parcialmente exposto, partes da \u00e1rea sendo usada como obras, regenera\u00e7\u00e3o natural"}, "geometry": {"type": "Point", "coordinates": [-60.42358333333333, -1.2273833333333335]}}, {"id": "7", "type": "Feature", "properties": {"Id": 0, "Areas": "A07", "Latitude": "01\u00b0 13' 7.6\" S", "Longitude": "060\u00b0 25' 37.58\" W", "Km": "1097,3", "Lado": "LE", "Area_m2": "5254,00", "Observacao": "\u00c1rea destinada ao acesso do linh\u00e3o"}, "geometry": {"type": "Point", "coordinates": [-60.427105555555556, -1.218777777777778]}}, {"id": "8", "type": "Feature", "properties": {"Id": 0, "Areas": "A08", "Latitude": "01\u00b0 12' 52.95\" S", "Longitude": "060\u00b0 25' 42.44\" W", "Km": "1097,8", "Lado": "LD", "Area_m2": "3486,00", "Observacao": "Regenera\u00e7\u00e3o Natural"}, "geometry": {"type": "Point", "coordinates": [-60.42845555555555, -1.2147083333333333]}}, {"id": "9", "type": "Feature", "properties": {"Id": 0, "Areas": "A09", "Latitude": "01\u00b0 12' 42.98\" S", "Longitude": "060\u00b0 25' 46.29\" W", "Km": "1098,2", "Lado": "LD", "Area_m2": "122,00", "Observacao": "\u00c1rea com presen\u00e7a de vegeta\u00e7\u00e3o rasteira, mas com bom desenvolvimento de mudas"}, "geometry": {"type": "Point", "coordinates": [-60.429525, -1.211938888888889]}}, {"id": "10", "type": "Feature", "properties": {"Id": 0, "Areas": "A10", "Latitude": "01\u00b0 12' 32.91\" S", "Longitude": "060\u00b0 25' 50.17\" W", "Km": "1098,5", "Lado": "LE", "Area_m2": "810,00", "Observacao": "\u00c1rea destinada ao acesso do linh\u00e3o"}, "geometry": {"type": "Point", "coordinates": [-60.43060277777778, -1.2091416666666666]}}, {"id": "11", "type": "Feature", "properties": {"Id": 0, "Areas": "A11", "Latitude": "01\u00b0 12' 9.72\" S", "Longitude": "060\u00b0 25' 58.62\" W", "Km": "1099,2", "Lado": "LD", "Area_m2": "5686,00", "Observacao": "\u00c1rea com presen\u00e7a de vegeta\u00e7\u00e3o rasteira, mas com bom desenvolvimento de mudas"}, "geometry": {"type": "Point", "coordinates": [-60.43295, -1.2026999999999999]}}, {"id": "12", "type": "Feature", "properties": {"Id": 0, "Areas": "A12", "Latitude": "01\u00b0 11' 35.96\" S", "Longitude": "060\u00b0 26' 5.87\" W", "Km": "1100,3", "Lado": "LE", "Area_m2": "3685,00", "Observacao": "\u00c1rea com presen\u00e7a de vegeta\u00e7\u00e3o rasteira, mas com bom desenvolvimento de mudas"}, "geometry": {"type": "Point", "coordinates": [-60.43496388888889, -1.1933222222222222]}}, {"id": "13", "type": "Feature", "properties": {"Id": 0, "Areas": "A13", "Latitude": "01\u00b0 11' 19.2\" S", "Longitude": "060\u00b0 26' 8.36\" W", "Km": "1100,8", "Lado": "LD", "Area_m2": "10369,00", "Observacao": "\u00c1rea com presen\u00e7a de vegeta\u00e7\u00e3o rasteira, mas com bom desenvolvimento de mudas"}, "geometry": {"type": "Point", "coordinates": [-60.43565555555555, -1.1886666666666668]}}, {"id": "14", "type": "Feature", "properties": {"Id": 0, "Areas": "A14", "Latitude": "01\u00b0 11' 11.59\" S", "Longitude": "060\u00b0 26' 9.97\" W", "Km": "1101,1", "Lado": "LE", "Area_m2": "8755,00", "Observacao": "Pouco solo exposto, incid\u00eancia de braqui\u00e1ria, pouca sobreviv\u00eancia e desenvolvimento satisfat\u00f3rio dos indiv\u00edduos sobreviventes"}, "geometry": {"type": "Point", "coordinates": [-60.436102777777776, -1.1865527777777778]}}, {"id": "15", "type": "Feature", "properties": {"Id": 0, "Areas": "A15", "Latitude": "01\u00b0 09' 41.07\" S", "Longitude": "060\u00b0 26' 26.0\" W", "Km": "1103,9", "Lado": "LD", "Area_m2": "4072,00", "Observacao": "\u00c1rea com predomin\u00e2ncia de vegeta\u00e7\u00e3o rasteira e com baixo desenvolvimento de mudas"}, "geometry": {"type": "Point", "coordinates": [-60.440555555555555, -1.1614083333333332]}}, {"id": "16", "type": "Feature", "properties": {"Id": 0, "Areas": "A16", "Latitude": "01\u00b0 09' 41.04\" S", "Longitude": "060\u00b0 26' 26.15\" W", "Km": "1103,9", "Lado": "LE", "Area_m2": "3130,00", "Observacao": "\u00c1rea destinada ao acesso do linh\u00e3o"}, "geometry": {"type": "Point", "coordinates": [-60.440597222222216, -1.1614]}}, {"id": "17", "type": "Feature", "properties": {"Id": 0, "Areas": "A17", "Latitude": "01\u00b0 09' 25.93\" S", "Longitude": "060\u00b0 26' 28.74\" W", "Km": "1104,4", "Lado": "LD", "Area_m2": "6713,00", "Observacao": "\u00c1rea com predomin\u00e2ncia de vegeta\u00e7\u00e3o rasteira e\ncom baixo desenvolvimento de mudas"}, "geometry": {"type": "Point", "coordinates": [-60.441316666666665, -1.1572027777777776]}}, {"id": "18", "type": "Feature", "properties": {"Id": 0, "Areas": "A18", "Latitude": "01\u00b0 09' 26.43\" S", "Longitude": "060\u00b0 26' 29.09\" W", "Km": "1104,4", "Lado": "LE", "Area_m2": "7336,00", "Observacao": "\u00c1rea destinada ao acesso do linh\u00e3o"}, "geometry": {"type": "Point", "coordinates": [-60.44141388888889, -1.1573416666666665]}}, {"id": "19", "type": "Feature", "properties": {"Id": 0, "Areas": "A19", "Latitude": "01\u00b0 08' 31.63\" S", "Longitude": "060\u00b0 26' 38.88\" W", "Km": "1106,1", "Lado": "LD", "Area_m2": "606,00", "Observacao": "\u00c1rea com presen\u00e7a de vegeta\u00e7\u00e3o rasteira, mas com bom desenvolvimento de mudas"}, "geometry": {"type": "Point", "coordinates": [-60.44413333333333, -1.1421194444444445]}}, {"id": "20", "type": "Feature", "properties": {"Id": 0, "Areas": "A20", "Latitude": "01\u00b0 08' 26.74\" S", "Longitude": "060\u00b0 26' 39.77\" W", "Km": "1106,2", "Lado": "LD", "Area_m2": "4802,00", "Observacao": "\u00c1rea com presen\u00e7a de vegeta\u00e7\u00e3o rasteira, mas com bom desenvolvimento de mudas"}, "geometry": {"type": "Point", "coordinates": [-60.444380555555554, -1.1407611111111111]}}, {"id": "21", "type": "Feature", "properties": {"Id": 0, "Areas": "A21", "Latitude": "01\u00b0 08' 11.43\" S", "Longitude": "060\u00b0 26' 42.66\" W", "Km": "1106,7", "Lado": "LD", "Area_m2": "6033,00", "Observacao": "\u00c1rea com presen\u00e7a de vegeta\u00e7\u00e3o rasteira, mas com desenvolvimento regular de mudas"}, "geometry": {"type": "Point", "coordinates": [-60.44518333333333, -1.1365083333333332]}}, {"id": "22", "type": "Feature", "properties": {"Id": 0, "Areas": "A22", "Latitude": "01\u00b0 08' 2.76\" S", "Longitude": "060\u00b0 26' 45.81\" W", "Km": "1107,0", "Lado": "LD", "Area_m2": "11076,00", "Observacao": "\u00c1rea com presen\u00e7a de vegeta\u00e7\u00e3o rasteira, mas com desenvolvimento regular de mudas"}, "geometry": {"type": "Point", "coordinates": [-60.44605833333333, -1.1340999999999999]}}, {"id": "23", "type": "Feature", "properties": {"Id": 0, "Areas": "A23", "Latitude": "01\u00b0 07' 21.2\" S", "Longitude": "060\u00b0 27' 6.99\" W", "Km": "1108,4", "Lado": "LD", "Area_m2": "1352,00", "Observacao": "\u00c1rea com presen\u00e7a de vegeta\u00e7\u00e3o rasteira, mas com desenvolvimento regular de mudas"}, "geometry": {"type": "Point", "coordinates": [-60.45194166666667, -1.1225555555555555]}}, {"id": "24", "type": "Feature", "properties": {"Id": 0, "Areas": "A24", "Latitude": "01\u00b0 07' 23.75\" S", "Longitude": "060\u00b0 27' 10.24\" W", "Km": "1108,4", "Lado": "LE", "Area_m2": "3527,00", "Observacao": "\u00c1rea com presen\u00e7a de vegeta\u00e7\u00e3o rasteira, mas com bom\ndesenvolvimento de mudas"}, "geometry": {"type": "Point", "coordinates": [-60.452844444444445, -1.1232638888888888]}}, {"id": "25", "type": "Feature", "properties": {"Id": 0, "Areas": "A25", "Latitude": "01\u00b0 06' 58.82\" S", "Longitude": "060\u00b0 27' 19.75\" W", "Km": "1109,2", "Lado": "LD", "Area_m2": "5684,00", "Observacao": "\u00c1rea com presen\u00e7a de vegeta\u00e7\u00e3o rasteira, mas com bom\ndesenvolvimento de mudas"}, "geometry": {"type": "Point", "coordinates": [-60.455486111111114, -1.116338888888889]}}, {"id": "26", "type": "Feature", "properties": {"Id": 0, "Areas": "A26", "Latitude": "01\u00b0 06' 59.73\" S", "Longitude": "060\u00b0 27' 21.27\" W", "Km": "1109,2", "Lado": "LE", "Area_m2": "562,00", "Observacao": "\u00c1rea com presen\u00e7a de vegeta\u00e7\u00e3o rasteira, mas com bom desenvolvimento de mudas"}, "geometry": {"type": "Point", "coordinates": [-60.45590833333333, -1.1165916666666666]}}, {"id": "27", "type": "Feature", "properties": {"Id": 0, "Areas": "A27", "Latitude": "01\u00b0 06' 36.39\" S", "Longitude": "060\u00b0 27' 31.63\" W", "Km": "1110,0", "Lado": "LE", "Area_m2": "7719,00", "Observacao": "\u00c1rea destinada ao acesso do linh\u00e3o."}, "geometry": {"type": "Point", "coordinates": [-60.45878611111112, -1.1101083333333335]}}, {"id": "28", "type": "Feature", "properties": {"Id": 0, "Areas": "A28", "Latitude": "01\u00b0 05' 14.46\" S", "Longitude": "060\u00b0 27' 45.16\" W", "Km": "1112,5", "Lado": "LE", "Area_m2": "4450,00", "Observacao": "\u00c1rea destinada ao acesso do linh\u00e3o."}, "geometry": {"type": "Point", "coordinates": [-60.46254444444445, -1.0873499999999998]}}, {"id": "29", "type": "Feature", "properties": {"Id": 0, "Areas": "A29", "Latitude": "01\u00b0 03' 34.08\" S", "Longitude": "060\u00b0 28' 17.11\" W", "Km": "1115,8", "Lado": "LE", "Area_m2": "34220,00", "Observacao": "\u00c1rea destinada ao acesso do linh\u00e3o."}, "geometry": {"type": "Point", "coordinates": [-60.47141944444444, -1.0594666666666668]}}, {"id": "30", "type": "Feature", "properties": {"Id": 0, "Areas": "A30", "Latitude": "01\u00b0 03' 12.09\" S", "Longitude": "060\u00b0 28' 23.66\" W", "Km": "1116,5", "Lado": "LE", "Area_m2": "8620,00", "Observacao": "\u00c1rea destinada ao acesso do linh\u00e3o e dep\u00f3sito de material (Autorizado pela ACWA)"}, "geometry": {"type": "Point", "coordinates": [-60.47323888888889, -1.0533583333333334]}}, {"id": "31", "type": "Feature", "properties": {"Id": 0, "Areas": "A31", "Latitude": "01\u00b0 02' 57.15\" S", "Longitude": "060\u00b0 28' 28.06\" W", "Km": "1117,0", "Lado": "LE", "Area_m2": "3845,00", "Observacao": "\u00c1rea destinada ao acesso do linh\u00e3o."}, "geometry": {"type": "Point", "coordinates": [-60.47446111111111, -1.0492083333333335]}}, {"id": "32", "type": "Feature", "properties": {"Id": 0, "Areas": "A32", "Latitude": "01\u00b0 02' 56.3\" S", "Longitude": "060\u00b0 28' 28.09\" W", "Km": "1117,0", "Lado": "LD", "Area_m2": "5327,00", "Observacao": "\u00c1rea com bom desenvolvimento de mudas"}, "geometry": {"type": "Point", "coordinates": [-60.474469444444445, -1.0489722222222224]}}, {"id": "33", "type": "Feature", "properties": {"Id": 0, "Areas": "A33", "Latitude": "01\u00b0 02' 10.42\" S", "Longitude": "060\u00b0 28' 42.04\" W", "Km": "1118,5", "Lado": "LE", "Area_m2": "319,00", "Observacao": "\u00c1rea destinada ao acesso do linh\u00e3o."}, "geometry": {"type": "Point", "coordinates": [-60.478344444444446, -1.036227777777778]}}, {"id": "34", "type": "Feature", "properties": {"Id": 0, "Areas": "A34", "Latitude": "01\u00b0 01' 47.69\" S", "Longitude": "060\u00b0 28' 51.02\" W", "Km": "1119,2", "Lado": "LE", "Area_m2": "23191,00", "Observacao": "\u00c1rea com bom desenvolvimento de mudas"}, "geometry": {"type": "Point", "coordinates": [-60.48083888888889, -1.0299138888888888]}}, {"id": "35", "type": "Feature", "properties": {"Id": 0, "Areas": "A35", "Latitude": "01\u00b0 01' 41.12\" S", "Longitude": "060\u00b0 28' 50.12\" W", "Km": "1119,4", "Lado": "LD", "Area_m2": "30975,00", "Observacao": "\u00c1rea destinada ao acesso do linh\u00e3o."}, "geometry": {"type": "Point", "coordinates": [-60.48058888888889, -1.0280888888888888]}}, {"id": "36", "type": "Feature", "properties": {"Id": 0, "Areas": "A36", "Latitude": "01\u00b0 00' 25.27\" S", "Longitude": "060\u00b0 29' 12.49\" W", "Km": "1121,8", "Lado": "LE", "Area_m2": "315,00", "Observacao": "\u00c1rea destinada ao acesso do linh\u00e3o."}, "geometry": {"type": "Point", "coordinates": [-60.486802777777775, -1.0070194444444445]}}, {"id": "37", "type": "Feature", "properties": {"Id": 0, "Areas": "A37", "Latitude": "00\u00b0 59' 38.1\" S", "Longitude": "060\u00b0 29' 26.31\" W", "Km": "1123,3", "Lado": "LE", "Area_m2": "6275,00", "Observacao": "Apresenta solo exposto, \u00e1reas com regenera\u00e7\u00e3o natural, precisa de coroamento e aduba\u00e7\u00e3o."}, "geometry": {"type": "Point", "coordinates": [-60.49064166666667, -0.9939166666666666]}}, {"id": "38", "type": "Feature", "properties": {"Id": 0, "Areas": "A38", "Latitude": "00\u00b0 59' 26.77\" S", "Longitude": "060\u00b0 29' 29.25\" W", "Km": "1123,7", "Lado": "LD", "Area_m2": "3104,00", "Observacao": "\u00c1rea com presen\u00e7a de vegeta\u00e7\u00e3o rasteira, mas com\ndesenvolvimento regular de mudas"}, "geometry": {"type": "Point", "coordinates": [-60.491458333333334, -0.9907694444444444]}}, {"id": "39", "type": "Feature", "properties": {"Id": 0, "Areas": "A39", "Latitude": "00\u00b0 59' 19.98\" S", "Longitude": "060\u00b0 29' 31.41\" W", "Km": "1123,9", "Lado": "LE", "Area_m2": "10333,00", "Observacao": "Solo exposto, indiv\u00edduos com desenvolvimento satisfat\u00f3rio"}, "geometry": {"type": "Point", "coordinates": [-60.49205833333333, -0.9888833333333333]}}, {"id": "40", "type": "Feature", "properties": {"Id": 0, "Areas": "A40", "Latitude": "00\u00b0 58' 36.27\" S", "Longitude": "060\u00b0 29' 42.91\" W", "Km": "1125,3", "Lado": "LD", "Area_m2": "6054,00", "Observacao": "\u00c1rea de acesso"}, "geometry": {"type": "Point", "coordinates": [-60.49525277777778, -0.9767416666666666]}}, {"id": "41", "type": "Feature", "properties": {"Id": 0, "Areas": "A41", "Latitude": "00\u00b0 57' 39.23\" S", "Longitude": "060\u00b0 30' 1.44\" W", "Km": "1127,2", "Lado": "LE", "Area_m2": "2581,00", "Observacao": "Regenera\u00e7\u00e3o natural, indiv\u00edduos com baixo desenvolvimento, presen\u00e7a de braqui\u00e1ria."}, "geometry": {"type": "Point", "coordinates": [-60.5004, -0.9608972222222222]}}, {"id": "42", "type": "Feature", "properties": {"Id": 0, "Areas": "A48", "Latitude": "00\u00b0 51' 43.8\" S", "Longitude": "060\u00b0 31' 8.93\" W", "Km": "1138,7", "Lado": "LE", "Area_m2": "2763,00", "Observacao": "\u00c1rea em est\u00e1gio avan\u00e7ado de recupera\u00e7\u00e3o"}, "geometry": {"type": "Point", "coordinates": [-60.51914722222222, -0.8621666666666666]}}, {"id": "43", "type": "Feature", "properties": {"Id": 0, "Areas": "A42", "Latitude": "00\u00b0 57' 19.99\" S", "Longitude": "060\u00b0 30' 6.86\" W", "Km": "1127,8", "Lado": "LD", "Area_m2": "1308,00", "Observacao": "\u00c1rea destinada ao acesso do linh\u00e3o."}, "geometry": {"type": "Point", "coordinates": [-60.50190555555555, -0.9555527777777777]}}, {"id": "44", "type": "Feature", "properties": {"Id": 0, "Areas": "A43", "Latitude": "00\u00b0 55' 44.1\" S", "Longitude": "060\u00b0 30' 36.67\" W", "Km": "1130,8", "Lado": "LE", "Area_m2": "3440,00", "Observacao": "\u00c1rea destinada ao acesso do linh\u00e3o."}, "geometry": {"type": "Point", "coordinates": [-60.51018611111111, -0.9289166666666666]}}, {"id": "45", "type": "Feature", "properties": {"Id": 0, "Areas": "A44", "Latitude": "00\u00b0 55' 38.74\" S", "Longitude": "060\u00b0 30' 38.06\" W", "Km": "1131,0", "Lado": "LD", "Area_m2": "2982,00", "Observacao": "Solo exposto, presen\u00e7a de braqui\u00e1ria, indiv\u00edduos com baixo desenvolvimento"}, "geometry": {"type": "Point", "coordinates": [-60.51057222222222, -0.9274277777777777]}}, {"id": "46", "type": "Feature", "properties": {"Id": 0, "Areas": "A45", "Latitude": "00\u00b0 55' 39.44\" S", "Longitude": "060\u00b0 30' 39.04\" W", "Km": "1131,0", "Lado": "LE", "Area_m2": "2887,00", "Observacao": "\u00c1rea com presen\u00e7a de vegeta\u00e7\u00e3o rasteira, mas com baixo desenvolvimento de mudas"}, "geometry": {"type": "Point", "coordinates": [-60.510844444444444, -0.9276222222222222]}}, {"id": "47", "type": "Feature", "properties": {"Id": 0, "Areas": "A46", "Latitude": "00\u00b0 52' 58.29\" S", "Longitude": "060\u00b0 31' 1.02\" W", "Km": "1136,0", "Lado": "LD", "Area_m2": "10849,00", "Observacao": "\u00c1rea com presen\u00e7a de vegeta\u00e7\u00e3o rasteira, mas com bom\ndesenvolvimento de mudas"}, "geometry": {"type": "Point", "coordinates": [-60.51695, -0.8828583333333334]}}, {"id": "48", "type": "Feature", "properties": {"Id": 0, "Areas": "A47", "Latitude": "00\u00b0 52' 20.32\" S", "Longitude": "060\u00b0 31' 0.01\" W", "Km": "1137,4", "Lado": "LE", "Area_m2": "6491,00", "Observacao": "\u00c1rea em est\u00e1gio avan\u00e7ado de recupera\u00e7\u00e3o"}, "geometry": {"type": "Point", "coordinates": [-60.516669444444446, -0.8723111111111111]}}]}