{"type": "FeatureCollection", "features": [{"id": "0", "type": "Feature", "properties": {"Id": 0, "Campo2": "JAZIDA A", "Campo": "BR-307"}, "geometry": {"type": "Point", "coordinates": [-66.83824392557715, 1.131631663872154]}}, {"id": "1", "type": "Feature", "properties": {"Id": 0, "Campo2": "JAZIDA B", "Campo": "BR-307"}, "geometry": {"type": "Point", "coordinates": [-66.83625304635524, 1.1386359642474018]}}, {"id": "2", "type": "Feature", "properties": {"Id": 0, "Campo2": "JAZIDA C", "Campo": "BR-307"}, "geometry": {"type": "Point", "coordinates": [-66.82879282798889, 1.178286021191491]}}, {"id": "3", "type": "Feature", "properties": {"Id": 0, "Campo2": "JAZIDA D", "Campo": "BR-307"}, "geometry": {"type": "Point", "coordinates": [-66.76641682577058, 1.0566070798231906]}}, {"id": "4", "type": "Feature", "properties": {"Id": 0, "Campo2": "JAZIDA E", "Campo": "BR-307"}, "geometry": {"type": "Point", "coordinates": [-66.77137338970533, 1.0566719154931346]}}, {"id": "5", "type": "Feature", "properties": {"Id": 0, "Campo2": "JAZIDA F", "Campo": "BR-307"}, "geometry": {"type": "Point", "coordinates": [-66.83386680878648, 1.1247273399305522]}}, {"id": "6", "type": "Feature", "properties": {"Id": 0, "Campo2": "JAZIDA G", "Campo": "BR-307"}, "geometry": {"type": "Point", "coordinates": [-66.83691607757919, 1.1262667785147729]}}]}