{"type": "FeatureCollection", "features": [{"id": "0", "type": "Feature", "properties": {"Id": 0, "NOME": "PCA-PRAD-1/592", "ha": "0,0160 ha", "m_": "51,65m", "BR": "BR-319", "LONG": null, "LAT": null, "CONTRATO": "592", "KM": "260,90", "MUNIC\u00cdPIO": "BERUR\u00cd", "ATIVIDADE": "\u00c1REA DESCARREGAMENTO DE AGREGADOS E CIMENTO E ADME", "STATUS": "COM PARECER DO IBAMA", "NOME_PCA": "PCA-1/592"}, "geometry": {"type": "Point", "coordinates": [-61.292314580291496, -4.711120733345637]}}, {"id": "1", "type": "Feature", "properties": {"Id": 0, "NOME": "PCA-PRAD-3/592", "ha": "0,3797 ha", "m_": "3.779,36m", "BR": "BR-319", "LONG": null, "LAT": null, "CONTRATO": "592", "KM": "253,20", "MUNIC\u00cdPIO": "BORBA", "ATIVIDADE": "\u00c1REA DE EMPR\u00c9STIMO DE SAIBRO/LATERITA", "STATUS": "COM PARECER DO IBAMA ( EM USO)", "NOME_PCA": "PCA-3/592"}, "geometry": {"type": "Point", "coordinates": [-61.280851214662334, -4.6848251561180625]}}, {"id": "2", "type": "Feature", "properties": {"Id": 0, "NOME": "PCA-PRAD-1/593", "ha": "0,0597 ha", "m_": "102,79m", "BR": "BR-319", "LONG": null, "LAT": null, "CONTRATO": "593", "KM": "261,10", "MUNIC\u00cdPIO": "BERUR\u00cd", "ATIVIDADE": "\u00c1REA DE DESCARREGAMENTO", "STATUS": "COM PARECER DO IBAMA ( EM USO)", "NOME_PCA": "PCA-1/593"}, "geometry": {"type": "Point", "coordinates": [-61.29330165935775, -4.712690220125875]}}, {"id": "3", "type": "Feature", "properties": {"Id": 0, "NOME": "PCA-PRAD-2/593", "ha": "0,3879 ha", "m_": "316,42m", "BR": "BR-319", "LONG": null, "LAT": null, "CONTRATO": "593", "KM": "264,00", "MUNIC\u00cdPIO": "MANICOR\u00c9", "ATIVIDADE": "\u00c1REA DE DEP\u00d3SITO TEMPOR\u00c1RIO", "STATUS": "ENCAMINHADO AO IBAMA (Aguardando manifesta\u00e7\u00e3o)", "NOME_PCA": "PCA-2/593"}, "geometry": {"type": "Point", "coordinates": [-61.31259999999999, -4.755925000156136]}}, {"id": "4", "type": "Feature", "properties": {"Id": 0, "NOME": "PCA-PRAD-3/593", "ha": "0,2091 ha", "m_": "185,28m", "BR": "BR-319", "LONG": null, "LAT": null, "CONTRATO": "593", "KM": "291,36", "MUNIC\u00cdPIO": "BERUR\u00cd", "ATIVIDADE": "JAZIDA", "STATUS": "ENCAMINHADO AO IBAMA (Aguardando manifesta\u00e7\u00e3o)", "NOME_PCA": "PCA-3/593"}, "geometry": {"type": "Point", "coordinates": [-61.4755910298407, -4.908509065865326]}}, {"id": "5", "type": "Feature", "properties": {"Id": 0, "NOME": "PCA-PRAD-3/593", "ha": "0,2706 ha", "m_": "243,41m", "BR": "BR-319", "LONG": null, "LAT": null, "CONTRATO": "593", "KM": "306,36", "MUNIC\u00cdPIO": "BERUR\u00cd", "ATIVIDADE": "JAZIDA", "STATUS": "ENCAMINHADO AO IBAMA (Aguardando manifesta\u00e7\u00e3o)", "NOME_PCA": "PCA-3/593"}, "geometry": {"type": "Point", "coordinates": [-61.58363897724267, -4.989889465010257]}}, {"id": "6", "type": "Feature", "properties": {"Id": 0, "NOME": "PCA-PRAD-1/594", "ha": "0,7069 ha", "m_": "439,31m", "BR": "BR-319", "LONG": null, "LAT": null, "CONTRATO": "594", "KM": "391,40", "MUNIC\u00cdPIO": "MANICOR\u00c9", "ATIVIDADE": "CAIXA DE EMPR\u00c9STIMO E ADME", "STATUS": "ENCAMINHADO AO IBAMA (Aguardando manifesta\u00e7\u00e3o)", "NOME_PCA": "PCA-1/594"}, "geometry": {"type": "Point", "coordinates": [-62.11210555555556, -5.480702777957434]}}, {"id": "7", "type": "Feature", "properties": {"Id": 0, "NOME": "PCA-PRAD-1/594", "ha": "0,3551 ha", "m_": "257,58m", "BR": "BR-319", "LONG": null, "LAT": null, "CONTRATO": "594", "KM": "432,90", "MUNIC\u00cdPIO": "MANICOR\u00c9", "ATIVIDADE": "CAIXA DE EMPR\u00c9STIMO E ADME", "STATUS": "ENCAMINHADO AO IBAMA (Aguardando manifesta\u00e7\u00e3o)", "NOME_PCA": "PCA-1/594"}, "geometry": {"type": "Point", "coordinates": [-62.315961111111115, -5.794844444634248]}}, {"id": "8", "type": "Feature", "properties": {"Id": 0, "NOME": "PCA-PRAD-1/594", "ha": "0,5204 ha", "m_": "345,63m", "BR": "BR-319", "LONG": null, "LAT": null, "CONTRATO": "594", "KM": "432,90", "MUNIC\u00cdPIO": "MANICOR\u00c9", "ATIVIDADE": "CAIXA DE EMPR\u00c9STIMO E ADME", "STATUS": "ENCAMINHADO AO IBAMA (Aguardando manifesta\u00e7\u00e3o)", "NOME_PCA": "PCA-1/594"}, "geometry": {"type": "Point", "coordinates": [-62.316244444444436, -5.794950000189821]}}, {"id": "9", "type": "Feature", "properties": {"Id": 0, "NOME": "PCA-PRAD-1/594", "ha": "0,7874 ha", "m_": "478,74m", "BR": "BR-319", "LONG": null, "LAT": null, "CONTRATO": "594", "KM": "433,90", "MUNIC\u00cdPIO": "MANICOR\u00c9", "ATIVIDADE": "CAIXA DE EMPR\u00c9STIMO E ADME", "STATUS": "ENCAMINHADO AO IBAMA (Aguardando manifesta\u00e7\u00e3o)", "NOME_PCA": "PCA-1/594"}, "geometry": {"type": "Point", "coordinates": [-62.32127777777778, -5.802305555745617]}}, {"id": "10", "type": "Feature", "properties": {"Id": 0, "NOME": "PCA-PRAD-3/594", "ha": "0,1821 ha", "m_": "201,80m", "BR": "BR-319", "LONG": null, "LAT": null, "CONTRATO": "594", "KM": "374,90", "MUNIC\u00cdPIO": "MANICOR\u00c9", "ATIVIDADE": "\u00c1REA DE DEP\u00d3SITO DE MATERIAL EXCEDENTE - ADME", "STATUS": "AGUARDANDO MANIFESTA\u00c7\u00c3O DA GESTORA AMBIENTAL PARA ENCAMINHAMENTO AO IBAMA", "NOME_PCA": "PCA-3/594"}, "geometry": {"type": "Point", "coordinates": [-62.038200661498024, -5.357342409046029]}}, {"id": "11", "type": "Feature", "properties": {"Id": 0, "NOME": "PCA-PRAD-4/594", "ha": "0,5787 ha", "m_": "360,75m", "BR": "BR-319", "LONG": null, "LAT": null, "CONTRATO": "594", "KM": "350,70", "MUNIC\u00cdPIO": "MANICOR\u00c9", "ATIVIDADE": "JAZIDA", "STATUS": "COM PARECER DO IBAMA ( Ajustar PRAD ap\u00f3s execu\u00e7\u00e3o) Aguardando anun\u00eancia da SEMA.", "NOME_PCA": "PCA-4/594"}, "geometry": {"type": "Point", "coordinates": [-61.868427777777775, -5.222669444615737]}}, {"id": "12", "type": "Feature", "properties": {"Id": 0, "NOME": "PCA-PRAD-5/594", "ha": "0,2027 ha", "m_": "220,85m", "BR": "BR-319", "LONG": null, "LAT": null, "CONTRATO": "594", "KM": "359,20", "MUNIC\u00cdPIO": "MANICOR\u00c9", "ATIVIDADE": "CAIXA DE EMPR\u00c9STIMO - (\u00c1rea 118 PRAD PROERG)", "STATUS": "Inserir no PRAD PROERG (Aguardando manifesta\u00e7\u00e3o da fiscaliza\u00e7\u00e3o e da surpervisora para encaminhamento ao IBAMA).", "NOME_PCA": "PCA-5/594"}, "geometry": {"type": "Point", "coordinates": [-61.923316666666665, -5.276652777950813]}}, {"id": "13", "type": "Feature", "properties": {"Id": 0, "NOME": "PCA-PRAD-5/594", "ha": "0,2862 ha", "m_": "267,28m", "BR": "BR-319", "LONG": null, "LAT": null, "CONTRATO": "594", "KM": "387,00", "MUNIC\u00cdPIO": "MANICOR\u00c9", "ATIVIDADE": "CAIXA DE EMPR\u00c9STIMO - (\u00c1rea 137 PRAD PROERG)", "STATUS": "Inserir no PRAD PROERG (Aguardando manifesta\u00e7\u00e3o da fiscaliza\u00e7\u00e3o e da surpervisora para encaminhamento ao IBAMA).", "NOME_PCA": "PCA-5/594"}, "geometry": {"type": "Point", "coordinates": [-62.09637222222222, -5.446958333511893]}}, {"id": "14", "type": "Feature", "properties": {"Id": 0, "NOME": "PCA-PRAD-5/594", "ha": "0,3101 ha", "m_": "356,71m", "BR": "BR-319", "LONG": null, "LAT": null, "CONTRATO": "594", "KM": "396,20", "MUNIC\u00cdPIO": "MANICOR\u00c9", "ATIVIDADE": "CAIXA DE EMPR\u00c9STIMO - (\u00c1rea 145 PRAD PROERG)", "STATUS": "Inserir no PRAD PROERG (Aguardando manifesta\u00e7\u00e3o da fiscaliza\u00e7\u00e3o e da surpervisora para encaminhamento ao IBAMA).", "NOME_PCA": "PCA-5/594"}, "geometry": {"type": "Point", "coordinates": [-62.13534166666667, -5.519775000180923]}}, {"id": "15", "type": "Feature", "properties": {"Id": 0, "NOME": "PCA-PRAD-5/594", "ha": "0,1557 ha", "m_": "167,46m", "BR": "BR-319", "LONG": null, "LAT": null, "CONTRATO": "594", "KM": "414,30", "MUNIC\u00cdPIO": "MANICOR\u00c9", "ATIVIDADE": "CAIXA DE EMPR\u00c9STIMO - (\u00c1rea 154 PRAD PROERG)", "STATUS": "Inserir no PRAD PROERG (Aguardando manifesta\u00e7\u00e3o da fiscaliza\u00e7\u00e3o e da surpervisora para encaminhamento ao IBAMA).", "NOME_PCA": "PCA-5/594"}, "geometry": {"type": "Point", "coordinates": [-62.22633888888888, -5.655997222407544]}}, {"id": "16", "type": "Feature", "properties": {"Id": 0, "NOME": "PCA-PRAD-1/595", "ha": "0,3494 ha", "m_": "256,29m", "BR": "BR-319", "LONG": null, "LAT": null, "CONTRATO": "595", "KM": "513,30", "MUNIC\u00cdPIO": "TAPAU\u00c1", "ATIVIDADE": "CAIXA DE EMPR\u00c9STIMO E ADME", "STATUS": "Encaminhado ao IBAMA (Aguardando manifesta\u00e7\u00e3o)", "NOME_PCA": "PCA-1/595"}, "geometry": {"type": "Point", "coordinates": [-62.80459722222222, -6.367733333541605]}}, {"id": "17", "type": "Feature", "properties": {"Id": 0, "NOME": "PCA-PRAD-1/595", "ha": "0,4850 ha", "m_": "329,10m", "BR": "BR-319", "LONG": null, "LAT": null, "CONTRATO": "595", "KM": "511,70", "MUNIC\u00cdPIO": "TAPAU\u00c1", "ATIVIDADE": "CAIXA DE EMPR\u00c9STIMO E ADME", "STATUS": "Encaminhado ao IBAMA (Aguardando manifesta\u00e7\u00e3o)", "NOME_PCA": "PCA-1/595"}, "geometry": {"type": "Point", "coordinates": [-62.79499444444444, -6.358127777985751]}}, {"id": "18", "type": "Feature", "properties": {"Id": 0, "NOME": "PCA-PRAD-1/595", "ha": "1,2350 ha", "m_": "688,80m", "BR": "BR-319", "LONG": null, "LAT": null, "CONTRATO": "595", "KM": "510,62", "MUNIC\u00cdPIO": "TAPAU\u00c1", "ATIVIDADE": "CAIXA DE EMPR\u00c9STIMO E ADME", "STATUS": "Encaminhado ao IBAMA (Aguardando manifesta\u00e7\u00e3o)", "NOME_PCA": "PCA-1/595"}, "geometry": {"type": "Point", "coordinates": [-62.786649999999995, -6.3482388890965495]}}, {"id": "19", "type": "Feature", "properties": {"Id": 0, "NOME": "PCA-PRAD-1/595", "ha": "0,5403 ha", "m_": "357,82m", "BR": "BR-319", "LONG": null, "LAT": null, "CONTRATO": "595", "KM": "505,62", "MUNIC\u00cdPIO": "TAPAU\u00c1", "ATIVIDADE": "CAIXA DE EMPR\u00c9STIMO E ADME", "STATUS": "Encaminhado ao IBAMA (Aguardando manifesta\u00e7\u00e3o)", "NOME_PCA": "PCA-1/595"}, "geometry": {"type": "Point", "coordinates": [-62.76434166666667, -6.311058333539795]}}, {"id": "20", "type": "Feature", "properties": {"Id": 0, "NOME": "PCA-PRAD-3/595", "ha": "0,2317 ha", "m_": "231,55m", "BR": "BR-319", "LONG": null, "LAT": null, "CONTRATO": "595", "KM": "481,90", "MUNIC\u00cdPIO": "TAPAU\u00c1", "ATIVIDADE": "ADME", "STATUS": "Encaminhado ao IBAMA (Aguardando manifesta\u00e7\u00e3o)", "NOME_PCA": "PCA-3/595"}, "geometry": {"type": "Point", "coordinates": [-62.61823532023614, -6.1551620546787404]}}, {"id": "21", "type": "Feature", "properties": {"Id": 0, "NOME": "PCA-PRAD-4/595", "ha": "0,2480 ha", "m_": "254,71m", "BR": "BR-319", "LONG": null, "LAT": null, "CONTRATO": "595", "KM": "471,70", "MUNIC\u00cdPIO": "TAPAU\u00c1", "ATIVIDADE": "CAIXA DE EMPR\u00c9STIMO", "STATUS": "Encaminhado ao IBAMA (Aguardando manifesta\u00e7\u00e3o)", "NOME_PCA": "PCA-4/595"}, "geometry": {"type": "Point", "coordinates": [-62.55784166666667, -6.0791972224212225]}}, {"id": "22", "type": "Feature", "properties": {"Id": 0, "NOME": "PCA-PRAD-4/595", "ha": "0,4260 ha", "m_": "319,87m", "BR": "BR-319", "LONG": null, "LAT": null, "CONTRATO": "595", "KM": "460,30", "MUNIC\u00cdPIO": "MANICOR\u00c9", "ATIVIDADE": "CAIXA DE EMPR\u00c9STIMO", "STATUS": "Encaminhado ao IBAMA (Aguardando manifesta\u00e7\u00e3o)", "NOME_PCA": "PCA-4/595"}, "geometry": {"type": "Point", "coordinates": [-62.50374166666666, -5.991272222418373]}}, {"id": "23", "type": "Feature", "properties": {"Id": 0, "NOME": "PCA-PRAD-4/595", "ha": "0,4443 ha", "m_": "370,82m", "BR": "BR-319", "LONG": null, "LAT": null, "CONTRATO": "595", "KM": "459,90", "MUNIC\u00cdPIO": "MANICOR\u00c9", "ATIVIDADE": "CAIXA DE EMPR\u00c9STIMO", "STATUS": "Encaminhado ao IBAMA (Aguardando manifesta\u00e7\u00e3o)", "NOME_PCA": "PCA-4/595"}, "geometry": {"type": "Point", "coordinates": [-62.50188055555556, -5.988297222418269]}}, {"id": "24", "type": "Feature", "properties": {"Id": 0, "NOME": "PCA-PRAD-5/595", "ha": "0,4040 ha", "m_": "313,19m", "BR": "BR-319", "LONG": null, "LAT": null, "CONTRATO": "595", "KM": "434,70", "MUNIC\u00cdPIO": "MANICOR\u00c9", "ATIVIDADE": "CAIXA DE EMPR\u00c9STIMO - (\u00c1rea 158 PRAD PROERG)", "STATUS": "PRAD PROERG (Aguardando manifesta\u00e7\u00e3o da fiscaliza\u00e7\u00e3o e da surpervisora para encaminhamento ao IBAMA).", "NOME_PCA": "PCA-5/595"}, "geometry": {"type": "Point", "coordinates": [-61.923316666666665, -5.276652777950813]}}, {"id": "25", "type": "Feature", "properties": {"Id": 0, "NOME": "PCA-PRAD-5/595", "ha": "0,2803 ha", "m_": "270,65m", "BR": "BR-319", "LONG": null, "LAT": null, "CONTRATO": "595", "KM": "461,70", "MUNIC\u00cdPIO": "TAPAU\u00c1", "ATIVIDADE": "CAIXA DE EMPR\u00c9STIMO - (\u00c1rea 171 PRAD PROERG)", "STATUS": "PRAD PROERG (Aguardando manifesta\u00e7\u00e3o da fiscaliza\u00e7\u00e3o e da surpervisora para encaminhamento ao IBAMA).", "NOME_PCA": "PCA-5/595"}, "geometry": {"type": "Point", "coordinates": [-62.09637222222222, -5.446958333511893]}}, {"id": "26", "type": "Feature", "properties": {"Id": 0, "NOME": "PCA-PRAD-5/595", "ha": "0,2484 ha", "m_": "246,88m", "BR": "BR-319", "LONG": null, "LAT": null, "CONTRATO": "595", "KM": "469,80", "MUNIC\u00cdPIO": "TAPAU\u00c1", "ATIVIDADE": "CAIXA DE EMPR\u00c9STIMO - (\u00c1rea 176 PRAD PROERG)", "STATUS": "PRAD PROERG (Aguardando manifesta\u00e7\u00e3o da fiscaliza\u00e7\u00e3o e da surpervisora para encaminhamento ao IBAMA).", "NOME_PCA": "PCA-5/595"}, "geometry": {"type": "Point", "coordinates": [-62.13534166666667, -5.519775000180923]}}, {"id": "27", "type": "Feature", "properties": {"Id": 0, "NOME": "PCA-PRAD-5/595", "ha": "0,2215 ha", "m_": "302,66m", "BR": "BR-319", "LONG": null, "LAT": null, "CONTRATO": "595", "KM": "513,00", "MUNIC\u00cdPIO": "TAPAU\u00c1", "ATIVIDADE": "CAIXA DE EMPR\u00c9STIMO - (\u00c1rea 191 PRAD PROERG)", "STATUS": "PRAD PROERG (Aguardando manifesta\u00e7\u00e3o da fiscaliza\u00e7\u00e3o e da surpervisora para encaminhamento ao IBAMA).", "NOME_PCA": "PCA-5/595"}, "geometry": {"type": "Point", "coordinates": [-62.22633888888888, -5.655997222407544]}}, {"id": "28", "type": "Feature", "properties": {"Id": 0, "NOME": "PCA-PRAD-6/594", "ha": "0,2300 ha", "m_": "200,34m", "BR": "BR-319", "LONG": null, "LAT": null, "CONTRATO": "594", "KM": "346,00", "MUNIC\u00cdPIO": "MANICOR\u00c9", "ATIVIDADE": "ADME", "STATUS": "Encaminhado ao IBAMA (Aguardando manifesta\u00e7\u00e3o)", "NOME_PCA": "PCA-6/594"}, "geometry": {"type": "Point", "coordinates": [-61.83521666666666, -5.199977777948337]}}, {"id": "29", "type": "Feature", "properties": {"Id": 0, "NOME": "PCA-PRAD-1/482", "ha": "0,1262 ha", "m_": "299,99m", "BR": "BR-319", "LONG": null, "LAT": null, "CONTRATO": "482", "KM": "99,52", "MUNIC\u00cdPIO": "CARREIRO", "ATIVIDADE": "ADME", "STATUS": "Encaminhado ao IBAMA (Aguardando manifesta\u00e7\u00e3o)", "NOME_PCA": "PCA-1/482"}, "geometry": {"type": "Point", "coordinates": [-60.28384797328537, -3.7369721646123004]}}]}