{"type": "FeatureCollection", "features": [{"id": "0", "type": "Feature", "properties": {"Id": 0, "NOME_PCA": "PCA-2/667", "NOME": "PCA-PRAD-2/667", "CONTRATO": "667", "KM": "545,30", "ha": "0,4575 ha", "m_": "299,99m", "BR": "BR-319", "MUNIC\u00cdPIO": "TAPAU\u00c1", "ATIVIDADE": "CANTEIRO DE OBRAS", "STATUS": "Encaminhado ao IBAMA (Aguardando manifesta\u00e7\u00e3o)", "LONG": null, "LAT": null}, "geometry": {"type": "Point", "coordinates": [-62.95581715071052, -6.613171565101415]}}, {"id": "1", "type": "Feature", "properties": {"Id": 0, "NOME_PCA": "PCA-1/667", "NOME": "PCA-PRAD-1/667", "CONTRATO": "667", "KM": "545,30", "ha": "0,3899 ha", "m_": "256,54m", "BR": "BR-319", "MUNIC\u00cdPIO": "HUMAIT\u00c1", "ATIVIDADE": "CANTEIRO DE OBRAS", "STATUS": "Encaminhado ao IBAMA (Aguardando manifesta\u00e7\u00e3o)", "LONG": "062\u00b0 57.299' W", "LAT": "06\u00b0 36.793' S"}, "geometry": {"type": "Point", "coordinates": [-62.95499148635092, -6.6132202399150595]}}]}